SECTEUR,SOUS-SECTEUR,CIBLE,AGE-MIN,AGE-MAX,NOM,ADRESSE,LATITUDE,LONGITUDE,MAIL,TELEPHONE,LIEN
0,SANITAIRE,,Enfant,,,CAMSP DE BEZIERS,CENTRE EDUCATIF ET MEDICAL\r\nAVENUE DE MONSEIGNEUR COSTE 34500 BEZIERS',,,,04 67 30 43 21',
1,SANITAIRE,,Enfant,,,CAMSP DE MONTPELLIER / LUNEL,HOPITAL ST ELOI - 80 AVENUE AUGUSTIN FLICHE 34295 MONTPELLIER',,,,04 67 33 68 63',
2,SANITAIRE,,Enfant,,,CAMSP EQUINOXE - SETE,"62, BOULEVARD CAMILLE BLANC 34200 SETE'",,,,04 67 18 56 01',
3,SANITAIRE,,Enfant,,,CMPP DE BEZIERS,CENTRE EDUCATIF ET MEDICAL\r\nAVENUE DE MONSEIGNEUR COSTE 34500 BEZIERS',,,,04 99 43 00 17',
4,SANITAIRE,,Enfant,,,CMPP DE SETE,"VILLA MALIBRAN \r\n441 BIS, CHEMIN DES CARRIERES 34200 SETE'",,,,04 67 53 16 22',
5,ÉTABLISSEMENTS,,Enfant,,,CMPP MARCEL FOUCAULT,"RESIDENCE LE DIAMANT - BATIMENT B \r\n419, RUE LEON BLUM 34000 MONTPELLIER'",,,,04 67 61 08 20',
6,ÉTABLISSEMENTS,,Enfant,,,CMPP MARCEL FOUCAULT - LUNEL,450 AVENUE DES ABRIVADOS 34400 LUNEL',,,,04 99 54 90 10',
7,ÉTABLISSEMENTS,,Enfant,,,CMPP PAYS COEUR D'HERAULT,"230, AVENUE DU MAS SALAT 34150 GIGNAC'",,,,04 67 12 81 92',
8,ÉTABLISSEMENTS,,Enfant,,,IME DU CENTRE MEDICAL ET EDUCATIF DE L'ENFANCE FONTCAUDE,"70, RUE TIPASA 34080 MONTPELLIER'",,,,04 67 10 23 00',
9,ÉTABLISSEMENTS,,Enfant,,,IME DU CHATEAU D'O,"2359, AVENUE DU PERE SOULAS 34094 MONTPELLIER CEDEX 5'",,,,04 67 63 18 92',
10,ÉTABLISSEMENTS,,Enfant,,,IME INSTITUT RAYMOND FAGES,CHEMIN RAYMOND FAGES 34300 AGDE',,,,04 67 01 05 20',
11,ÉTABLISSEMENTS,,Enfant,,,IME INSTITUT SAINT HILAIRE,12 AVENUE ALEXANDRE LAVAL 34510 FLORENSAC',,,,04 67 77 00 01',
12,ÉTABLISSEMENTS,,Enfant,,,IME L'ENSOLEILLADE,55 AVENUE DE MONTPELLIER  - BP 52 34725 SAINT ANDRE DE SANGONIS',,,,04 67 57 00 46',
13,ÉTABLISSEMENTS,,Enfant,,,IME LA CORNICHE,"16 BIS, BOULEVARD JOLIOT CURIE 34200 SETE'",,,,04 67 51 28 29',
14,ÉTABLISSEMENTS,,Enfant,,,IME LA MAISON DE SOL'N,"18, AVENUE DE LA GARE 34440 NISSAN LEZ ENSERUNE'",,,,04 67 11 85 20',
15,ÉTABLISSEMENTS,,Enfant,,,IME LA PINEDE,AVENUE CYPRIEN OLIVIER 34830 JACOU',,,,04 67 59 11 78',
16,ÉTABLISSEMENTS,,Enfant,,,IME LES HIRONDELLES,"11, AVENUE DU STADE 34410 SAUVIAN'",,,,04 67 32 19 06',
17,ÉTABLISSEMENTS,,Enfant,,,IME LES HIRONDELLES PAYS DE THAU,RUE DES LIERLES CS 97001 34115 FRONTIGNAN CEDEX',,,,04 67 46 62 38',
18,ÉTABLISSEMENTS,,Enfant,,,IME LES MURIERS,"1804, AVENUE DU PERE SOULAS 34090 MONTPELLIER'",,,,04 67 63 13 48',
19,ÉTABLISSEMENTS,,Enfant,,,IME LES OLIVIERS,"695, RUE DES BOUISSES 34070 MONTPELLIER'",,,,04 67 13 23 40',
20,ÉTABLISSEMENTS,,Enfant,,,IME LES PESCALUNES,111 RUE DES NEFLIERS 34400 LUNEL',,,,04 67 83 87 57',
21,ÉTABLISSEMENTS,,Enfant,,,IME NOTRE DAME DE LA SALETTE,"2, RUE DU PUECH DU FOUR - BP 34 34600 BEDARIEUX'",,,,04 67 95 59 05',
22,ÉTABLISSEMENTS,,Enfant,,,ITEP CENTRE BOURNEVILLE,"120, RUE DU MAS PRUNET 34070 MONTPELLIER'",,,,04 67 42 43 66',
23,ÉTABLISSEMENTS,,Enfant,,,ITEP INSTITUT CAMPESTRE,"1120, ROUTE DE BEDARIEUX 34700 LODEVE'",,,,04 67 44 23 44',
24,ÉTABLISSEMENTS,,Enfant,,,ITEP LA CORNICHE,"16 BIS, BOULEVARD JOLIOT CURIE 34200 SETE'",,,,04 67 51 28 29',
25,ÉTABLISSEMENTS,,Enfant,,,ITEP LE LANGUEDOC,38 RUE DU MAZET - MAS PRUNET 34070 MONTPELLIER',,,,04 67 42 45 44',
26,ÉTABLISSEMENTS,,Enfant,,,ITEP MONT-LOZERE,"74, RUE MICHELINE OSTERMEYER 34500 BEZIERS'",,,,04 67 31 87 40',
27,ÉTABLISSEMENTS,,Enfant,,,ITEP NAZARETH,"13, RUE DE NAZARETH 34093 MONTPELLIER'",,,,04 99 58 21 21',
28,ACCUEILS ALTERNATIFS,,Enfant,,,ACCUEIL ADOLESCENTS SESAME - L'OUSTAL DE SESAME,"b""31, AVENUE DE L'OCCITANIE 34310 CAPESTANG""",,,,04 67 93 31 02',
29,ACCUEILS ALTERNATIFS,,Enfant,,,ACCUEIL ADOLESCENTS SESAME - LA MAISON DE MANON,"22, RUE DES ROMARINS 34990 JUVIGNAC'",,,,04 67 40 52 01',
30,ACCUEILS ALTERNATIFS,,Enfant,,,CENTRE D'EDUCATION SPECIALISE POUR DEFICIENTS AUDITIFS (CESDA 34),14 RUE SAINT-VINCENT-DE-PAUL 34090 MONTPELLIER',,,,04 67 02 99 00',
31,ACCUEILS ALTERNATIFS,,Enfant,,,CENTRE D'EDUCATION SPECIALISEE POUR DEFICIENTS AUDITIFS (CESDA 34),"14, RUE SAINT VINCENT DE PAUL 34090 MONTPELLIER'",,,,04 67 02 99 00',
32,ACCUEILS ALTERNATIFS,,Enfant,,,ETABLISSEMENT POUR ENFANTS ET ADOLESCENTS POLYHANDICAPES (EEAP) COSTE ROUSSE,"43, AVENUE DES BARONNES 34730 PRADES LE LEZ'",,,,04 67 59 52 50',
33,ACCUEILS ALTERNATIFS,,Enfant,,,INSTITUT D'EDUCATION MOTRICE (IEM) ALEXANDRE JOLLIEN,"8, PLACE GENERAL DE GAULLE 34240 LAMALOU LES BAINS'",,,,04 67 95 75 30',
34,ACCUEILS ALTERNATIFS,,Enfant,,,INSTITUT D'EDUCATION MOTRICE (IEM) LA CARDABELLE,"21, AVENUE DE CASTELNAU 34090 MONTPELLIER'",,,,04 67 72 42 62',
35,ACCUEILS ALTERNATIFS,,Enfant,,,LES ATELIERS DE BENTENAC,ROUTE DES CABANES 34130 MAUGUIO',,,,04 67 29 52 45',
36,ACCUEILS ALTERNATIFS,,Enfant,,,SAFEP ET SAAAIS DE LA FEDERATION DES AVEUGLES ET AMBLYOPES DE FRANCE-LR (FAF-LR),"420, ALLEE HENRI II DE MONTMORENCY 34000 MONTPELLIER'",,,,04 67 50 50 60',
37,ACCUEILS ALTERNATIFS,,Enfant,,,SAFEP ET SSEFIS DE L'ASSOCIATION REGIONALE POUR L'INTEGRATION ET L'EDUCATION DES DEFICIENTS AUDITIFS (ARIEDA),2446 AVENUE DU PERE SOULAS 34090 MONTPELLIER',,,,04 99 23 27 70',
38,ACCUEILS ALTERNATIFS,,Enfant,,,SAFEP ET SSEFIS DU CENTRE D'EDUCATION SPECIALISEE POUR DEFICIENTS AUDITIFS (CESDA 34),"14, RUE SAINT VINCENT DE PAUL 34090 MONTPELLIER'",,,,04 67 02 99 00',
39,ACCUEILS ALTERNATIFS,,Enfant,,,SAFEP ET SSEFIS DU CENTRE DE REEDUCATION DE L'OUIE ET DE LA PAROLE (CROP PAUL BOUVIER),"b""24, ROUTE D'ALES\r\nBP7 30170 SAINT HIPPOLYTE DU FORT""",,,,04 66 77 22 06',
40,ULIS,,Enfant,,,SESSAD BOREAL,CENTRE EDUCATIF ET MEDICAL \r\nAVENUE MONSEIGNEUR COSTE 34500 BEZIERS',,,,04 67 31 73 30',
41,ULIS,,Enfant,,,SESSAD DE L'AGATHOIS,CHEMIN RAYMOND FAGES 34300 AGDE',,,,04 67 77 00 01',
42,ULIS,,Enfant,,,SESSAD DE LA MAISON DE SOL-N,"40, RUE DE LA MARGERIDE - BAT A 34760 BOUJAN SUR LIBRON'",,,,04 67 90 63 81',
43,ULIS,,Enfant,,,SESSAD DU CENTRE BOURNEVILLE,"120, RUE DU MAS PRUNET 34070 MONTPELLIER'",,,,04 67 42 43 66',
44,ULIS,,Enfant,,,SESSAD EOLE,CENTRE EDUCATIF ET MEDICAL\r\nAVENUE MONSEIGNEUR COSTE 34500 BEZIERS',,,,04 67 31 73 30',
45,ULIS,,Enfant,,,SESSAD FONTCAUDE,"70, RUE TIPASA 34080 MONTPELLIER'",,,,04 67 10 23 00',
46,ULIS,,Enfant,,,SESSAD INSTITUT CAMPESTRE,"1120, ROUTE DE BEDARIEUX 34700 LODEVE'",,,,04 67 44 23 44',
47,ULIS,,Enfant,,,SESSAD L'ENSOLEILLADE,"b""4, QUAI HERCULE COT 34800 CLERMONT L'HERAULT""",,,,04 67 88 90 85',
48,ULIS,,Enfant,,,SESSAD L'OMBRELLE,"11, RUE DU ROMARIN 34990 JUVIGNAC'",,,,04 67 52 31 29',
49,ULIS,,Enfant,,,SESSAD LA CARDABELLE,"21, AVENUE DE CASTELNAU 34090 MONTPELLIER'",,,,04 67 54 04 38',
50,ULIS,,Enfant,,,SESSAD LA CORNICHE,"16 BIS, BOULEVARD JOLIOT CURIE 34200 SETE'",,,,04 67 18 29 04',
51,ULIS,,Enfant,,,SESSAD LA DOMITIENNE,"1804, AVENUE DU PERE SOULAS 34090 MONTPELLIER'",,,,04 67 54 43 54',
52,ULIS,,Enfant,,,SESSAD LA PINEDE,AVENUE CYPRIEN OLIVIER 34830 JACOU',,,,04 67 59 11 78',
53,ULIS,,Enfant,,,SESSAD LE LANGUEDOC,"38, RUE DU MAZET - MAS PRUNET 34070 MONTPELLIER'",,,,04 67 42 45 44',
54,ULIS,,Enfant,,,SESSAD LES HIRONDELLES,RUE DES LIERLES - CS 97001 34115 FRONTIGNAN',,,,04 67 46 62 38',
55,ULIS,,Enfant,,,SESSAD LES PESCALUNES,"31, RUE DU 8 MAI 1945 34400 LUNEL'",,,,04 67 07 86 01',
56,ULIS,,Enfant,,,SESSAD MARCEL FOUCAULT,"RESIDENCE LE DIAMANT - BATIMENT B\r\n419, RUE LEON BLUM 34000 MONTPELLIER'",,,,04 67 54 25 35',
57,ULIS,,Enfant,,,SESSAD NAZARETH,"13, RUE DE NAZARETH 34093 MONTPELLIER CEDEX 5'",,,,04 99 58 21 21',
58,ULIS,,Enfant,,,SESSAD NOTRE DAME DE LA SALETTE,"2, RUE PUECH DU FOUR BP 34 34600 BEDARIEUX'",,,,04 67 95 10 59',
59,ULIS,,Enfant,,,SESSAD PARENTS THESE,"b""ZAC CLEMENT D'ALGER\r\n20, RUE DES FRERES LUMIERE 34830 JACOU""",,,,04 67 45 63 02',
60,ULIS,,Enfant,,,CLIS ECOLE H. DE BORNIER,"75, RUE OBSERVANCE 34400 LUNEL'",,,,04 67 87 83 89',
61,ULIS,,Enfant,,,MATERNELLE DESBORDES VALMORE,460 RUE DES LAVANDINS 34070 MONTPELLIER',,,,04 67 42 63 15',
62,ULIS,,Enfant,,,ULIS ECOLE  DE MONTARNAUD,AVENUE FONT MOSSON 34570 MONTARNAUD',,,,04 67 55 56 99',
63,ULIS,,Enfant,,,ULIS ECOLE ALPHONSE DAUDET,"b""BOULEVARD GAMBETTA 34800 CLERMONT L'HERAULT""",,,,04 67 96 02 69',
64,ULIS,,Enfant,,,ULIS ECOLE ANATOLE FRANCE,AVENUE ANATOLE FRANCE 34110 FRONTIGNAN',,,,04 67 46 51 11',
65,ULIS,,Enfant,,,ULIS ECOLE ANTOINE BALARD,"123, RUE DE SALAMANQUE 34080 MONTPELLIER'",,,,04 67 75 43 01',
66,ULIS,,Enfant,,,ULIS ECOLE ANTOINE DE SAINT EXUPÉRY,"16, RUE MICHELET 34370 CAZOULS LES BEZIERS'",,,,04 67 93 60 63',
67,ULIS,,Enfant,,,ULIS ECOLE ARAGO,21 RUE MONTMORENCY 34200 SETE',,,,04 67 74 35 24',
68,ULIS,,Enfant,,,ULIS ECOLE ARC EN CIEL,"260, ROUTE USCLAS 34230 PAULHAN'",,,,04 67 25 05 00',
69,ULIS,,Enfant,,,ULIS ECOLE CAPITAINE BONNET,"2, AVENUE DE LA MAIRIE 34480 MAGALAS'",,,,04 67 36 38 33',
70,ULIS,,Enfant,,,ULIS ECOLE CESAR VINAS,RUE GEORGES FABRE 34700 LODEVE',,,,04 67 88 86 03',
71,ULIS,,Enfant,,,ULIS ECOLE CHARLES BAUDELAIRE,"311, AVENUE SAINT-CLEMENT 34070 MONTPELLIER'",,,,04 67 63 08 53',
72,ULIS,,Enfant,,,ULIS ECOLE CONDORCET,"2, PLACE DES ECOLES 34830 JACOU'",,,,04 67 59 10 67',
73,ULIS,,Enfant,,,ULIS ECOLE EDOUARD HERRIOT,RUE FRANCOIS FEYNES 34500 BEZIERS',,,,04 67 62 47 47',
74,ULIS,,Enfant,,,ULIS ECOLE FRANCOIS MITTERRAND,"1330, RUE HENRI LAGATU 34080 MONTPELLIER'",,,,04 99 74 72 80',
75,ULIS,,Enfant,,,ULIS ECOLE FRANCOIS MITTERRAND,AVENUE DE NISSAN 34310 CAPESTANG',,,,04 67 93 32 79',
76,ULIS,,Enfant,,,ULIS ECOLE FRESCATIS,34220 SAINT PONS DE THOMIERES',,,,04 67 97 05 67',
77,ULIS,,Enfant,,,ULIS ECOLE GALILÉE,RUE JAUFFRE RUDEL 34080 MONTPELLIER',,,,04 67 75 34 59',
78,ULIS,,Enfant,,,ULIS ECOLE GARIBALDI,"2, PLACE DE FONTJUN 34070 MONTPELLIER'",,,,04 67 42 77 13',
79,ULIS,,Enfant,,,ULIS ECOLE GEORGES BASTIDE,"2, RUE LEON BLUM 34660 COURNONTERRAL'",,,,04 67 85 60 56',
80,ULIS,,Enfant,,,ULIS ECOLE GEORGES CLEMENCEAU,RUE DES BORIES 34140 MEZE',,,,04 67 43 81 01',
81,ULIS,,Enfant,,,ULIS ECOLE HAROUN TAZIEFF,"3, RUE DES ECOLES 34770 GIGEAN'",,,,04 67 46 64 61',
82,ULIS,,Enfant,,,ULIS ECOLE HENRI DE BORNIER,"b""75, RUE DE L'OBSERVANCE 34400 LUNEL""",,,,04 67 87 83 89',
83,ULIS,,Enfant,,,ULIS ECOLE JACQUES BREL,"5, IMPASSE DES MARMOUSETS 34000 MONTPELLIER'",,,,04 67 64 08 74',
84,ULIS,,Enfant,,,ULIS ECOLE JACQUES PREVERT,CHEMIN FAISSINE 34120 PEZENAS',,,,04 67 98 38 76',
85,ULIS,,Enfant,,,ULIS ECOLE JEAN GUY,AVENUE PAUL VIDAL 34490 MURVIEL LES BEZIERS',,,,04 67 37 80 64',
86,ULIS,,Enfant,,,ULIS ECOLE JEAN JAURES,RUE HORT DE MONSEIGNEUR 34500 BEZIERS',,,,04 67 30 10 68',
87,ULIS,,Enfant,,,ULIS ECOLE JEAN MACE,"b""RUE DU 81EME REGIMENT D'INFANTERIE 34200 SETE""",,,,04 67 51 10 50',
88,ULIS,,Enfant,,,ULIS ECOLE JEAN MACE,"289, RUE SAINT HILAIRE 34000 MONTPELLIER'",,,,04 67 64 40 60',
89,ULIS,,Enfant,,,ULIS ECOLE JEAN MERMOZ,"196, RUE DE LA CROIX DU SUD 34000 MONTPELLIER'",,,,04 67 65 04 66',
90,ULIS,,Enfant,,,ULIS ECOLE JULES FERRY,"184, AVENUE EDMOND ROSTAND 34590 MARSILLARGUES'",,,,04 67 83 55 77',
91,ULIS,,Enfant,,,ULIS ECOLE JULES FERRY,"b""PLACE DE L'EUROPE 34820 TEYRAN""",,,,04 67 70 34 27',
92,ULIS,,Enfant,,,ULIS ECOLE JULES FERRY,RUE EDOUARD HERRIOT 34290 SERVIAN',,,,04 67 39 11 42',
93,ULIS,,Enfant,,,ULIS ECOLE JULES FERRY,"15, RUE DE LA REPUBLIQUE 34300 AGDE'",,,,04 67 94 23 18',
94,ULIS,,Enfant,,,ULIS ECOLE JULES SIMON,"45, RUE DE LA MEDITERRANEE 34000 MONTPELLIER'",,,,04 67 65 60 54',
95,ULIS,,Enfant,,,ULIS ECOLE KUROSAWA,"400, RUE PIERRE CARDENAL 34080 MONTPELLIER'",,,,04 67 75 28 34',
96,ULIS,,Enfant,,,ULIS ECOLE LA CHEVALIERE,RUE FERREOL MAZAS 34500 BEZIERS',,,,04 67 76 27 74',
97,ULIS,,Enfant,,,ULIS ECOLE LA MARIANNE,RUE DES ECOLES REPUBLICAINES 34190 GANGES',,,,04 67 73 80 44',
98,ULIS,,Enfant,,,ULIS ECOLE LA RENAISSANCE,"3, RUE DU 4 SEPTEMBRE 34200 SETE'",,,,04 67 74 42 10',
99,ULIS,,Enfant,,,ULIS ECOLE LANGEVIN-WALLON,RUE DU VIGNAL 34600 BEDARIEUX',,,,04 67 95 07 48',
100,ULIS,,Enfant,,,ULIS ECOLE LE GRAND TAMARIS,AVENUE DE FREJORGUES 34970 LATTES',,,,04 67 65 21 61',
101,ULIS,,Enfant,,,ULIS ECOLE LEO MALET,"5, ALLEE PIERRE CARABASSE 34080 MONTPELLIER'",,,,04 67 75 46 45',
102,ULIS,,Enfant,,,ULIS ECOLE LEOPOLD SEDAR SENGHOR,"26, AVENUE DE BOLOGNE 34080 MONTPELLIER'",,,,04 67 75 34 79',
103,ULIS,,Enfant,,,ULIS ECOLE LES AMANDIERS,BOULEVARD BIR HAKEIM 34500 BEZIERS',,,,04 67 62 48 72',
104,ULIS,,Enfant,,,ULIS ECOLE LES ARBOUSIERS,"1, AVENUE LES ARBOUSIERS 34500 BEZIERS'",,,,04 67 76 22 18',
105,ULIS,,Enfant,,,ULIS ECOLE LES LAVANDINS,AVENUE DU STADE 34110 FRONTIGNAN LA PEYRADE',,,,04 67 46 51 61',
106,ULIS,,Enfant,,,ULIS ECOLE LES ROMARINS,RUE DE SETIF LA DEVEZE 34500 BEZIERS',,,,04 67 76 52 38',
107,ULIS,,Enfant,,,ULIS ECOLE LOUIS MALBOSC,"181, RUE MICHELE OSTERMEYER 34500 BEZIERS'",,,,04 99 43 80 10',
108,ULIS,,Enfant,,,ULIS ECOLE LOUISVILLE,"431, AVENUE LOUISVILLE 34080 MONTPELLIER'",,,,04 67 75 36 01',
109,ULIS,,Enfant,,,ULIS ECOLE LUCIE AUBRAC,RUE DU PEYROU 34570 PIGNAN',,,,04 67 47 83 34',
110,ULIS,,Enfant,,,ULIS ECOLE MARC BLOCH,"135, ALLEE DES HAUTS DE MONTPELLIER 34080 MONTPELLIER'",,,,04 67 75 13 87',
111,ULIS,,Enfant,,,ULIS ECOLE MARIO ROUSTAN,RUE ARCHIMEDE 34130 MAUGUIO',,,,04 67 29 54 68',
112,ULIS,,Enfant,,,ULIS ECOLE OLONZAC,AVENUE DE PEPIEUX 34210 OLONZAC',,,,04 68 91 32 42',
113,ULIS,,Enfant,,,ULIS ECOLE PAUL BERT,"2, RUE DE VILLEFRANCHE 34200 SETE'",,,,04 67 46 09 87',
114,ULIS,,Enfant,,,ULIS ECOLE PAUL BERT,"11, RUE AUGUSTE COMTE 34110 SERIGNAN'",,,,04 67 32 14 51',
115,ULIS,,Enfant,,,ULIS ECOLE PAUL LANGEVIN,"5, RUE DE CLEMENTVILLE 34000 MONTPELLIER'",,,,04 67 92 85 70',
116,ULIS,,Enfant,,,ULIS ECOLE PELLISSON,RUE PIERRE CURIE 34500 BEZIERS',,,,04 67 31 67 42',
117,ULIS,,Enfant,,,ULIS ECOLE PINTAT-LES OISEAUX,RUE JULES DALOU 34500 BEZIERS',,,,04 67 31 25 17',
118,ULIS,,Enfant,,,ULIS ECOLE SIGMUND FREUD,"2, RUE DES TOURTERELLES 34090 MONTPELLIER'",,,,04 67 72 42 53',
119,ULIS,,Enfant,,,ULIS ECOLE TERRES BLANCHES,RUE JULES FERRY 34110 FRONTIGNAN',,,,04 67 18 50 94',
120,ULIS,,Enfant,,,ULIS ECOLE VICTOR HUGO,RUE GENERAL RIU 34000 MONTPELLIER',,,,04 67 65 64 80',
121,ULIS,,Enfant,,,ULIS ECOLE VICTOR HUGO,AVENUE DU 8 MAI 1945 34550 BESSAN',,,,04 67 77 42 56',
122,ULIS,,Enfant,,,ULIS ECOLE VICTOR HUGO,RUE DU CALVAIRE 34830 CLAPIERS',,,,04 67 55 90 06',
123,ULIS,,Enfant,,,ULIS ECOLE VICTOR HUGO,"9, AVENUE VICTOR HUGO 34400 LUNEL'",,,,04 67 87 83 82',
124,ULIS,,Enfant,,,ULIS ECOLE VOLTAIRE,"157, RUE HENRI SELLIER 34070 MONTPELLIER'",,,,04 67 47 19 65',
125,ULIS,,Enfant,,,ULIS ECOLE WINSTON CHURCHILL,"424, RUE DU LAVANDIN 34070 MONTPELLIER'",,,,04 67 42 54 64',
126,ULIS,,Enfant,,,ULIS COLLEGE AMBRUSSUM,"45, AVENUE LOUIS MEDARD 34400 LUNEL'",,,,04 67 71 51 10',
127,ULIS,,Enfant,,,ULIS COLLEGE ARTHUR RIMBAUD,2 RUE MARIUS PETIPA 34080 MONTPELLIER',,,,04 67 75 43 90',
128,ULIS,,Enfant,,,ULIS COLLEGE CROIX D'ARGENT,"b""361, RUE DE L'ARNEL 34070 MONTPELLIER""",,,,04 67 42 94 15',
129,ULIS,,Enfant,,,ULIS COLLEGE DE LA VOIE DOMITIENNE,BP 14 34920 LE CRES',,,,04 67 70 32 78',
130,ULIS,,Enfant,,,ULIS COLLEGE DU JEU DE MAIL,"5, AVENUE BERTIN SANS 34000 MONTPELLIER'",,,,04 67 52 11 50',
131,ULIS,,Enfant,,,ULIS COLLEGE DU SALAGOU,"b""7 AVENUE PAUL VALERY 34800 CLERMONT L'HERAULT""",,,,04 67 96 04 31',
132,ULIS,,Enfant,,,ULIS COLLEGE FERDINAND FABRE,"CITE MIXTE FERDINAND FABRE\r\n2, RUE JEAN MOULIN 34600 BEDARIEUX'",,,,04 67 23 30 60',
133,ULIS,,Enfant,,,ULIS COLLEGE FRANCOIS MITTERRAND,"380, AVENUE DE CASTELNAU 34830 CLAPIERS'",,,,04 67 55 90 20',
134,ULIS,,Enfant,,,ULIS COLLEGE FRANCOIS RABELAIS,"200, RUE DE MALBOSC 34080 MONTPELLIER'",,,,04 99 77 21 21',
135,ULIS,,Enfant,,,ULIS COLLEGE FREDERIC BAZILLE,"170, AVENUE DU 8 MAI 1945 34170 CASTELNAU LE LEZ'",,,,04 67 79 74 10',
136,ULIS,,Enfant,,,ULIS COLLEGE GEORGES BRASSENS,AVENUE DU MEJEAN 34970 LATTES',,,,04 67 22 08 94',
137,ULIS,,Enfant,,,ULIS COLLEGE GERARD PHILIPE,"686, AVENUE DU PONT TRINQUAT 34070 MONTPELLIER'",,,,04 67 65 64 64',
138,ULIS,,Enfant,,,ULIS COLLEGE JEAN BENE,1 AVENUE PAUL VIDAL DE LA BLACHE 34120 PEZENAS',,,,04 67 98 11 55',
139,ULIS,,Enfant,,,ULIS COLLEGE JEAN JAURES,"10 BIS, AVENUE DU GENERAL DE GAULLE 34140 MEZE'",,,,04 67 43 81 00',
140,ULIS,,Enfant,,,ULIS COLLEGE KATIA ET MAURICE KRAFFT,BOULEVARD YVES DE MANOIR 34513 BEZIERS CEDEX',,,,04 67 76 18 66',
141,ULIS,,Enfant,,,ULIS COLLEGE LAS CAZES,"420, RUE CROIX DE LAS CAZES 34080 MONTPELLIER'",,,,04 67 04 39 39',
142,ULIS,,Enfant,,,ULIS COLLEGE LE BERANGE,"21, AVENUE CONTR\xc3\x94LE 34670 BAILLARGUES'",,,,04 67 70 13 51',
143,ULIS,,Enfant,,,ULIS COLLEGE LES ARBOURYS,RUE DE LA PROMENADE 34480 MAGALAS',,,,04 67 62 31 70',
144,ULIS,,Enfant,,,ULIS COLLEGE LES DEUX PINS,"6, RUE MAURICE CLAVEL 34113 FRONTIGNAN'",,,,04 67 18 69 50',
145,ULIS,,Enfant,,,ULIS COLLEGE LES ESCHOLIERS DE LA MOSSON,"70, AVENUE DU BITERROIS 34184 MONTPELLIER'",,,,04 67 10 47 30',
146,ULIS,,Enfant,,,ULIS COLLEGE LOUISE MICHEL,PLACE JULES FERRY 34190 GANGES',,,,04 67 73 81 01',
147,ULIS,,Enfant,,,ULIS COLLEGE LUCIE AUBRAC,"4, RUE DE JUSSIEU 34500 BEZIERS'",,,,04 99 43 20 50',
148,ULIS,,Enfant,,,ULIS COLLEGE MARCEL PAGNOL,RUE EMILE TURCO 34410 SERIGNAN',,,,04 67 39 99 99',
149,ULIS,,Enfant,,,ULIS COLLEGE MARIE CURIE,RUE DES CONDAMINES 34570 PIGNAN',,,,04 67 47 61 35',
150,ULIS,,Enfant,,,ULIS COLLEGE PAUL BERT,"20, AVENUE DE LA REPUBLIQUE 34310 CAPESTANG'",,,,04 67 49 82 22',
151,ULIS,,Enfant,,,ULIS COLLEGE PAUL RIQUET,PLACE GENERAL DE GAULLE 34500 BEZIERS',,,,04 99 43 26 30',
152,ULIS,,Enfant,,,ULIS COLLEGE PIERRE DELEY,AVENUE DE FLORENSAC 34340 MARSEILLAN',,,,04 67 35 30 70',
153,ULIS,,Enfant,,,ULIS COLLEGE RAY CHARLES,RUE DES COUSSES 34690 FABREGUES',,,,04 67 85 63 40',
154,ULIS,,Enfant,,,ULIS COLLEGE RENE CASSIN,RUE BALTHAZAR FLORET 34300 AGDE',,,,04 67 01 08 10',
155,ULIS,,Enfant,,,ULIS COLLEGE ROGER CONTREPAS,AVENUE EDMOND ROSTANG 34590 MARSILLARGUES',,,,04 67 83 42 80',
156,ULIS,,Enfant,,,ULIS COLLEGE SIMONE DE BEAUVOIR,ZONE ARTISANALE DE LA PEYRADE 34110 FRONTIGNAN LA PEYRADE',,,,04 67 80 91 00',
157,ULIS,,Enfant,,,ULIS COLLEGE VICTOR HUGO,AVENUE DE LA GARE 34550 BESSAN',,,,04 67 00 28 28',
158,ULIS,,Enfant,,,ULIS COLLEGE VICTOR HUGO,QUAI FRANCOIS MAILLOL 34200 SETE',,,,04 67 74 76 20',
159,ULIS,,Enfant,,,ULIS COLLEGE VINCENT BADIE,AVENUE GILBERT SENES 34570 MONTARNAUD',,,,04 99 62 31 70',
160,ULIS,,Enfant,,,ULIS EREA-LEA JEAN JACQUES ROUSSEAU,AVENUE DE LA COLLINE 34075 MONTPELLIER',,,,04 67 10 41 41',
161,ULIS,,Enfant,,,ULIS LYCEE JEAN MERMOZ,"717, AVENUE JEAN MERMOZ 34000 MONTPELLIER'",,,,04 67 20 60 00',
162,ULIS,,Enfant,,,ULIS LYCEE PROFESSIONNEL CHARLES ALLIES,"24, BOULEVARD JOLIOT CURIE 34120 PEZENAS'",,,,04 67 90 44 20',
163,ULIS,,Enfant,,,ULIS LYCEE PROFESSIONNEL CHARLES DE GAULLE,"19, BOULEVARD JOLIOT CURIE\r\nBP 167 34203 SETE'",,,,04 67 18 66 66',
164,ULIS,,Enfant,,,ULIS LYCEE PROFESSIONNEL GEORGES FRECHE,"401, RUE TITIEN 34000 MONTPELLIER'",,,,04 67 13 05 05',
165,ULIS,,Enfant,,,ULIS LYCEE PROFESSIONNEL JEAN MOULIN,"19, AVENUE MARTYRS DE LA RESISTANCE 34500 BEZIERS'",,,,04 67 35 59 35',
166,ULIS,,Enfant,,,ULIS LYCEE PROFESSIONNEL JULES FERRY,"270, AVENUE DE LA COLLINE 34070 MONTPELLIER CEDEX 3'",,,,04 67 10 74 01',
167,ULIS,,Enfant,,,ULIS LYCEE PROFESSIONNEL MENDES FRANCE,"380, RUE DU MAS DE BROUSSE\r\nCS 26037 34060 MONTPELLIER'",,,,04 67 13 35 00',
168,ULIS,,Enfant,,,ULIS LYCEE VICTOR HUGO,"527, ZAC LA PETITE CAMARGUE 34400 LUNEL'",,,,04 99 13 70 30',
169,ÉTABLISSEMENTS,,Adult,,,MAS ALEXANDRE JOLLIEN (ANCIENNEMENT LAMALOU LE HAUT),ROUTE DE SAINT GERVAIS COMBES 34240 LAMALOU LES BAINS',,,,04 67 95 75 30',
170,ÉTABLISSEMENTS,,Adult,,,MAS APARD - CENTRE APIGHREM,"4, RUE DES OURGOUILLOUS 34270 SAINT MATHIEU DE TREVIERS'",,,,04 67 55 16 00',
171,ÉTABLISSEMENTS,,Adult,,,MAS CAMILLE CLAUDEL,"b""RUE HECTOR BERLIOZ 34800 CLERMONT L'HERAULT""",,,,04 67 88 42 45',
172,ÉTABLISSEMENTS,,Adult,,,MAS CENTRE SAINT PIERRE,BP 15 34290 MONTBLANC',,,,04 67 98 50 07',
173,ÉTABLISSEMENTS,,Adult,,,MAS DE MONTFLOURES,TRAVERSE DE COLOMBIERS 34500 BEZIERS',,,,04 67 49 89 62',
174,ÉTABLISSEMENTS,,Adult,,,MAS DU CENTRE PAUL COSTE FLORET,BP 3 34240 LAMALOU LES BAINS',,,,04 67 23 55 00',
175,ÉTABLISSEMENTS,,Adult,,,MAS FONTCOLOMBE,"509, RUE DE CHATEAU BON 34080 MONTPELLIER'",,,,04 67 13 41 20',
176,ÉTABLISSEMENTS,,Adult,,,MAS LA PARAGE,15 RUE DES AIGUES VIVES - BP52 34725 SAINT ANDRE DE SANGONIS',,,,04 67 57 00 50',
177,ÉTABLISSEMENTS,,Adult,,,MAS LES IV SEIGNEURS,"1082, AVENUE DU PIC SAINT LOUP 34090 MONTPELLIER'",,,,04 67 63 38 62',
178,ÉTABLISSEMENTS,,Adult,,,MAS LES SOLEILS (ANCIENNEMENT PROPARA),"263, RUE DU CADUCEE \r\nPARC EUROMEDECINE 34090 MONTPELLIER'",,,,04 67 04 67 04',
179,ÉTABLISSEMENTS,,Adult,,,MAS PAYS DE THAU,"1, AVENUE DU PIN 34140 MEZE'",,,,04 99 57 23 10',
180,ÉTABLISSEMENTS,,Adult,,,MAS PERCE NEIGE,"569, AVENUE GEORGES FRECHE\r\n(ANCIEN CHEMIN DU MAS DE ROCHET) 34170 CASTELNAU LE LEZ'",,,,04 67 99 80 30',
181,ÉTABLISSEMENTS,,Adult,,,MAS SAINT VITAL,34240 COMBES',,,,04 67 23 52 00',
182,ÉTABLISSEMENTS,,Adult,,,FAM APARD - CENTRE APIGHREM,4 RUE DES OURGOUILLOUS \r\nZ.A. LES AVANTS 34270 SAINT MATHIEU DE TREVIERS',,,,04 67 55 16 00',
183,ÉTABLISSEMENTS,,Adult,,,FAM ARCHIPEL DE MASSANE,"1855, RUE DE SAINT-PRIEST 34090 MONTPELLIER'",,,,04 99 77 26 40',
184,ÉTABLISSEMENTS,,Adult,,,FAM CENTRE SAINT PIERRE,BP 15 34290 MONTBLANC',,,,04 67 98 50 07',
185,ÉTABLISSEMENTS,,Adult,,,FAM DE MONTFLOURES,TRAVERSE DE COLOMBIERS 34500 BEZIERS',,,,04 67 49 89 54',
186,ÉTABLISSEMENTS,,Adult,,,FAM DOMAINE DE LA BRUYERE,DEPARTEMENTALE 171 34400 SAINT CHRISTOL',,,,04 67 86 48 09',
187,ÉTABLISSEMENTS,,Adult,,,FAM DU MILLENAIRE,"341, RUE HIPPOLYTE FIZEAU - \r\nZAC DU MILLENAIRE 34000 MONTPELLIER'",,,,04 67 20 21 15',
188,ÉTABLISSEMENTS,,Adult,,,FAM FRESCATIS,"b""5, CHEMIN D'APPRAT\r\nBP 35 34220 SAINT PONS DE THOMIERES""",,,,04 67 97 90 70',
189,ÉTABLISSEMENTS,,Adult,,,FAM ISABELLE MARIE,"b""RUE DU PUIT DE L'AMOUR 34310 QUARANTE""",,,,04 67 89 43 25',
190,ÉTABLISSEMENTS,,Adult,,,FAM LE GUILHEM,"1804, AVENUE DU PERE SOULAS 34000 MONTPELLIER'",,,,04 99 23 27 51',
191,ÉTABLISSEMENTS,,Adult,,,FAM LE HAMEAU DES HORIZONS,"41, PLAN DES GARRIGUES 34830 CLAPIERS'",,,,04 67 59 99 15',
192,ÉTABLISSEMENTS,,Adult,,,FAM LES COTEAUX DE SESAME,"1, ROUTE DE MARGON 34480 POUZOLLES'",,,,04 99 57 20 90',
193,ÉTABLISSEMENTS,,Adult,,,FAM LES FONTAINES D'O,"71, RUE HENRI NOGUERES \r\nPARC EUROMEDECINE 34090 MONTPELLIER'",,,,04 67 40 73 50',
194,ÉTABLISSEMENTS,,Adult,,,FAM LES IV SEIGNEURS,"1082, AVENUE DU PIC SAINT LOUP 34090 MONTPELLIER'",,,,04 67 63 38 62',
195,ÉTABLISSEMENTS,,Adult,,,FAM MAISON PERCE NEIGE,"569, AVENUE GEORGES FRECHE\r\n(ANCIEN CHEMIN DU MAS DE ROCHET) 34170 CASTELNAU LE LEZ'",,,,04 67 99 80 30',
196,ÉTABLISSEMENTS,,Adult,,,FAM ROBERT FALIU,PLAISANCE 34610 SAINT GENIES DE VARENSAL',,,,04 67 23 33 23',
197,ÉTABLISSEMENTS,,Adult,,,FAM STRUCTURE HENRI WALLON,"285, RUE ROBERT KOCH \r\nPARC EUROMEDECINE 2 34080 MONTPELLIER'",,,,04 99 13 34 20',
198,ÉTABLISSEMENTS,,Adult,,,FOYER DE VIE ARCHIPEL DE MASSANE,"1855, RUE DE SAINT PRIEST \r\nPARC EUROMEDECINE 34090 MONTPELLIER'",,,,04 99 77 26 40',
199,ÉTABLISSEMENTS,,Adult,,,FOYER DE VIE CANTAUSSELS (INTERNAT),TRAVERSE DE COLOMBIERS 34500 BEZIERS',,,,04 67 49 89 65',
200,ÉTABLISSEMENTS,,Adult,,,FOYER DE VIE CANTAUSSELS MONTFLOURES,RUE DE CANTAUSSELS 34440 NISSAN LEZ ENSERUNE',,,,04 67 49 89 65',
201,ÉTABLISSEMENTS,,Adult,,,FOYER DE VIE CENTRE HERAULT,"b""2, RUE DE L'EGALITE 34120 NEZIGNAN L'EVEQUE""",,,,04 67 90 43 23',
202,ÉTABLISSEMENTS,,Adult,,,FOYER DE VIE DANIEL MAYER,CHEMIN DES ALICANTES 34400 LUNEL',,,,04 67 91 28 70',
203,ÉTABLISSEMENTS,,Adult,,,FOYER DE VIE ESPACE CAMILLE CLAUDEL,"b""ZAC DE FONTENAY\r\nRUE HECTOR BERLIOZ 34800 CLERMONT L'HERAULT""",,,,04 67 88 42 45',
204,ÉTABLISSEMENTS,,Adult,,,FOYER DE VIE FRESCATIS,"b""CHEMIN D'APPRAT\r\nBP 35 34220 SAINT PONS DE THOMIERES""",,,,04 67 97 90 70',
205,ÉTABLISSEMENTS,,Adult,,,FOYER DE VIE HENRI WALLON,"285, RUE ROBERT KOCH \r\nPARC EUROMEDECINE II 34080 MONTPELLIER'",,,,04 99 13 34 20',
206,ÉTABLISSEMENTS,,Adult,,,FOYER DE VIE ISABELLE MARIE,"b""RUE DU PUITS DE L'AMOUR 34310 QUARANTE""",,,,04 67 89 43 25',
207,ÉTABLISSEMENTS,,Adult,,,FOYER DE VIE JEAN PIAGET,"13, RUE MICHEL CLERC 34110 FRONTIGNAN LA PEYRADE'",,,,04 67 18 45 80',
208,ÉTABLISSEMENTS,,Adult,,,FOYER DE VIE L'HORIZON,"7, AVENUE DE CASTELNAU 34090 MONTPELLIER'",,,,04 67 72 69 00',
209,ÉTABLISSEMENTS,,Adult,,,FOYER DE VIE LE PARC (INTERNAT),"227, RUE DU MAS DE VILLARET\r\nCS 35032 34076 MONTPELLIER'",,,,04 67 27 10 70',
210,ÉTABLISSEMENTS,,Adult,,,FOYER DE VIE LES ARAMONS,63/175 RUE DU CADUCEE \r\nPARC EUROMEDECINE 34195 MONTPELLIER',,,,04 67 04 43 88',
211,ÉTABLISSEMENTS,,Adult,,,FOYER DE VIE LES ECUREUILS,"268, RUE DU CADUCEE \r\nPARC EUROMEDECINE 34195 MONTPELLIER'",,,,04 67 41 81 60',
212,ÉTABLISSEMENTS,,Adult,,,FOYER DE VIE LES TERRES BLANCHES (EXTERNAT),"1804, AVENUE DU PERE SOULAS 34090 MONTPELLIER'",,,,04 99 23 22 50',
213,ÉTABLISSEMENTS,,Adult,,,FOYER DE VIE MARQUEROSE (INTERNAT),"162, RUE MARQUEROSE 34000 MONTPELLIER'",,,,04 67 41 81 60',
214,ÉTABLISSEMENTS,,Adult,,,FOYER DE VIE THIERRY ALBOUY,10 RUE EVARISTE GALOIS \r\nBP 3073 34514 BEZIERS',,,,04 67 35 84 84',
215,ÉTABLISSEMENTS,,Adult,,,FOYER ESAT CENTRE HERAULT,"10, RUE LAENNEC \r\nBP 100 34120 PEZENAS'",,,,04 67 90 43 23',
216,ÉTABLISSEMENTS,,Adult,,,FOYER ESAT DU PLATEAU DES LACS,"19, LOTISSEMENT RIEUCROS 34330 LA SALVETAT SUR AGOUT'",,,,04 67 97 87 90',
217,ÉTABLISSEMENTS,,Adult,,,FOYER ESAT LE ROC CASTEL,"156, RUE DES ECOLES 34520 LE CAYLAR'",,,,04 67 44 50 22',
218,ÉTABLISSEMENTS,,Adult,,,FOYER ESAT LES COMPAGNONS DE MAGUELONE,DOMAINE DE MAGUELONE 34250 PALAVAS LES FLOTS',,,,04 67 50 63 63',
219,ÉTABLISSEMENTS,,Adult,,,FOYER ESAT LES HAUTES GARRIGUES,"b""230, ALLEE DE L'ESPLANADE 34380 SAINT MARTIN DE LONDRES""",,,,04 67 55 42 83',
220,ÉTABLISSEMENTS,,Adult,,,FOYER ESAT LES LAVANDES,"227, RUE DU MAS DE VILLARET \r\nCS 35032 34076 MONTPELLIER'",,,,04 67 27 10 70',
221,ÉTABLISSEMENTS,,Adult,,,FOYER ESAT PAYS DE THAU,CS 97001 34110 FRONTIGNAN',,,,04 67 18 48 60',
222,ÉTABLISSEMENTS,,Adult,,,FOYER ESAT ROBERT BADINTER,CHEMIN DES ALICANTES 34400 LUNEL',,,,04 67 91 28 71',
223,ÉTABLISSEMENTS,,Adult,,,FOYER ESAT ROBERT FALIU,PLAISANCE 34610 SAINT GENIES DE VARENSAL',,,,04 67 23 33 23',
224,ÉTABLISSEMENTS,,Adult,,,FOYER ESAT SEVERINE,24 RUE ARGENCE \r\nRESIDENCE ARGENCE 34500 BEZIERS',,,,04 67 49 97 48',
225,ÉTABLISSEMENTS,,Adult,,,FOYER ESAT THIERRY ALBOUY,10 RUE EVARISTE GALOIS \r\nBP 3073 34514 BEZIERS',,,,04 67 35 84 84',
226,ÉTABLISSEMENTS,,Adult,,,FOYER LOGEMENT  LES ECUREUILS,"268, RUE DU CADUCEE \r\nPARC EUROMEDECINE 34195 MONTPELLIER CEDEX 5'",,,,04 67 41 81 60',
227,ÉTABLISSEMENTS,,Adult,,,FOYER LOGEMENT HENRI WALLON,"357, AVENUE DU PROFESSEUR JEAN-LOUIS VIALA 34080 MONTPELLIER'",,,,04 99 13 34 20',
228,ÉTABLISSEMENTS,,Adult,,,FOYER LOGEMENT LE BOUQUET DES GARRIGUES,CS 97001 34110 FRONTIGNAN',,,,04 67 18 48 60',
229,ÉTABLISSEMENTS,,Adult,,,FOYER LOGEMENT LE COLIBRI,"227, RUE DU MAS DE VILLARET \r\nCS 35032 34076 MONTPELLIER'",,,,04 67 27 10 70',
230,ÉTABLISSEMENTS,,Adult,,,FOYER LOGEMENT LES COMPAGNONS DE MAGUELONE,DOMAINE DE MAGUELONE 34250 PALAVAS LES FLOTS',,,,04 67 50 63 63',
231,ÉTABLISSEMENTS,,Adult,,,FOYER LOGEMENT LES GRANDS ARBRES,CHEMIN DE CASSILLAC 34380 VIOLS LE FORT',,,,04 67 55 01 01',
232,ÉTABLISSEMENTS,,Adult,,,FOYER LOGEMENT LES HAUTES GARRIGUES,"b""230, ALLEE DE L'ESPLANADE 34380 SAINT MARTIN DE LONDRES""",,,,04 67 55 42 83',
233,ÉTABLISSEMENTS,,Adult,,,FOYER LOGEMENT MA RESIDENCE,"18, AVENUE DE LA GARDIE 34510 FLORENSAC'",,,,04 67 77 00 65',
234,ÉTABLISSEMENTS,,Adult,,,FOYER LOGEMENT PLAISANCE,34610 SAINT GENIES DE VARENSAL',,,,04 67 23 33 23',
235,INSERTION PROFESSIONNELLE,,Adult,,,ESAT APF,"8, RUE DU LANTISSARGUES 34070 MONTPELLIER'",,,,04 67 92 11 90',
236,INSERTION PROFESSIONNELLE,,Adult,,,ESAT ATELIERS KENNEDY,"285, RUE DU MAS DE PRUNET 34070 MONTPELLIER'",,,,04 67 42 62 78',
237,INSERTION PROFESSIONNELLE,,Adult,,,ESAT CATAR,"9, AVENUE DE LA GARE DU MIDI 34120 PEZENAS'",,,,04 67 90 43 23',
238,INSERTION PROFESSIONNELLE,,Adult,,,ESAT CENTRE THIERRY ALBOUY,10 RUE EVARISTE GALOIS \r\nBP 3073 34514 BEZIERS',,,,04 67 35 84 84',
239,INSERTION PROFESSIONNELLE,,Adult,,,ESAT DE MONTFLOURES VIA EUROPA,"b""ZAE VIA EUROPA\r\n3, AVENUE DE L'EUROPE 34350 VENDRES""",,,,04 67 39 49 68',
240,INSERTION PROFESSIONNELLE,,Adult,,,ESAT DE PLAISANCE,34610 SAINT GENIES DE VARENSAL',,,,04 67 23 60 29',
241,INSERTION PROFESSIONNELLE,,Adult,,,"ESAT HORS LES MURS ""LA PALANCA""","UGECAM - CRIP\r\n435, AVENUE GEORGES FRECHE\r\nCS 10010 34173 CASTELNAU LE LEZ CEDEX'",,,,04 67 33 18 00',
242,INSERTION PROFESSIONNELLE,,Adult,,,ESAT L'ENVOL,369 RUE BLAISE PASCAL \r\nBP 52 \r\nP.A. LA GARRIGUE 34172 CASTELNAU LE LEZ',,,,04 67 02 92 80',
243,INSERTION PROFESSIONNELLE,,Adult,,,ESAT L'ENVOL,Rue des Lierles\r\nCS 97001 34115 FRONTIGNAN',,,,04 67 43 23 99',
244,INSERTION PROFESSIONNELLE,,Adult,,,ESAT LA BULLE BLEUE,"285, RUE DU MAS PRUNET 34070 MONTPELLIER'",,,,04 67 42 18 61',
245,INSERTION PROFESSIONNELLE,,Adult,,,ESAT LA CROIX VERTE,"455, RUE DE LA CROIX VERTE 34090 MONTPELLIER'",,,,04 67 04 13 76',
246,INSERTION PROFESSIONNELLE,,Adult,,,ESAT LE ROC CASTEL,"156, RUE DES ECOLES 34520 LE CAYLAR'",,,,04 67 44 50 22',
247,INSERTION PROFESSIONNELLE,,Adult,,,ESAT LES ATELIERS DE LA VALLEE DE L'HERAULT,"5, CHEMIN DES USINES 34510 FLORENSAC'",,,,04 67 77 01 39',
248,INSERTION PROFESSIONNELLE,,Adult,,,ESAT LES ATELIERS DE SAPORTA,DOMAINE DE SAPORTA 34970 LATTES',,,,04 67 92 12 15',
249,INSERTION PROFESSIONNELLE,,Adult,,,ESAT LES ATELIERS DU GARRIC,"b""DOMAINE DE LA PAUSE\r\nROUTE D'ANGLES 34330 LA SALVETAT SUR AGOUT""",,,,04 67 97 61 24',
250,INSERTION PROFESSIONNELLE,,Adult,,,ESAT LES COMPAGNONS DE MAGUELONE,DOMAINE DE MAGUELONE 34250 PALAVAS LES FLOTS',,,,04 67 50 63 63',
251,INSERTION PROFESSIONNELLE,,Adult,,,ESAT LES HAUTES GARRIGUES,ZONE ARTISANALE ROUTE DE FROUZET 34380 SAINT MARTIN DE LONDRES',,,,04 67 55 15 99',
252,INSERTION PROFESSIONNELLE,,Adult,,,ESAT PEYREFICADE,ROUTE DE LA GARE 34750 VILLENEUVE LES MAGUELONNE',,,,04 67 69 41 09',
253,INSERTION PROFESSIONNELLE,,Adult,,,ESAT VIA DOMITIA,CHEMIN DES ALICANTES 34400 LUNEL',,,,04 67 86 48 00',
254,INSERTION PROFESSIONNELLE,,Adult,,,SECTION ANNEXE ESAT ATELIERS KENNEDY,"285, RUE DU MAS DE PRUNET 34070 MONTPELLIER'",,,,04 67 42 62 78',
255,INSERTION PROFESSIONNELLE,,Adult,,,SECTION ANNEXE ESAT DE L'APF,"8, RUE DU LANTISSARGUES 34070 MONTPELLIER'",,,,04 67 92 11 90',
256,INSERTION PROFESSIONNELLE,,Adult,,,SECTION ANNEXE ESAT L'ENVOL,369 RUE BLAISE PASCAL \r\nBP 52 \r\nP.A. LA GARRIGUE 34172 CASTELNAU LE LEZ',,,,04 67 02 92 80',
257,INSERTION PROFESSIONNELLE,,Adult,,,SECTION ANNEXE ESAT LES HAUTES GARRIGUES,ZAE ROUTE DE FROUZET 34380 SAINT MARTIN DE LONDRES',,,,04 67 55 15 99',
258,INSERTION PROFESSIONNELLE,,Adult,,,SECTION ANNEXE ESAT VIA EUROPA,"b""VIA EUROPA\r\n3, AVENUE DE L'EUROPE 34350 VENDRES""",,,,04 67 49 89 68',
259,INSERTION PROFESSIONNELLE,,Adult,,,SECTION ANNEXE LES ATELIERS DE SAPORTA,DOMAINE DE SAPORTA 34970 LATTES',,,,04 67 92 12 15',
260,INSERTION PROFESSIONNELLE,,Adult,,,ENTREPRISE ADAPTEE APF ENTREPRISES 34,"ZAC PARC EUREKA\r\n301, AVENUE DU WALHALLA 34000 MONTPELLIER'",,,,04 67 92 87 19',
261,INSERTION PROFESSIONNELLE,,Adult,,,ENTREPRISE ADAPTEE DE L'ETANG DE L'OR,"650, RUE BLAISE PASCAL \r\nBP 52\r\nP.A. LA GARRIGUE 34172 CASTELNAU LE LEZ'",,,,04 67 02 92 80',
262,INSERTION PROFESSIONNELLE,,Adult,,,ENTREPRISE ADAPTEE DES HAUTES GARRIGUES,ZAE ROUTE DE FROUZET 34080 SAINT MARTIN DE LONDRES',,,,04 67 55 15 99',
263,INSERTION PROFESSIONNELLE,,Adult,,,ENTREPRISE ADAPTEE EAOS SERVICES,"b""212, RUE DE L'ARTISANAT 34400 LUNEL""",,,,04 67 42 41 79',
264,INSERTION PROFESSIONNELLE,,Adult,,,ENTREPRISE ADAPTEE GDEAS,"625, RUE DE LA SALADELLE 34130 SAINT-AUNES'",,,,04 67 10 93 12',
265,INSERTION PROFESSIONNELLE,,Adult,,,ENTREPRISE ADAPTEE HANKOR PVC,"b""ZAE LES TANNES BASSES 34800 CLERMONT L'HERAULT""",,,,04 67 88 05 70',
266,INSERTION PROFESSIONNELLE,,Adult,,,ENTREPRISE ADAPTEE L'ATELIER DU PAPIER SOLEIL,"ZI DE LA LAUZE\r\n33, RUE SAINT EXUPERY 34430 SAINT JEAN DE VEDAS'",,,,04 99 53 36 83',
267,INSERTION PROFESSIONNELLE,,Adult,,,ENTREPRISE ADAPTEE LES ATELIERS DE LA VALLEE DE L'HERAULT,"5, CHEMIN DES USINES 34510 FLORENSAC'",,,,04 67 77 01 39',
268,INSERTION PROFESSIONNELLE,,Adult,,,ENTREPRISE ADAPTEE LES ATELIERS DE SAPORTA,DOMAINE DE SAPORTA 34970 LATTES',,,,04 67 92 12 15',
269,INSERTION PROFESSIONNELLE,,Adult,,,ENTREPRISE ADAPTEE NODIXIA RECYCLING SERVICES,"590, RUE DU ROUCAGNIER\r\nZAC DU ROUCAGNIER 34400 LUNEL'",,,,04 99 51 27 68',
270,INSERTION PROFESSIONNELLE,,Adult,,,ENTREPRISE ADAPTEE PLANET'ECO RECYCLAGE,"Z.I. DE LA LAUZE\r\n33, RUE SAINT-EXUPERY 34330 SAINT JEAN DE VEDAS'",,,,06 75 57 36 09',
271,INSERTION PROFESSIONNELLE,,Adult,,,ENTREPRISE ADAPTEE TALARON SERVICES,"b""BAT. HELENE\n222, RUE D'ODIN 34000 MONTPELLIER""",,,,04 11 28 00 30',
272,INSERTION PROFESSIONNELLE,,Adult,,,ENTREPRISE ADAPTEE TRIADE AVENIR SUD,169 CHEMIN DES THERMES 34170 CASTELNAU LE LEZ',,,,04 67 72 67 55',
273,INSERTION PROFESSIONNELLE,,Adult,,,ENTREPRISE ADAPTEE VIA EUROPA,"b""ZAE VIA EUROPA\r\n3, AVENUE DE L'EUROPE 34350 VENDRES""",,,,04 67 39 49 68',
274,INSERTION PROFESSIONNELLE,,Adult,,,CENTRE DE REEDUCATION ET D'INSERTION PROFESSIONNELLE (CRIP),435 AVENUE GEORGES FRECHE\r\nCS 10010 34173 CASTELNAU LE LEZ',,,,04 67 33 18 00',
275,INSERTION PROFESSIONNELLE,,Adult,,,PREORIENTATION,"435, AVENUE GEORGES FRECHE\r\nCS 10010 34173 CASTELNAU LE LEZ'",,,,04 67 33 18 00',
276,INSERTION PROFESSIONNELLE,,Adult,,,UNITE DE REINSERTION DES TRAUMATISES (URT),BP 3 34240 LAMALOU LES BAINS',,,,04 67 23 56 07',
277,INSERTION PROFESSIONNELLE,,Adult,,,CENTRE DE REEDUCATION ET D'INSERTION PROFESSIONNELLE (CRIP),435 AVENUE GEORGES FRECHE\r\nCS 10010 34173 CASTELNAU LE LEZ',,,,04 67 33 18 00',
278,INSERTION PROFESSIONNELLE,,Adult,,,PREORIENTATION,"435, AVENUE GEORGES FRECHE\r\nCS 10010 34173 CASTELNAU LE LEZ'",,,,04 67 33 18 00',
279,INSERTION PROFESSIONNELLE,,Adult,,,UEROS,"435, AVENUE GEORGES FRECHE\r\nCS 10010 34173 CASTELNAU LE LEZ'",,,,04 67 33 18 00',
280,SERVICES D'ACCOMPAGNEMENT,,Adult,,,SAVS - SIMES (SERVICE D'INTERPRETATION DE MEDIATION POUR SOURD),"866, AVENUE DU PROFESSEUR LOUIS RAVAS\r\nIMMEUBLE LE MAZET 34080 MONTPELLIER'",,,,04 67 60 21 54',
281,SERVICES D'ACCOMPAGNEMENT,,Adult,,,SAVS AIRIS,"100, RUE LEJZER ZAMENHOF 34080 MONTPELLIER'",,,,04 67 75 04 65',
282,SERVICES D'ACCOMPAGNEMENT,,Adult,,,SAVS APF - LE CAP POLE EST,"7, RUE DE LANTISSARGUES 34070 MONTPELLIER'",,,,04 67 10 42 82',
283,SERVICES D'ACCOMPAGNEMENT,,Adult,,,SAVS APF - LE CAP POLE OUEST,CENTRE SAINT PIERRE 34290 MONTBLANC',,,,04 67 31 12 53',
284,SERVICES D'ACCOMPAGNEMENT,,Adult,,,SAVS CENTRE HERAULT,"10, RUE LAENNEC \r\nBP 100 34120 PEZENAS'",,,,04 67 90 43 23',
285,SERVICES D'ACCOMPAGNEMENT,,Adult,,,SAVS DE PLAISANCE,34610 SAINT GENIES DE VARENSAL',,,,04 67 23 33 23',
286,SERVICES D'ACCOMPAGNEMENT,,Adult,,,SAVS FRESCATIS,"19, LOTISSEMENT RIEUCROS 34330 LA SALVETAT SUR AGOUT'",,,,04 67 97 87 93',
287,SERVICES D'ACCOMPAGNEMENT,,Adult,,,SAVS LE CAROUX,"1, RUE DES FRERES 34330 LA SALVETAT SUR AGOUT'",,,,04 67 97 87 90',
288,SERVICES D'ACCOMPAGNEMENT,,Adult,,,SAVS LIS AURETO,"1804, AVENUE DU PERE SOULAS 34090 MONTPELLIER'",,,,04 67 02 25 62',
289,SERVICES D'ACCOMPAGNEMENT,,Adult,,,SAVS LOU CAMIN,RUE PIERRE FLOURENS \r\nPARC EUROMEDECINE II - BAT C 34090 MONTPELLIER',,,,04 67 04 00 30',
290,SERVICES D'ACCOMPAGNEMENT,,Adult,,,SAVS MA RESIDENCE,"16, AVENUE DE LA GARDIE 34510 FLORENSAC'",,,,04 67 77 00 65',
291,SERVICES D'ACCOMPAGNEMENT,,Adult,,,SAVS TERRITOIRE DU LUNELLOIS,"450, AVENUE DES ABRIVADOS \r\nCENTRE ATHENA - BT. B 34400 LUNEL'",,,,04 67 83 65 42',
292,SERVICES D'ACCOMPAGNEMENT,,Adult,,,SAVS TONY LAINE,"1882, RUE DE MALBOSC \r\nPARC EUROMEDECINE II 34080 MONTPELLIER'",,,,04 67 58 69 32',
293,SERVICES D'ACCOMPAGNEMENT,,Adult,,,SAMSAH - SAPPA (SERVICE D'ADAPTATION POUR PERSONNES AVEUGLES GRAVEMENT MALVOYANTES) DE LA FAF-LR,"420, ALLEE HENRI II DE MONTMORENCY 34000 MONTPELLIER'",,,,04 67 50 50 60',
294,SERVICES D'ACCOMPAGNEMENT,,Adult,,,SAMSAH APF,"7, RUE DE LANTISSARGUES 34070 MONTPELLIER'",,,,04 67 10 42 82',
295,SERVICES D'ACCOMPAGNEMENT,,Adult,,,SAMSAH APF - MONTBLANC,CENTRE SAINT PIERRE 34290 MONTBLANC',,,,04 67 31 12 53',
296,SERVICES D'ACCOMPAGNEMENT,,Adult,,,SAMSAH AVH,"22, boulevard Yves Nat 34500 BEZIERS'",,,,04 67 93 36 34',
297,SERVICES D'ACCOMPAGNEMENT,,Adult,,,SAMSAH GIHP,1 CHEMIN DE BORIE - PARC DE BELLEGARDE 34170 CASTELNAU LE LEZ',,,,04 67 02 93 31',
298,SERVICES D'ACCOMPAGNEMENT,,Adult,,,SAMSAH LES VENTS DU SUD,"95, RUE PIERRE FLOURENS \r\nBAT.C 34090 MONTPELLIER'",,,,04 67 04 33 80',
299,SERVICES D'ACCOMPAGNEMENT,,Adult,,,SAMSAH TONY LAINE,"1882, RUE DE MALBOSC \r\nPARC EUROMEDECINE II 34080 MONTPELLIER'",,,,04 67 58 69 32',
300,SERVICES D'ACCOMPAGNEMENT,,Adult,,,CLUB D'ACCUEIL GEM BEZIERS,"26, AVENUE JEAN MOULIN 34500 BEZIERS'",,,,04 67 90 24 79',
301,SERVICES D'ACCOMPAGNEMENT,,Adult,,,CLUB D'ACCUEIL GEM GAMBETTA,"12 BIS, BOULEVARD PASTEUR 34000 MONTPELLIER'",,,,04 67 57 77 13',
302,SERVICES D'ACCOMPAGNEMENT,,Adult,,,CLUB D'ACCUEIL GEM LESSEPS,"356, RUE FERDINAND DE LESSEPS 34000 MONTPELLIER'",,,,04 67 58 83 57',
303,SERVICES D'ACCOMPAGNEMENT,,Adult,,,GEM JANUS 34,"1445, ROUTE DE MENDE 34090 MONTPELLIER'",,,,04 67 04 87 68',
304,SERVICES D'ACCOMPAGNEMENT,,Adult,,,GEM LES BEAUX-ARTS DES T.C.,"134, RUE DE THEBES 34000 MONTPELLIER'",,,,04 67 92 57 37',
305,SERVICES D'ACCOMPAGNEMENT,,Adult,,,GEM RABELAIS - CLUB SERVICES LOISIRS,"49, BOULEVARD RABELAIS 34000 MONTPELLIER'",,,,04 67 99 65 04 / 06 16 73 40 78',
306,CENTRES COMMUNAUX D'ACTION SOCIALE,,,,,BAILLARGUES (34670) : CCAS BAILLARGUES,25 PLACE DE THERMIDOR 34000 MONTPELLIER,43.6019239,3.8989501000000004,,04 67 87 81 76,
307,CENTRES COMMUNAUX D'ACTION SOCIALE,,,,,BESSAN (34550) : CCAS BESSAN,PLACE DE L'HOTEL DE VILLE 34550 BESSAN,43.3583044,3.4259519,,04 67 00 81 81,
308,CENTRES COMMUNAUX D'ACTION SOCIALE,,,,,BEZIERS (34500) : CCAS DE BEZIERS,14 RUE BOIELDIEU 34500 BEZIERS,43.3429654,3.2176374,,04 67 49 84 60,
309,CENTRES COMMUNAUX D'ACTION SOCIALE,,,,,CAPESTANG (34310) : CCAS DE CAPESTANG,Mairie 34310 CAPESTANG,43.328258500000004,3.043313,,04 67 93 30 05,
310,CENTRES COMMUNAUX D'ACTION SOCIALE,,,,,CASTELNAU LE LEZ (34170) : CCAS DE CASTELNAU-LE-LEZ,2 RUE DE LA CROUZETTE 34170 CASTELNAU LE LEZ,43.632678000000006,3.8980111000000006,,04 67 14 27 28,
311,CENTRES COMMUNAUX D'ACTION SOCIALE,,,,,CLERMONT L HERAULT (34800) : CCAS CLERMONT L'HERAULT,PLACE DE LA MAIRIE 34800 CLERMONT L HERAULT,43.6274737,3.429669,,04 67 88 87 18,
312,CENTRES COMMUNAUX D'ACTION SOCIALE,,,,,FRONTIGNAN (34110) : CCAS DE FRONTIGNAN,12 AVENUE JEAN MOULIN 34110 FRONTIGNAN,43.447523600000004,3.7497974999999997,,04 67 18 50 03,
313,CENTRES COMMUNAUX D'ACTION SOCIALE,,,,,GIGNAC (34150) : CCAS GIGNAC,MAIRIE PLACE DE L'ANCIENNE GENDARMERIE 34150 GIGNAC,43.6530197,3.5511947,,04 67 57 50 02,
314,CENTRES COMMUNAUX D'ACTION SOCIALE,,,,,LAURENS (34480) : CCAS DE LAURENS,1 RUE DU CHÂTEAU 34480 LAURENS,43.5239474,3.1967846,,04 67 90 28 02,
315,CENTRES COMMUNAUX D'ACTION SOCIALE,,,,,LE POUGET (34230) : CCAS LE POUGET,Mairie 34230 LE POUGET,43.5909526,3.5254828000000002,,04 67 96 71 09,
316,CENTRES COMMUNAUX D'ACTION SOCIALE,,,,,LODEVE (34700) : CCAS DE LODEVE,Mairie 34700 LODEVE,43.732470299999996,3.3172596,,04 67 44 00 17,
317,CENTRES COMMUNAUX D'ACTION SOCIALE,,,,,MARAUSSAN (34370) : CCAS DE MARAUSSAN,CCAS DE MARAUSSAN 34370 MARAUSSAN,43.3689555,3.1552606,,04 67 90 09 20,
318,CENTRES COMMUNAUX D'ACTION SOCIALE,,,,,MEZE (34140) : CCAS MEZE,MAIRIE PLACE MASSAL 34140 MEZE,43.425594700000005,3.6070267,,04 67 43 60 67,
319,CENTRES COMMUNAUX D'ACTION SOCIALE,,,,,MONTAGNAC (34530) : CCAS MONTAGNAC,6 PLACE EMILE COMBES 34530 MONTAGNAC,43.4800635,3.4840008,,04 67 49 86 86,
320,CENTRES COMMUNAUX D'ACTION SOCIALE,,,,,MONTPELLIER (34000) : CCAS MONTPELLIER,CCAS MONTPELLIER 125 PLACE DE THERMIDOR BP 9511 34000 MONTPELLIER,43.6021369,3.8991452000000004,,04 99 52 77 00,
321,CENTRES COMMUNAUX D'ACTION SOCIALE,,,,,MURVIEL LES BEZIERS (34490) : CCAS MURVIEL LES BEZIERS,CCAS MURVIEL LES BEZIERS MAIRIE PLACE GEORGES CLEMENCEAU 34490 MURVIEL LES BEZIERS,43.4399282,3.1436333,,,
322,CENTRES COMMUNAUX D'ACTION SOCIALE,,,,,NEZIGNAN L EVEQUE (34120) : CCAS NEZIGNAN L'EVEQUE,MAIRIE AVENUE TOURBES 34120 NEZIGNAN L EVEQUE,43.4221707,3.4063998,,,
323,CENTRES COMMUNAUX D'ACTION SOCIALE,,,,,PAULHAN (34230) : CCAS PAULHAN,CCAS PAULHAN MAIRIE 19 COUR NATIONAL 34230 PAULHAN,43.539814299999996,3.4583468,,,
324,CENTRES COMMUNAUX D'ACTION SOCIALE,,,,,PEZENAS (34120) : CCAS PEZENAS,CCAS PEZENAS 6 RUE MASSILLON 34120 PEZENAS,43.459729100000004,3.4216633,,,
325,CENTRES COMMUNAUX D'ACTION SOCIALE,,,,,SAINT BAUZILLE DE LA SYLVE (34230) : CCAS ST BAUZILLE DE LA SYLVE,CCAS ST BAUZILLE DE LA SYLVE 34230 SAINT BAUZILLE DE LA SYLVE,43.616729,3.548027,,,
326,CENTRES COMMUNAUX D'ACTION SOCIALE,,,,,SAINT PARGOIRE (34230) : CCAS SAINT PARGOIRE,MAIRIE 34230 SAINT PARGOIRE,43.528019,3.518761,,,
327,CENTRES COMMUNAUX D'ACTION SOCIALE,,,,,SAINT THIBERY (34630) : CCAS SAINT THIBERY,CCAS SAINT THIBERY MAIRIE 34630 SAINT THIBERY,43.3898738,3.4044187000000004,,,
328,CENTRES COMMUNAUX D'ACTION SOCIALE,,,,,SERVIAN (34290) : CCAS SERVIAN,70 GRAND RUE 34290 SERVIAN,43.4271109,3.294973,,,
329,CENTRES COMMUNAUX D'ACTION SOCIALE,,,,,SETE (34200) : CCAS SETE,8 RUE GABRIEL PERI 34200 SETE,43.4053353,3.6957345999999998,,,
330,CENTRES COMMUNAUX D'ACTION SOCIALE,,,,,TEYRAN (34820) : CCAS TEYRAN,MAIRIE PLACE DE L'EGLISE 34820 TEYRAN,43.721696,3.92395,,,
331,CENTRES COMMUNAUX D'ACTION SOCIALE,,,,,THEZAN LES BEZIERS (34490) : CCAS THEZAN LES BEZIERS,CCAS THEZAN LES BEZIERS 34490 THEZAN LES BEZIERS,43.421409000000004,3.169755,,,
332,CENTRES COMMUNAUX D'ACTION SOCIALE,,,,,VENDRES (34350) : CCAS VENDRES,CCAS VENDRES 34350 VENDRES,43.269434999999994,3.225202,,,
333,CENTRES COMMUNAUX D'ACTION SOCIALE,,,,,VILLENEUVE LES BEZIERS (34420) : CCAS DE VILLENEUVE LES BEZIERS,1 RUE MARIANNE 34420 VILLENEUVE LES BEZIERS,43.320774,3.2841530000001002,,,
334,CENTRES COMMUNAUX D'ACTION SOCIALE,,,,,VILLENEUVE LES MAGUELONE (34750) : CCAS VILLENEUVE LES MAGUELONNE,CCAS VILLENEUVE LES MAGUELONNE BP 15 34750 VILLENEUVE LES MAGUELONE,43.532977,3.862019,,,
335,CULTURE,,,,,MAISONS POUR TOUS ,,,,,,https://www.montpellier.fr/3791-maisons-pour-tous.htm
336,ACTIVITÉS EN MILIEU ORDINAIRE,,,,,ACTIVITÉS  INCLUSION LOISIRS  ,,,,,,https://www.halte-pouce.fr/ressources/profitez-davantage-des-activites-en-milieu-ordinaire
337,SECTEUR SOCIAL,,,,,ANTENNES DE LA SOLIDARITÉ,,,,,,https://www.halte-pouce.fr/ressources/les-antennes-de-la-solidarite-pres-de-chez-vous
338,ASSOCIATIONS,FÉDÉRATION,,,,COMITÉ DE LIAISON,,,,,,https://clcph.fr/category/association/
339,ASSOCIATIONS,DANSE,,,,MANQUE PAS D'AIR,1 rue de Roussel - 34150 Puéchabon,43.7144213,3.6172120999999997,,06 37 08 97 67,https://www.halte-pouce.fr/ressources/lassociation-manque-pas-dair-accueille-la-difference
340,ASSOCIATIONS,NATURE,,,,CENTRE DE PLEINE NATURE,4 avenue du chemin neuf  34190SAINT-BAUZILLE-DE-PUTOIS,43.90496659999999,3.7374796000000003,,04 67 73 70 30,https://www.halte-pouce.fr/ressources/centre-de-pleine-nature-station-cevennes
341,ASSOCIATIONS,ESPACE JEUX,,,,SENSAS,,,,,06 18 78 37 40  ,https://www.halte-pouce.fr/ressources/sensas-un-lieu-unique-pour-mettre-vos-5-sens-a-lepreuve-en-famille-et-soutenir-halte-pouce
342,ASSOCIATIONS,AUTISME ASPERGER,,,,CAFÉ ATYPIE,,,,,,https://www.halte-pouce.fr/ressources/un-cafe-asperger-un-mardi-sur-deux-a-montpellier
343,ASSOCIATIONS,SURDITÉ,,,,SURDI 34,"57, rue Raymond-Dugrand 34000  MONTPELLIER",43.605138200000006,3.8995172,,07 87 63 49 69,https://www.surdi34.fr/
344,ASSOCIATIONS,NATATION,,,,SWIMMING COOL,,,,,06 09 08 06 87,https://www.halte-pouce.fr/ressources/Piscine-et-handicap-a-Montpellier
345,ASSOCIATIONS,RANDONNÉES,,,,M.O.H.I.C.A.N.S,,,,,06 99 77 80 39 ,https://www.halte-pouce.fr/ressources/Association-Mohicans
346,ASSOCIATIONS,LOISIRS ,,,,AU PAYS DES CARRIOLES,Mas Amadou - 34150 La Boissière,43.635174000000006,3.626126,,04 67 59 64 14,https://www.halte-pouce.fr/ressources/au-pays-des-carrioles-un-parc-de-loisirs-insolite-et-accessible-a-la-boissiere
347,ASSOCIATIONS,LOISIRS - RENCONTRE,,,,UN SOURIRE EN CHANTANT,,,,,06 09 38 13 50 ,https://www.halte-pouce.fr/ressources/lassociation-un-sourire-en-chantant
348,ASSOCIATIONS,ATELIERS,,,,SAUDADE,7 rue pages Montpellier 34000,43.6084729,3.8663852999999997,,06 21 70 41 63,https://www.halte-pouce.fr/ressources/association-saudade-des-ateliers-ouverts-a-toutes-les-differences
349,ASSOCIATIONS,ATELIERS,,,,ATELIERS ADAPTÉS,Maison des jeunes et de la culture de Teyran,43.682702000000006,3.925559,,06 81 21 69 09,https://www.halte-pouce.fr/ressources/ateliers-adaptes-tous-handicaps-a-teyran
350,ASSOCIATIONS,SPORTS,,,,HANDISPORT,67 rue des Razeteurs 34070 Montpellier,43.5956654,3.8842672999999994,,04 67 67 38 99,https://www.halte-pouce.fr/ressources/montpellier-club-handisport-mch-34-tous-faits-pour-le-sport
351,ASSOCIATIONS,ÂNES,,,,HANDI-ÂNE,"36, avenue J-B Dumas - 30100 ALES",44.1355499,4.0811652999999986,,06 65 64 85 40,https://www.halte-pouce.fr/ressources/balades-adaptees-a-dos-danes-association-handiane
352,ASSOCIATIONS,PARENTALITÉ,,,,PARENTALITÉ 34,260 rue du Puech Radier 34970 Lattes – Montpellier,43.578146000000004,3.8795703,,06 11 93 42 63,https://www.halte-pouce.fr/ressources/parentalite-34
353,ASSOCIATIONS,LOISIRS - RENCONTRES,,,,YARRIVAREM,"53 bis, rue Clément Mirabel - 34660 COURNONTERRAL",43.5578009,3.721584899999999,,,https://www.halte-pouce.fr/ressources/association-yarrivarem-34
354,ASSOCIATIONS,DANSE,,,,MOZAÏK,,,,,06 11 59 38 86,https://www.halte-pouce.fr/ressources/association-mozaik-danse
355,ASSOCIATIONS,DYS,,,,APEDYS,,,,,,https://www.halte-pouce.fr/ressources/association-apedys-herault-association-regionale-de-parents-denfants-et-dadultes-dyslexiques
356,ASSOCIATIONS,AUTISME,,,,PIC AUTISME,366 alllée du Haut Lirou - 34270 LE TRIADOU,,,,06 29 79 10 37,https://www.halte-pouce.fr/ressources/lassociation-pic-autisme-trisomie-dans-lherault
357,ASSOCIATIONS,LOISIRS - RANDONNÉES,,,,CARAVANE,19 rue Charles Sauvage - 34830 Jacou,,,asso-caravane@orange.fr,,https://www.halte-pouce.fr/ressources/association-caravane-34
358,ASSOCIATIONS,AUTISME,,,,OZ,16 Bd Joliot Curie - 34200 Sète,,,associationoz34@gmail.com,07 83 67 97 81,https://www.halte-pouce.fr/ressources/L-association-OZ-a-Sete
359,ASSOCIATIONS,ÂNES,,,,BEAU NEZ D'ÂNE,,,,contact@beaunezdane.com,06 03 35 10 02,https://www.halte-pouce.fr/ressources/association-beau-nez-dAne
360,ASSOCIATIONS,ÂNES,,,,TIT'ÂNE,"Aniane - Saint Guilhem le désert, sortie n ° 60 34 150 Gignac",,,ourcival.equitherapie@gmail.com,07 85 95 14 46,https://www.halte-pouce.fr/ressources/Equitherapie-a-gignac
361,ASSOCIATIONS,CIRQUE+1:1048576,,,,ZÉPÉTRA,153 rue Alphonse Beau De Rochas - 34 170 Castelnau le Lez,,,,04 86 11 11 25,https://www.halte-pouce.fr/ressources/des-cours-adaptes-de-cirque-avec-zepetra-a-castelnau-le-lez
362,ASSOCIATIONS,MUSIQUE,,,,MUSIKA,15 rue du Mas de Lemasson  RDCH 34070 Montpellier.,,,, 06 99 04 49 49,https://www.halte-pouce.fr/ressources/handi-musique-sur-montpellier-avec-musika
363,ASSOCIATIONS,MUSIQUE,,,,MUSIQUE & HANDICAP,,,,musique.handicaps.mediterranee@gmail.com,07.69.05.27.87,https://www.halte-pouce.fr/ressources/association-musique-et-handicaps-mediterranee-a-montpellier
364,ASSOCIATIONS,ÉQUITHÉRAPIE,,,,LES COLOMBIERS,Mas de Mazet - 34150 GIGNAC,,,,06 50 66 32 52,https://www.halte-pouce.fr/ressources/equitherapie-mediation-animale-a-gignac-34
365,ASSOCIATIONS,DYS,,,,DMF,,,,,,https://www.halte-pouce.fr/ressources/association-dyspraxique-mais-fantastique-34-dmf34
366,ASSOCIATIONS,ÉQUITHÉRAPIE,,,,POIL DE PAROLE,,,,poildeparole.fd@gmail.com,06 07 03 17 97,https://www.halte-pouce.fr/ressources/POIL-DE-PAROLE-Mediation-animale
367,ASSOCIATIONS,INSERTION JEUNES,,,,CAP 'A CITÉ,4 Avenue de l'École d'Agriculture Gabriel Buchet - 34000 Montpellier,,,,06 10 90 64 47/  09 84 48 54 28,https://www.halte-pouce.fr/ressources/Association-Cap-A-Cites-a
368,ASSOCIATIONS,RANDONNÉES,,,,HANDICAP ÉVASION,"10, rue du Général Mathieu Dumas - 34000 Montpellier",,,handicapevasion3034@gmail.com,04 67 68 30 38,https://www.halte-pouce.fr/ressources/Handicap-evasion-La-randonnee-pour
369,GÎITES ADAPTÉS,,,,,ÉVEIL & PARTAGE,3 rue des Coulmiers - 34620 Puisserguier,,,eveilpartage@sfr.fr,06 28 04 03 19,https://www.halte-pouce.fr/ressources/Eveil-et-partage-gites-de-vacances-pour-sejours-adaptes
370,GÎITES ADAPTÉS,,,,,JFJV,285 rue Gilles Roberval 30915 NÎMES Cedex 2,,,,04 66 26 91 94,https://www.halte-pouce.fr/ressources/vacances-adaptees-avec-lassociation-je-fais-ce-que-je-veux-jfjv
371,GÎITES ADAPTÉS,,,,,REGAINS,,,,,,https://www.halte-pouce.fr/ressources/association-regains-sejours-we-pour-adulte-handicapes-mentaux
372,SANTÉ,CONSULTATIONS,,,,HANDICONSULT 34,,,,,,https://www.halte-pouce.fr/ressources/acces-aux-soins-des-personnes-en-situation-de-handicap-handiconsult34
373,SANTÉ,ÉQUIPE RELAIS HANDICAPS RARES,,,,ERHR,14 rue Saint Vincent de Paul - 34090 Montpellier,,,,04 67 02 91 86,https://www.halte-pouce.fr/ressources/Equipe-relais-handicaps-rares
374,SANTÉ,RÉSEAU MALADIES RARES,,,,VADLR,"59, avenue de Fès (Bât C) 34080 Montpellier / Tramway ligne 1 - Malbosc",,,,04.67.57.05.59,https://www.halte-pouce.fr/ressources/RESEAU-MALADIES-RARES-MEDITERRANEE
375,SANTÉ,CENTRE RESSOURCE AUTISME,,,,CRA,,,,,,http://www.autisme-ressources-lr.fr/
376,SANTÉ,SEXUALITÉ,,,,APARSA,2 rue Pierre Boissier 34070 MONTPELLIER,,,,04 67 52 41 66,https://www.halte-pouce.fr/ressources/sexualite-handicap-association-aparsa
377,SANTÉ,MATÉRIELS ADAPTÉS,,,,L'ÉTAPE,615 Avenue de Montpellier 34970 LATTES,,,,04 67 22 47 40,https://www.halte-pouce.fr/ressources/letape-aides-techniques-et-perte-dautonomie
378,SANTÉ,AIDANTS,,,,LA PASQUIÈRE,7 Av. du Dr Pezet - 34090 Montpellier,,,,04 67 54 42 30,https://www.halte-pouce.fr/ressources/une-maison-daccueil-des-familles-de-malade-la-pasquiere
379,SANTÉ,AIDANTS,,,,CLOS DE LA FONTAINE,"65 Cours Libéral Bruant, 34080 Montpellier",,,,04 34 11 12 40,https://www.halte-pouce.fr/ressources/le-clos-de-la-fontaine-aide-aux-aidants
380,SANTÉ,CONSULTATION PSY - LSF,,,,GENEVIÈVE SANCHO,14 rue de la République 34070 Montpellier,,,,,https://www.halte-pouce.fr/ressources/psychologue-clinicienne-et-lsf-genevieve-sancho
381,ACCUEILS ALTERNATIFS,ÉCOLE & SESSAD PARENTS-THÈSE,,,,,"ZAC Clément ADER   20, rue des Frères Lumière - 34830 JACOU",,,,04 67 45 63 02,https://www.halte-pouce.fr/ressources/lecole-et-sessad-parents-these-a-jacou-34-specialisee-dans-les-ted
382,ACCUEILS ALTERNATIFS,AVENIR DES POSSIBLES,,,,,"73, rue Marx Dormoy - 34400 Lunel",,,,06.61.71.73.46,https://www.halte-pouce.fr/ressources/association-avenir-des-possibles-a-lunel-pour-les-autistes-par-les-autistes
383,ACCUEILS ALTERNATIFS,LES ATELIERS DE BENTENAC,,,,,Route des Cabanes - 34130 Mauguio,,,,04 67 29 52 45,https://www.halte-pouce.fr/ressources/Les-Ateliers-de-Bentenac
384,ACCUEILS ALTERNATIFS,ÉCOLE AMÉTHYSTE,,,,,"371 Avenue de l’Evêché de Maguelone, 34250 Palavas-les-Flots",,,,04 67 07 76 27,https://www.halte-pouce.fr/ressources/lecole-amethyste-une-ecole-privee-atypique-a-palavas-les-flots
385,ACCUEILS ALTERNATIFS,LES ENFANTS D'HÉLÈNE,,,,,,,,,,https://www.halte-pouce.fr/actualites/message-du-cesu-appel-a-la-solidarite-des-particuliers-employeurs
386,ACCUEILS ALTERNATIFS,COLOC'AUTISME,,,,,,,,,06 28 29 40 75,https://www.halte-pouce.fr/ressources/L-association-Col-Oc-Autisme
