;SECTEUR;SOUS-SECTEUR;CIBLE;AGE-MIN;AGE-MAX;NOM;ADRESSE;LATITUDE;LONGITUDE;MAIL;TELEPHONE;LIEN
0;SANITAIRE;;ENFANT;;;CAMSP BÉZIERS;AVENUE DE MONSEIGNEUR COSTE 34500 BEZIERS;;;camsp.beziers@ugecam-lrmp.fr;;
1;SANITAIRE;;ENFANT;;;CAMSP MTP CHU;HÔPITAL SAINT ELOI 80 AVENUE AUGUSTIN FLICHE 34295 MONTPELLIER;;;camps@chu-montpellier.fr;;
2;SANITAIRE;;ENFANT;;;CAMSP SÈTE;62 BOULEVARD CAMILLE BLANC 34200 SETE;;;camspequinoxe.sete@ugecam-lrmp.fr;;
3;SANITAIRE;;ENFANT;;;CMPP BÉZIERS;AVENUE DE MONSEIGNEUR COSTE 34500 BEZIERS;;;cmpp.beziers@ugecam-lrmp.fr;;
4;SANITAIRE;;ENFANT;;;CMPP MARCEL FOULCAULT;RESIDENCE LE DIAMANT BT B 419 RUE LEON BLUM 34000 MONTPELLIER;;;cmpp.a1@adages.net;;
5;SANITAIRE;;ENFANT;;;CMPP MARCEL FOULCAULT;450 AVENUES DES ABRIVADOS 34400 LUNEL;;;;;
6;SANITAIRE;;ENFANT;;;CMPP PAYS CŒUR D'HERAULT;230 AVENUE DU MAS SALAT 34150 GIGNAC;;;;;
7;SANITAIRE;;ENFANT;;;CMPP SETE;VILLA MALIBRAN 441 CHEMIN DES CARRIERES 34200 SETE;;;cmppsete@orange.fr;;
8;ÉTABLISSEMENTS;;ENFANT;;;EEAP COSTE ROUSSE;43 AVENUE DES BARONNES 34730 PRADES LE LEZ;;;costerousse@adages.net;;
9;ÉTABLISSEMENTS;;ENFANT;;;IEM ALEXANDRE JOLLIEN;8 PLACE GENERAL DE GAULLE 34240 LAMALOU LES BAINS;;;;;
10;ÉTABLISSEMENTS;;ENFANT;;;IEM LA CIGALE;250 AVE VILLARD DE HONNECOURT 30900 NIMES;;;;;
11;ÉTABLISSEMENTS;;ENFANT;;;IME LA CARDABELLE;21 AVENUE CASTELNAU 34090 MONTPELLIER;;;la-cardabelle@orange.fr;;
12;ÉTABLISSEMENTS;;ENFANT;;;IME LA SALETTE;2 RUE PUECH DU FOUR 34600 BEDARIEUX;;;ime.ndlasallette@apeaiouestherault.fr;;
13;ÉTABLISSEMENTS;;ENFANT;;;IME LA PINÈDE;AVENUE CYRIEN OLIVIER 34830 JACOU;;;ime@lapinede.org;;
14;ÉTABLISSEMENTS;;ENFANT;;;IME PESCALUNES;111 RUE DES NEFLIERS 34400 LUNEL;;;imp-pescalunes@apei-grandmontpellier.org;;
15;ÉTABLISSEMENTS;;ENFANT;;;IME FONTCAUDE;70 RUE DU TIPAZA 34080 MONTPELLIER;;;accueil.fontcaude@ugecam-lrmp.fr;;
16;ÉTABLISSEMENTS;;ENFANT;;;IME CHATEAU D'O;2539 AVENUE PÈRE SOULAS 34000 MONTPELLIER;;;ime-chateaudo@apei-grandmontpellier.org;;
17;ÉTABLISSEMENTS;;ENFANT;;;IME LES MURIERS;1804 AVENUE PÈRE  SOULAS 34000 MONTPELLIER;;;ime-lesmuriers@apei-grandmontpellier.org;;
18;ÉTABLISSEMENTS;;ENFANT;;;IME LES OLIVIERS;695 RUE BOUISSES 34070 MONTPELLIER;;;sms.lesoliviers@adages.net;;
19;ÉTABLISSEMENTS;;ENFANT;;;IME LES SAPINS MARVEJOLS;AVENUE PIERRE SEMARD 48100 MARVEJOLS;;;;;
20;ÉTABLISSEMENTS;;ENFANT;;;IME SOL'N;18 AVENENUE DE LA GARE 34440 NISSAN LEZ ENSERUNE;;;maison.soln@croix-rouge.fr;;
21;ÉTABLISSEMENTS;;ENFANT;;;IME L'ENSOLEILLADE;55 AVE DE MONTPELLIER BP 52 34725 SAINT ANDRE DE SANGONIS;;;contact.ime@ensolleillade.asso.fr;;
22;ÉTABLISSEMENTS;;ENFANT;;;IME LES HIRONDELLES;11 AVENUE DU STADE 34440 SAUVIAN;;;ime.leshirondelles@apeaiouestherault.fr;;
23;ÉTABLISSEMENTS;;ENFANT;;;IME LA CORNICHE;16 BIS BOULEVARD JOLIOT CURIE 34200 SETE;;;ies@ieslacorniche.fr;;
24;ÉTABLISSEMENTS;;ENFANT;;;ITEP BOURNEVILLE;120 RUE DU MAS PRUNET 34070 MONTPELLIER;;;centre.bourneville@adages.net;;
25;ÉTABLISSEMENTS;;ENFANT;;;ITEP  CAMPESTRE ;1120 ROUTE DE BEDARIEUX  34701 LODEVE;;;;;
26;ÉTABLISSEMENTS;;ENFANT;;;ITEP LANGUEDOC;38 RUE DU MAZET CS40028 34077 MONTPELLIER CEDEX 3;;;itep.languedoc@adages.net;;
27;ÉTABLISSEMENTS;;ENFANT;;;ITEP LE MONT LOZERE;ZAC DE LA COURONDELLE 74 RUE MICHELINE OSTERMEYER 34500 BEZIERS;;;;;
28;ÉTABLISSEMENTS;;ENFANT;;;ITEP NAZARETH;13 RUE DE NAZARRETH BP 24105 34091 MONTPELLIER CEDEX 5;;;inazareth@armeedusalut.fr;;
29;ÉTABLISSEMENTS;;ENFANT;;;IME INSTITUT RAYMOND FAGES;CHEMIN RAYMOND FAGES 34300 AGDE;;;;;
30;ÉTABLISSEMENTS;;ENFANT;;;IME INSTITUT SAINT HILAIRE;12 AVENUE ALEXANDRE LAVZL 3450 FLORENSAC;;;;;
31;ÉTABLISSEMENTS;;ENFANT;;;SÉSAME AUTISME BITTÉROIS;BOULEVARD  CAUTAUSSEL  34440 NISSAN LEZ ENSERNE;;;maison.dubitterois@sesameautismelr.fr;;
32;ÉTABLISSEMENTS;;ENFANT;;;MAISON DE MANON;22 RUE DES ROMARINS 34499 JUVIGNAC;;;maison.manon@sesameautismelr.fr;;
33;ÉTABLISSEMENTS;;ENFANT;;;LES JARDINS DE BENTENAC;ROUTE DES CABANES 34130 MAUGUIO;;;bentenac@bentenac.fr;;
34;ÉTABLISSEMENTS;;ENFANT;;;CESDA;14 RUE SAINT VINCENT DE PAUL 34090 MONTPELLIER;;;secretariat@cesda34.org;;
35;ÉTABLISSEMENTS;;ENFANT;;;CROP PAUL BOUVIER;CROP, Route d'Alès, 30170 Saint-Hippolyte-du-Fort;;;contact@crop.asso.fr;;
36;ÉTABLISSEMENTS;;ENFANT;;;COSTE COUSSE;AVENUE BARONNES 34730 PRADES LE LEZ;;;costerousse@adages.net;;
37;SESSAD;;ENFANT;;;SESSAD BORÉAL (AUTISME);AVENUE MONSEIGNEUR COSTE 34500 BEZIERS;;;sessaboreal-iem.beziers@ugecam-lrmp.fr;;
38;SESSAD;;ENFANT;;;SESSAD BOURDEVILLE;120 RUE DU MAS PRUNET 34070 MONTPELLIER;;;;;
39;SESSAD;;ENFANT;;;SESSAD IR CAMPESTRE;1120 ROUTE DE BEDARIEUX 34701 LODEVE;;;;;
40;SESSAD;;ENFANT;;;SESSAD POUR DEFICIENTS VISUELS UAHV;420 ALLEE HENRI II DE MOMORENCY 34000 MOTPELLIER;;;;;
41;SESSAD;;ENFANT;;;SESSAD DE L'AGATOIS;CHEMIN RAYMOND FAGES34300 AGDE;;;;;
42;SESSAD;;ENFANT;;;SESSAD SOL'N;40 RUE DE LA MARGERIDE BAT A 34760 BOUJAN SUR LIBRON;;;sessad.soln34@croixrouge.fr;;
43;SESSAD;;ENFANT;;;PARENTS THÈSE;ZAC CLEMENT ADER 20 RUE DES FRERES LUMIERE 34830 JACOU;;;contact@parents-these.fr;;
44;SESSAD;;ENFANT;;;SESSAD ENSOLEILLADE;4 QUAI HERCULE COT BP52 34800 CLERMONT L'HERAULT;;;contact.sessad@ensoleillade.asso.fr;;
45;SESSAD;;ENFANT;;;SESSAD EOLE;AVENUE MONSEIGNEUR COSTE 34500 BEZIERS;;;;;
46;SESSAD;;ENFANT;;;SESSAD DU CMEE FONCAUDE;70 RUE TIPAZA LA PAILLADE 34080 MONTPELLIER;;;;;
47;SESSAD;;ENFANT;;;SESSAD APEI DE THAU LES HIRONDELLES;RUE LIERLES 34110 FRONTIGNAN;;;sessad@apeidethau.fr;;
48;SESSAD;;ENFANT;;;SESSAD LA PINÈDE;CHEMIN DE LA PINEDE 34830 JACOU;;;sessad@lapinede.org;;
49;SESSAD;;ENFANT;;;SESSAD LA CARDABELLE;21 AVENUE DE CASTELNAU 34000 MONTPELLIER;;;;;
50;SESSAD;;ENFANT;;;SESSAD LA CORNICHE PAYS DE THAU;16 BOULEVARD JOLIOT CURIE 34200 SETE;;;;;
51;SESSAD;;ENFANT;;;SESSAD L'OMBRELLE;11 RUE DU ROMARIN 34990 JUVIGNAC;;;;;
52;SESSAD;;ENFANT;;;SESSAD LES HIRONDELLES;54 RUE DES LIERLES CS 97001 34115 FRONTIGNAN;;;;;
53;SESSAD;;ENFANT;;;SESSAD AUTISME LANGUEDOC ROUSSILLON;11 RUE DU ROMARIN 34990 JUVIGNAC;;;secretariat1@sesameautismelr.fr;;
54;SESSAD;;ENFANT;;;SESSAD PESCALUNES;31 RUE DU 8 MAI 1945 34400 LUNEL;;;sessad-pescalunes@apeigrandmontpellier.org;;
55;SESSAD;;ENFANT;;;SESSAD NOTRE DAME DE LA SALETTE;2 RUE PUECH DU FOUR BP 34 34600 BEDARIEUX;;;;;
56;SESSAD;;ENFANT;;;SESSAD MARCEL FOUCAULT;RESIDENCE DIAMANT BT B 419 RUE LEON BLUM 34000 MONTPELLIER;;;;;
57;SESSAD;;ENFANT;;;SESSAD IME FONT TROUVE;111 RUE DES NEFLIERS 34400 LUNEL;;;;;
58;SESSAD;;ENFANT;;;SESSAD ARIEDA;2446 AVENUE DU PÈRE SOULAS 34090 MONTPELLIER;;;contact@arieda.asso.fr;;
59;MAS;;ADULTE;;;MAS ALEXANDRE JOLIEN;ROUTE DE SAINT GERVAIS COMBES 34200 LAMALOU LES BAINS;;;;;
60;MAS;;ADULTE;;;MAS APAR - CENTRE  APIGHREM;4 RUE DES OURGOUILLOUS 34270 SAINT MATHIEU DE TREVIERS;;;;;
61;MAS;;ADULTE;;;MAS CAMILLE CLAUDEL;RUE HECTOR BERLIOZ 34800 CLERMONT L'HERAULT;;;;;
62;MAS;;ADULTE;;;MAS CENTRE SAINT PIERRE;BP 15 34290 MONTBLANC;;;;;
63;MAS;;ADULTE;;;MAS DE MONTFLOURES;TRAVERSEE DE COLOMBIERS 34500  BEZIERS;;;;;
64;MAS;;ADULTE;;;MAS DU CENTRE PAUL COSTE FLORET;BP3 34240 LAMALOU LES BAINS;;;;;
65;MAS;;ADULTE;;;MAS FONT COLOMBE;509 RUE DU CHÂTEAU BON 34080 MONTPELLIER;;;;;
66;MAS;;ADULTE;;;MAS LA PARAGE;15 RUE DES AIGUES VIVES BP52 34725 SAINT ANDRE DE SANGONIS;;;;;
67;MAS;;ADULTE;;;MAS LES IV SEIGNEURS;1082 AVENUE DU PIC SAINT LOUP 34090 MONTPELLIER;;;;;
68;MAS;;ADULTE;;;MAS LES SOLEIL anciennement PROPARA;263  RUE DU CADUCEE PARC EUROMEDECINE 34090 MONTPELLIER;;;;;
69;MAS;;ADULTE;;;MAS PAYS DE THAU;1 AVENUE DU PIN 34140 MEZE;;;;;
70;MAS;;ADULTE;;;MAS PERCE NEIGE;569 AVENUE GEORGES FRECHE 34170 CASTELNAU LE LEZ;;;;;
71;MAS;;ADULTE;;;MAS SAINT VITAL;34240 COMBES;;;;;
72;FAM;;ADULTE;;;FAM APARD- CENTRE APIGHREM;4 RUE DES OURGOUILLOUS Z.A. LES AVANTS 34271 SAINT MATHIEU DE TREVIERS;;;;;
73;FAM;;ADULTE;;;FAM ARCHIPEL DE MASSANE;1855 RUE DE SAINT PRIEST 34090 MONTPELLIER;;;;;
74;FAM;;ADULTE;;;FAM CENTRE SAINT PIERRE;BP 15 34290 MONTBLANC;;;;;
75;FAM;;ADULTE;;;FAM DE MONTFLOURES;TRAVERSE DE COLOMBIERS 34500 BEZIERS;;;;;
76;FAM;;ADULTE;;;FAM DOMAINE DE LA BRUYERE;DEPARTEMENTALE 171 34400 SAINT CHRISTAOL;;;;;
77;FAM;;ADULTE;;;FAM DU MILLENAIRE;341 RUE HIPPOLYTE FIZEAU ZAC DU MILLENAIRE 34000 MONTPELLIER;;;;;
78;FAM;;ADULTE;;;FAM FRESCSTIS;5 CHEMIN D'APPRAT BP35 34220 SAINT PONS DE THOMIERES;;;;;
79;FAM;;ADULTE;;;FAM ISABELLE MARIE;RUE DU PUIT DE L'AMOUR 34310 QUARANTE;;;;;
80;FAM;;ADULTE;;;FAM LE GUILHEM;1804 AVENUE DU PÈRE SOULAS 34000 MONTPELLIER;;;;;
81;FAM;;ADULTE;;;FAM LE HAMEAU DES HORIZONS;41 PLAN DES GUARRIGUES 34830 CLAPIERS;;;;;
82;FAM;;ADULTE;;;FAM LE COTEAU DE SESAME;1 ROUTE DE MARGON 34480 POUZOLLES;;;;;
83;FAM;;ADULTE;;;FAM LES FONTAINES D'O;71 RUE HENRI NOGUERES PARC EUROMEDECINE 34090 MONTPELLIER;;;;;
84;FAM;;ADULTE;;;FAM LES IV SEIGNEURS;1082 AVENUE DU PIC SAINT LOUP 34090 MONTPELLIER;;;;;
85;FAM;;ADULTE;;;FAM MAISON PERCE NEIGE;569 AVENUE GEORGES FRECHE 34170 CASTELNAU LE LEZ;;;;;
86;FAM;;ADULTE;;;FAM ROBERT FALIU;PLAISANCE 34610 AINT ANDRE DE PARSEVAL;;;;;
87;FAM;;ADULTE;;;FAM STRUCTURE HENRI WALLON;285 RUE ROBERT KOCH PARC EUROMEDECINE 34080 MONTPELLIER;;;;;
88;FOC ET ATO;;ADULTE;;;FOYER DE VIE ARCHIPEL DE MASSANE;1855 RUE DE SAINT PRIEST PARC EUROMEDECINE 34090 MONTPELLIER;;;;;
89;FOC ET ATO;;ADULTE;;;FOYER DE CANTAUSSEL ( INTERNAT);TRAVERSE DE COLOMBIERS 34500 BEZIERS;;;;;
90;FOC ET ATO;;ADULTE;;;FOYER DE VIE CANTAUSSEL MONTFLOURES;RUE DE CANTAUSSEL 34440 NISSAN LEZ ENSERUNE;;;;;
91;FOC ET ATO;;ADULTE;;;FOYER DE VIE CENTRE HERAULT;2 RUE DE L'EGALITE 34120 NEZIGNAN L'EVEQUE;;;;;
92;FOC ET ATO;;ADULTE;;;FOYER DE VIE DANIEL MAYER;CHEMIN DES ALICANTES 34400 LUNEL;;;;;
93;FOC ET ATO;;ADULTE;;;FOYER DE VIE ESPACE CAMILLE CLAUDEL;ZAC DE FONTENAY RUE EDOOOUARD BERLIOZ 34800 CLERMONT L'HERAULT;;;;;
94;FOC ET ATO;;ADULTE;;;FOYER DE VIE FRESCATIS;CHEMIN D'APPRAT BP35 34220 SAINT PONS DE THOMIERS;;;;;
95;FOC ET ATO;;ADULTE;;;FOYER DE VIE HENRI WALLON;285 RUE ROBERT KOCH PARC EUROMEDECINE II 34080 MONTPELLIER;;;;;
96;FOC ET ATO;;ADULTE;;;FOYER DE VIE ISABELLE MARIE;RUE DU PUITS DE L'AMOUR 34310 QUARANTE;;;;;
97;FOC ET ATO;;ADULTE;;;FOYER DE VIE JEAN PIAGET;13 RUE MARECHAL CLERC 34110 FRONTIGNAN LAPEYRADE;;;;;
98;FOC ET ATO;;ADULTE;;;FOYER DE VIE L'HORIZON;7 AVENUE DE CASTELNAU 34090 MONTPELLIER;;;;;
99;FOC ET ATO;;ADULTE;;;FOYER DE VIE LE PARC ( INTERNAT);227 RUE DU MAS DEVILLARET CS35032 34076 MONTPELLIER;;;;;
100;FOC ET ATO;;ADULTE;;;FOYER DE VIE LES ARAMONS;63/175 RUE DU CADUCEE PARC EUROMEDECINE 34195 MONTPELLIER;;;;;
101;FOC ET ATO;;ADULTE;;;FOYER DE VIE LES ECUREUILS;268 RUE DU CADUCEE PARC EUROMEDECINE 34195 MONTPELLIER;;;;;
102;FOC ET ATO;;ADULTE;;;FOYER DE VIE LES TERRES BLANCHES ( EXTERNAT);1804 AVENUE DU PÈRE SOULAS 34095 MONTPELLIER;;;;;
103;FOC ET ATO;;ADULTE;;;FOYER DE VIE MARQUEROSE ( INTERNAT);162 RUE DE MARQUEROSE 34000 MONTPELLIER;;;;;
104;FOC ET ATO;;ADULTE;;;FOYER DE VIE THIERRY ALBOUY;10 RUE EVARISTE GALOIS BP33073 34514 BEZIERS;;;;;
105;AD;;ADULTE;;;ADJAPF - LE CAP POLE EST;7 RUE DE L'ANTISSARGUES 34070 MONTPELLIER;;;;;
106;AD;;ADULTE;;;ADJAPF - LE CAP POLE EST;CENTRE SAINT PIERRE 34290 MONTBLANC;;;;;
107;AD;;ADULTE;;;ADJAPF DE L'ETANG DE THAU;AVENUE GEORGES GUYNEMER ILE DE THAU -LE CANNAS BP 318 34200 SETE;;;;;
108;ESAT FOYER ET HEBERGEMENT;;ADULTE;;;FOYER ESAT CENTRE HERAULT;10 RUE LAENNEC BP110 34120 SETE;;;;;
109;ESAT FOYER ET HEBERGEMENT;;ADULTE;;;FOYER ESAT DU PLATEAU DES LACS;19 LOTISSEMENT RIEUCROS 34330 LA SALVETAT SUR AGOUT;;;;;
110;ESAT FOYER ET HEBERGEMENT;;ADULTE;;;FOYER ESAT LE ROC CASTEL;156 RUE DES ECOLES 34520 LE CAYLAR;;;;;
111;ESAT FOYER ET HEBERGEMENT;;ADULTE;;;FOYER ESAT LES COMPAGNONS DE MAGUELONE;DOMAINE DE MAGUELONE 34250  PALAVAS LES FLOTS;;;;;
112;ESAT FOYER ET HEBERGEMENT;;ADULTE;;;FOYER ESAT LES HAUTES GUARRIGUES;230 ALLEE DE L'ESPLANADE 34380 SAINT MARTIN DE LONDRES;;;;;
113;ESAT FOYER ET HEBERGEMENT;;ADULTE;;;FOYER ESAT LES LAVANDES;227 RUE DU MAS DE VILLARET CS 35032 34 076 MONTPELLIER;;;;;
114;ESAT FOYER ET HEBERGEMENT;;ADULTE;;;FOYER ESAT PAYS DE THAU;CS 97001 34110 FRONTIGNAN;;;;;
115;ESAT FOYER ET HEBERGEMENT;;ADULTE;;;FOYER ESAT ROBERT BADINTER;CHEMIN DE ALICANTES 34400 LUNEL;;;;;
116;ESAT FOYER ET HEBERGEMENT;;ADULTE;;;FOYER ESAT ROBERT FALIU;PLAISANCE 34610 SAINT GENIES DE VARESAL;;;;;
117;ESAT FOYER ET HEBERGEMENT;;ADULTE;;;FOYER ESAT SEVERINE;24 RUE ARGERNCE RESIDENCE ARGENCE 34500 BEZIERS;;;;;
118;ESAT FOYER ET HEBERGEMENT;;ADULTE;;;FOYER ESAT THIEERU ALBOUI;10 RUE EVARISTE GALOIS BP 3073 34514 BEZIERS;;;;;
119;ESAT FOYER ET HEBERGEMENT;;ADULTE;;;FOYER ESAT LES ECUREUILS;268 PARC DU CADUCEE PAR EUROMEDECINE 34195 MONTPELLIER CEDEX 5;;;;;
120;ESAT FOYER ET HEBERGEMENT;;ADULTE;;;FOYER LOGEMENT HENRY WALLON;357 AVENUE DU PROFESSEUR JEAN LOUIS VIALA 34080 MONTPELLIER;;;;;
121;ESAT FOYER ET HEBERGEMENT;;ADULTE;;;FOYER LOGEMENT LE BOUQUET DES GUARRIGUES;CS 97001 34110 FRONTIGNAN;;;;;
122;ESAT FOYER ET HEBERGEMENT;;ADULTE;;;FOYER LOGEMENT LE COLIBRI;227 RUE DU MAS DE VILLARET CS 35032 34 076 MONTPELLIER;;;;;
123;ESAT FOYER ET HEBERGEMENT;;ADULTE;;;FOYER LOGEMENT LES COMPAGNONS DE MAGUELONE;DOMAINE DE MAGUELONE 34250  PALAVAS LES FLOTS;;;;;
124;ESAT FOYER ET HEBERGEMENT;;ADULTE;;;FOYER LOGEMENT LES GRANDS ARBRES;CHEMIN DE CASSILLAC 34380 VIOLS LE FORT;;;;;
125;ESAT FOYER ET HEBERGEMENT;;ADULTE;;;FOYER LOGEMENT LES HAUTES GUARRIGUES;230 ALLEE DE L'ESPLANADE 34380 SAINT MARTIN DE LONDRES;;;;;
126;ESAT FOYER ET HEBERGEMENT;;ADULTE;;;FOYER LOGEMENT MA RESIDENCE;18 AVENUE DE LA GARDIE 34510 FLORENSAC;;;;;
127;ESAT FOYER ET HEBERGEMENT;;ADULTE;;;FOYER LOGEMENT PLAISANCE;34610 SAINT GENIES DE VARENSAL;;;;;
128;ESAT;;ADULTE;;;SECTION ANNEXE ESAT ATELIERS KENNEDY;285 RUE DU MAS PRUNET 34070 MONTPELLIER;;;;;
129;ESAT;;ADULTE;;;SECTION ANNEXE ESAT DE L'APF;8 RUE DE L'ANTISSARGUES 34070 MONTPELLIER;;;;;
130;ESAT;;ADULTE;;;SECTION ANNEXE ESAT L'ENVOL;369 RUE BLAIZE PASCAL BP 52  P.A. LA GARRIGUE 34172 CASTELNAU LE LEZ;;;;;
131;ESAT;;ADULTE;;;SECTION ANNEXE ESAT LES HAUTES GARRIGUES;ZAE ROUTE DE FROUZET 34380 SAINT MARTIN DE LONDRES;;;;;
132;ESAT;;ADULTE;;;SECTION ANNEXE ESAT VIAEUROPA;VIA EUROPA 3 AVENUE DE L'EUROPE 34350 VENDRES;;;;;
133;ESAT;;ADULTE;;;SECTION ANNEXE LES ATELIERS DE SAPORTA;DOMAINE DE SAPORTA 34970 LATTES;;;;;
134;CRP PREORIENTATION;;ADULTE;;;CRIP ET PREORIENTATION;435 AVENUE GEORGES FRECHE CS 10010 34173 CASTELNAU LE LEZ;;;;;
135;CRP PREORIENTATION;;ADULTE;;;UEROS;435 AVENUE GEORGES FRECHE CS 10010 34173 CASTELNAU LE LEZ;;;;;
136;CRP PREORIENTATION;;ADULTE;;;URT;BP3 34240 LAMALOU LES BAINS;;;;;
137;SAVS;;ADULTE;;;SAVS-SIMES (Service D'interprétationde médiation pour Sourd);866 AVENUE DU PROFESSEUR RAVAS IMMEUBLE MAZET 34080 MONTPELLIER;;;;;
138;SAVS;;ADULTE;;;SAVS AIRIS;100 RUE LEJZER ZAMENHOF 34080 MONTPELLIER;;;;;
139;SAVS;;ADULTE;;;SAVS APF- LE CAP POLE EST;7 RUE DE LANTISSARGUES 34070 MONTPELLIER;;;;;
140;SAVS;;ADULTE;;;SAVS APF- LE CAP POLE OUEST;CENTRE SAINT PIERRE 34;;;;;
141;SAVS;;ADULTE;;;SAVS  CENTRE HERAULT;10 RUE LAENNEC BP 100 34120 PEZENAS;;;;;
142;SAVS;;ADULTE;;;SAVS DE PLAISANCE;34610 SAINT GENIES DE VARENSAL;;;;;
143;SAVS;;ADULTE;;;SAVS FRESCATIS;10 LOTISSEMENT RIEUCROS 34330 LA ASLVETAT SUR AGOUT;;;;;
144;SAVS;;ADULTE;;;SAVS LE CAROUX;1 RUE DES FRERES 34330 LA SALVETET SUR AGOUT;;;;;
145;SAVS;;ADULTE;;;SAVS LIS AURETO;1804 AVENUE DU PÈRE SOULAS 34090 MONTPELLIER;;;;;
146;SAVS;;ADULTE;;;SAVS LOU CAMIN;RUE PIERRE FLOURENS EUROMEDECINE II BAT C 34090 MONTPELLIER;;;;;
147;SAVS;;ADULTE;;;SAVS MA RESIDENCE;16 AENUE DE LA GARDIE 34510 FLORRENSAC;;;;;
148;SAVS;;ADULTE;;;SAVS TERRITOIRE DU LUNELLOIS;450 AVENUE DES ABRIVADOS CENTRE ATHENAS BTB 34400 LUNEL;;;;;
149;SAVS;;ADULTE;;;SAVS TONY LAINE;1882 RUE DE MALBOSC CENTRE EUMEDECINE II 34080 MONTPELLIER;;;;;
150;SAMSAH;;ADULTE;;;SAMSAH SAPA DE LA FAF-LR;420 ALLEE HENRY DE MONTMORENCY II  34000 MONTPELLIER;;;;;
151;SAMSAH;;ADULTE;;;SAMSAH APF ;7 RUE DE LANTISSARGUES 34070 MONTPELLIER;;;;;
152;SAMSAH;;ADULTE;;;SAMSAH APF MONTBLANC;CENTRE SAINT PIERRE 34290 MONTBLANC;;;;;
153;SAMSAH;;ADULTE;;;SAMSAH AVH;22 BOULEVARD YVES NAT 34500 BEZIERS;;;;;
154;SAMSAH;;ADULTE;;;SAMSAH GIHP;1 CHEMIN DE BORIE PARC DE BELLEGARDE 34170 CASTELNAU LE LEZ;;;;;
155;SAMSAH;;ADULTE;;;SAMSAH LES VENTS DU SUD;95 RUE PIERRE FLOURENS BT C 34090 MONTPELLIER;;;;;
156;SAMSAH;;ADULTE;;;SAMSAH TONY LAINE;1882 RUE DE MALBOSC PARC EUROMEDECINE II 34080 MONTPELLIER;;;;;
157;GEM;;ADULTE;;;CLUB D'ACCEUIL GEM BEZIERS;26 AVENUE JEAN MOULIN 34500 BEZIERSS;;;;;
158;GEM;;ADULTE;;;CLUB D'ACCEUIL GEM GAMBETTA;12 BIS BOULEVARD PASTEUR 34000 MONTPELLIER;;;;;
159;GEM;;ADULTE;;;CLUB D'ACCEUIL GEM LESSEPS;356 RUE FERDINAND DE LESSEPS 34000 MONTPELLIER;;;;;
160;GEM;;ADULTE;;;GEM  JANUS 34;1445 ROUTE DE MENDE 34090 MONTPELLIERR;;;;;
161;GEM;;ADULTE;;;GEM  LES BEAUX ARTS DES T.C.;134 RUE DE THEBES 34000 MONTPELLIER;;;;;
162;GEM;;ADULTE;;;GEM RABELAIS - club services loisirs;49 BOULEVARD RABELAIS 34000 MONTPELLIER;;;;;
163;EA;;ADULTE;;;ENTREPRISE ADAPTEE APF ENTREPRISE 34;ZAC PARC EUREKA 301 AVENUE DE WALHALLA 34000 MONTPELLIER;;;;;
164;EA;;ADULTE;;;ENTREPRISE ADAPTEE D L'ETANG DE L'OR;650 RUE BLAISE PASCAL BP 52 P.A. LA GARRIGUE 34172 CASTELNAU LE LEZ;;;;;
165;EA;;ADULTE;;;ENTREPRISE ADAPTEE DES HAUTES GARRIGUES;ZAE ROUTE DE FROUZET 34080 SAINT MARTIN DE LONDRES;;;;;
166;EA;;ADULTE;;;ENTREPRISE ADAPTEE EAOS SERVICES;212 RUE DE L'ARTISANAT 34400 LUNEL;;;;;
167;EA;;ADULTE;;;ENTREPRISE ADAPTEE GDEAS;625 RUE DE LA SALADELLE 34 130 SAINT AUNES;;;;;
168;EA;;ADULTE;;;ENTREPRISE ADAPTEE HANKOR PVC;ZAE LES TANNES BASSES 34800 CLERMONT L'HERAULT;;;;;
169;EA;;ADULTE;;;ENTEPRISE ADAPTEE L'ATELIER DU PAPIER SOLEIL;ZI DE LA LAUZE 33 RUE SAINT EXUPERY 34430 SAINT JEAN DE VEDAS;;;;;
170;EA;;ADULTE;;;ENTREPRISE ADAPTEE DES ATELIERS DE LA VALLEE DE  L'HERAULT;5 CHEMIN DES USINES 34510 FLORENSAC;;;;;
171;EA;;ADULTE;;;ENTREPRISE ADAPTEE LES ATELIERS DE SAPORTA;DOMAINE DE SAPORTA 34970 LATTES;;;;;
172;EA;;ADULTE;;;ENTREPRISE ADAPTEE NODIXIA RECYCLING SERVICES;590 RUE DU ROUCANIER  ZAC DU ROUCANIER 34400 LUNEL;;;;;
173;EA;;ADULTE;;;ENTREPRISE ADAPTEE PLANET' ECO RECYCLAGE;Z.I. DE LA LAUZE 33 RUE SAINT EXUPERY 34330 SAINT JEAN DE VEDAS;;;;;
174;EA;;ADULTE;;;ENTREPRISE ADAPTEE TALARON SERVICES;BT HELENE 222 RUE D'ODIN 34000 MONTPELLIER;;;;;
175;EA;;ADULTE;;;ENTREPRISE ADAPTEE TRIADE AVENIR SUD;169 CHEMINS DES THERMES 34170 CASTELNAU LE LEZ;;;;;
176;EA;;ADULTE;;;ENTREPRISE ADAPTEE VIA EUROPA;ZAE VIA EUROPA 3 AVENUE DE L'EUROPE 34350 VENDRES;;;;;
177;Accueil de loisir;UFOLEP;ENFANT ;3.0;11.0;UFOLEP Ovalie;école Olympe de Gouges 1375 rue bugarel 34070 MONTPELLIER;;;;04 67 67 41 63;http://www.cd.ufolep.org/herault/herault_a/cms/index_public.php?us_action=show_note&ui_id_site=1&ui_id_doc=1030300002
178;Accueil de loisir;UFOLEP;ENFANT ;3.0;11.0;UFOLEP Grisettes;école Beethoven 280 rue du Mas Nouguier 34070 MONTPELLIER;;;;04 67 67 41 63;http://www.cd.ufolep.org/herault/herault_a/cms/index_public.php?us_action=show_note&ui_id_site=1&ui_id_doc=1030400002
179;Accueil de loisir;UFOLEP;ENFANT ;6.0;11.0;UFOLEP Voltaire;école Voltaire 157 rue Henri Sellier 34070 MONTPELLIER;;;;04 67 67 41 63;http://www.cd.ufolep.org/herault/herault_a/cms/index_public.php?us_action=show_note&ui_id_site=1&ui_id_doc=1030500001
180;Accueil de loisir;UFOLEP;ENFANT ;3.0;5.0;UFOLEP Kipling;école Kipling 311 avenue de Saint Clément 34070 MONTPELLIER;;;;04 67 67 41 63;http://www.cd.ufolep.org/herault/herault_a/cms/index_public.php?us_action=show_note&ui_id_site=1&ui_id_doc=1030200002
181;Accueil de loisir;UFOLEP;ENFANT ;3.0;5.0;UFOLEP Pagnol;école Pagnol 305 rue Georges Brassens 34070 MONTPELLIER;;;;04 67 67 41 63;http://www.cd.ufolep.org/herault/herault_a/cms/index_public.php?PHPSESSID=64ou3f613l5jikj9t389ilu0m5&us_action=show_note&ui_id_site=1&ui_id_doc=1030500001
182;Accueil de loisir;UFOLEP;ENFANT ;6.0;11.0;UFOLEP Baudelaire;école Baudelaire 311 avenue de Saint Clément 34070 MONTPELLIER;;;;04 67 67 41 63;http://www.cd.ufolep.org/herault/herault_a/cms/index_public.php?PHPSESSID=64ou3f613l5jikj9t389ilu0m5&us_action=show_note&ui_id_site=1&ui_id_doc=1030200002
183;Accueil de loisir;UFOLEP;ENFANT ;3.0;11.0;UFOLEP Richier;école Richier 99 rue Jean Prat 34070 MONTPELLIER;;;;04 67 67 41 64;http://www.cd.ufolep.org/herault/herault_a/cms/index_public.php?PHPSESSID=64ou3f613l5jikj9t389ilu0m5&us_action=show_note&ui_id_site=1&ui_id_doc=1030600001
184;Accueil de loisir;MUC;ENFANT ;3.0;14.0;MUC Vacances;écoles Chaplin / Pottier-Sibelius 120 rue de la Jalade 34090 MONTPELLIER;;;;04 99 58 35 36;http://www.muc-vacances.com/accueils-de-loisirs/
185;Accueil de loisir;MUC;ENFANT ;3.0;5.0;MUC Vacances;école maternelle Bernhardt 175 rue Edouard Villalonga 34000 MONTPELLIER;;;;04 99 58 35 36;http://www.muc-vacances.com/alsh-baby-millenaire-3-5-ans-mercredis/
186;Accueil de loisir;Relais des enfants;ENFANT ;3.0;6.0;Le Petit Relais;école maternelle Francis Garnier 2 rue Général René 34000 MONTPELLIER;;;;04 67 66 21 30;https://www.relaisdesenfants.org/lieux-et-activites/lieux/petit-relais/?pages/Le-Petit-Relais
187;Accueil de loisir;Relais des enfants;ENFANT ;3.0;6.0;Relais des Petits;école maternelle Rousseau 21 rue d’Aigrefeuille  34000 MONTPELLIER;;;;04 67 66 21 30;https://www.relaisdesenfants.org/lieux-et-activites/lieux/relais-des-petits/
188;Accueil de loisir;Relais des enfants;ENFANT ;6.0;12.0;Relais des enfants;1 rue Embouque d’Or  34000 MONTPELLIER;;;;04 67 66 21 30;https://www.relaisdesenfants.org/lieux-et-activites/lieux/relais-des-enfants/
189;Accueil de loisir;Vacances Evasion;ENFANT ;3.0;5.0;VACANCES EVASION Goethe;école Goethe 3 rue des Coronilles  34000 MONTPELLIER;;;;04 99 13 71 10;https://www.vaceva.com/centre-alsh-goethe-langevin/
190;Accueil de loisir;Vacances Evasion;ENFANT ;6.0;12.0;VACANCES EVASION Langevin;école Langevin 5 rue de Clémentville  34070 MONTPELLIER;;;;04 99 13 71 10;https://www.vaceva.com/centre-alsh-goethe-langevin/
191;Accueil de loisir;Vacances Evasion;ENFANT ;3.0;12.0;VACANCES EVASION De Gaulle / Jaures;école Jean Jaures 10 chemin des Barques  34000 MONTPELLIER;;;;04 99 13 71 10;https://www.vaceva.com/alsh-anthonioz-de-gaulle-jaures/
192;Accueil de loisir;Vacances Evasion;ENFANT ;3.0;12.0;VACANCES EVASION Vendargues;école Andrée Cosso rue du 8 Mai 1945 34740 VENDARGUES;;;;06 40 42 18 62;https://www.vaceva.com/alsh-centre-de-vendargues/
193;Accueil de loisir;Vacances Evasion;ENFANT ;3.0;12.0;VACANCES EVASION Jacou;salle F.Dolto place des écoles 3480 JACOU;;;;04 99 13 71 10;https://www.vaceva.com/centre-de-loisirs-jacou-alsh/
194;Accueil de loisir;Vacances Evasion;ENFANT ;3.0;12.0;VACANCES EVASION Florian / Simon;écoles Florian / Simon 49 et 45 rue de la Méditerranée  34000 MONTPELLIER;;;;04 99 13 71 10;https://www.vaceva.com/centre-alsh-florian-simon/
195;Accueil de loisir;Vacances Evasion;ENFANT ;3.0;12.0;VACANCES EVASION Mozart / Morisot;écoles Mozart / Morisot 60 avenue d'Assas 34000 MONTPELLIER;;;;04 99 13 71 10;https://www.vaceva.com/centre-alsh-mozart-morisot/
196;Accueil de loisir;la Gerbe;ENFANT ;6.0;12.0;LA GERBE;19 rue Chaptal  34000 MONTPELLIER;;;;04 99 74 24 33;https://www.lagerbe.com/2017/04/25/centre-de-loisirs-montpellier/
197;Accueil de loisir;Les Francas 34;ENFANT ;3.0;5.0;LES FRANCAS Renaud;école Renaud 123 rue de Salamanque 34080 MONTPELLIER;;;;06 51 87 47 99;
198;Accueil de loisir;Les Francas 34;ENFANT ;6.0;12.0;LES FRANCAS Balard;école Balard 360 avenue de Barcelone  34080 MONTPELLIER;;;;06 51 87 47 99;
199;Accueil de loisir;GFEN;ENFANT ;6.0;12.0;GFEN Languedoc Louisville;école Louisville 431 avenue de Louisville 34080 MONTPELLIER;;;;09 50 07 12 44;
200;Accueil de loisir;GFEN;ENFANT ;6.0;12.0;GFEN Languedoc Heidelberg;école Heidelberg 310 rue de Liège 34080 MONTPELLIER;;;;09 50 07 12 44;
201;Accueil de loisir;PEP34;ENFANT ;3.0;12.0;PEP 34 Malbosc;école Yourcenar 71 rue Jean Joseph Laborde  34080 MONTPELLIER;;;;04 67 40 73 00;https://adpep34.com/classes-vacances-loisirs/a-montpellier-acm/
202;Accueil de loisir;ACLE;ENFANT ;3.0;12.0;ACLE Daubié / Brès;école Daubié / Brès 183 allée de l'aqueduc  34080 MONTPELLIER;;;;09 65 30 94 83;
203;Accueil de loisir;Passe-muraille;ENFANT ;3.0;12.0;PASSE-MURAILLE Vailhauques;;;;;06 78 12 96 89;
204;Accueil de loisir;Passe-muraille;ENFANT ;3.0;12.0;PASSE-MURAILLE Saint-Martin de Londres;;;;;06 70 49 33 37;
205;Accueil de loisir;Loisirs de Lasalle;ENFANT ;3.0;12.0;LOISIRS DE LA SALLE;école La Salle Rue Lunaret 34000 MONTPELLIER;;;;07 87 11 64 69;https://coloarboucalot.wixsite.com/arboucalot/contact
206;Accueil de loisir;Les enfants d'Hélène;ENFANT ;3.0;17.0;LES ENFANTS D HELENE;École Mitterrand 1330 rue Henri Lagattu 34080 MONTPELLIER;;;;04 99 74 72 80;http://lesenfantsdhelene.blogspot.com/p/inscriptions-informations-contact.html
207;Accueil de loisir;Léo Lagrange;ENFANT ;3.0;12.0;LEO LAGRANGE;6 rue Jules Ferry 34110 MIREVAL;;;;04 67 74 94 21;http://centreloisirsmir.canalblog.com/
208;Accueil de loisir;Eveil en mouvement;ENFANT ;3.0;12.0;EVEIL EN MOUVEMENT;écoles Térésa / Ferry 88 rue Antoine Laurent de Jussieu 34090 MONTPELLIER;;;;06 28 47 34 20;http://eveil-en-mouvement.com/
209;Accueil de loisir;Loisirs-éducation Grand sud;ENFANT ;3.0;5.0;LOISIRS EDUCATION ET CITOYENNETE Grand sud ;26 allée de l'espérance 34270 ST MATHIEU DE TREVIERS;;;;04 67 55 17 03;https://www.lecgs.org/fr/site/grand-pic-saint-loup-enfance/page/informations-pratiques.php
210;Accueil de loisir;Mairie;ENFANT ;3.0;12.0;AIGUELONGUE;écoles Camoens / Freud 2 rue des Tourterelles  34090 MONTPELLIER;;;;06 17 90 63 81;https://www.montpellier.fr/1110-les-centres-de-loisirs-municipaux.htm
211;Accueil de loisir;Mairie;ENFANT ;3.0;5.0;LES TOURS;écoles Copernic rue Pierre Nicolas  34080 MONTPELLIER;;;;06 17 90 60 33;https://www.montpellier.fr/1110-les-centres-de-loisirs-municipaux.htm
212;Accueil de loisir;Mairie;ENFANT ;6.0;12.0;LES TOURS;école Bloch 135 allée des Hauts de Massane 34080 MONTPELLIER;;;;06 17 90 60 33;https://www.montpellier.fr/1110-les-centres-de-loisirs-municipaux.htm
213;Accueil de loisir;Mairie;ENFANT ;3.0;5.0;OXFORD;école Van Gogh 242 rue d'Oxford 34080 MONTPELLIER;;;;06 17 90 60 97;https://www.montpellier.fr/1110-les-centres-de-loisirs-municipaux.htm
214;Accueil de loisir;Mairie;ENFANT ;6.0;12.0;OXFORD;écoles Roosevelt 25 rue de Lausanne 34080 MONTPELLIER;;;;06 17 90 60 97;https://www.montpellier.fr/1110-les-centres-de-loisirs-municipaux.htm
215;Accueil de loisir;Mairie;ENFANT ;6.0;12.0;MALET;école Malet 5 allée Pierre Carabasse 34080 MONTPELLIER;;;;06 17 90 64 41;https://www.montpellier.fr/1110-les-centres-de-loisirs-municipaux.htm
216;Accueil de loisir;Mairie;ENFANT ;3.0;5.0;CARPENTIER;école Carpantier 12 rue des Écoles  34080 MONTPELLIER;;;;06 17 90 71 27;https://www.montpellier.fr/1110-les-centres-de-loisirs-municipaux.htm
217;Accueil de loisir;Mairie;ENFANT ;3.0;12.0;LA MARTELLE;écoles Spinoza / Deroin 88 et 110 rue Viollet le Duc 34070 MONTPELLIER;;;;06 17 90 70 19;https://www.montpellier.fr/1110-les-centres-de-loisirs-municipaux.htm
218;Accueil de loisir;Mairie;ENFANT ;3.0;5.0;MICHELET;école Jules Michelet rue des Araucarias  34080 MONTPELLIER;;;;06 17 90 68 30;https://www.montpellier.fr/1110-les-centres-de-loisirs-municipaux.htm
219;Accueil de loisir;Mairie;ENFANT ;6.0;12.0;VILLON;école Joseph Delteil rue des Araucarias  34080 MONTPELLIER;;;;06 17 90 67 99;https://www.montpellier.fr/1110-les-centres-de-loisirs-municipaux.htm
220;Accueil de loisir;Mairie;ENFANT ;3.0;12.0;COMBES;école Victor Duruy 20 rue Edmond Lautard 34000 MONTPELLIER;;;;06 17 90 69 12;https://www.montpellier.fr/1110-les-centres-de-loisirs-municipaux.htm
221;Accueil de loisir;Mairie;ENFANT ;6.0;12.0;VERNE;école Verne 127 rue Yehudi Menuhin  34000 MONTPELLIER;;;;06 17 90 65 34;https://www.montpellier.fr/1110-les-centres-de-loisirs-municipaux.htm
222;Accueil de loisir;Mairie;ENFANT ;3.0;5.0;LA FONTAINE;école La Fontaine 27 quai des Tanneurs  34000 MONTPELLIER;;;;06 17 90 67 64;https://www.montpellier.fr/1110-les-centres-de-loisirs-municipaux.htm
223;Accueil de loisir;Mairie;ENFANT ;3.0;12.0;ROUX;école Roux 96 rue du Faubourg Figuerolles  34070 MONTPELLIER;;;;06 17 90 62 65;https://www.montpellier.fr/1110-les-centres-de-loisirs-municipaux.htm
224;Accueil de loisir;Mairie;ENFANT ;3.0;12.0;LANTISSARGUES;école Simenon 215 boulevard Pédro de Luna  34070 MONTPELLIER;;;;06 17 44 58 78;https://www.montpellier.fr/1110-les-centres-de-loisirs-municipaux.htm
225;Accueil de loisir;Mairie;ENFANT ;3.0;12.0;ESTANOVE;école Churchill Rue du Lavandin  34000 MONTPELLIER;;;;06 17 90 62 24;https://www.montpellier.fr/1110-les-centres-de-loisirs-municipaux.htm
226;Accueil de loisir;Mairie;ENFANT ;6.0;12.0;SAVARY;école Savary 240 quai Flora Tristan  34070 MONTPELLIER;;;;06 17 90 64 84;https://www.montpellier.fr/1110-les-centres-de-loisirs-municipaux.htm
227;Accueil de loisir;Mairie;ENFANT ;3.0;5.0;BOUCHER;école Boucher 240 quai Flora Tristan  34070 MONTPELLIER;;;;06 17 90 64 84;https://www.montpellier.fr/1110-les-centres-de-loisirs-municipaux.htm
228;Accueil de loisir;Mairie;ENFANT ;3.0;12.0;LES AIGUERELLES;école Dickens / Anne Franck 686 avenue du Pont Trinquat 34000 MONTPELLIER;;;;06 17 90 69 63;https://www.montpellier.fr/1110-les-centres-de-loisirs-municipaux.htm
229;Accueil de loisir;Mairie;ENFANT ;3.0;12.0;CITE MION;écoles Brel / Signoret Impasse des Marmousets 34000 MONTPELLIER;;;;06 17 90 61 09;https://www.montpellier.fr/1110-les-centres-de-loisirs-municipaux.htm
230;Accueil de loisir;Mairie;ENFANT ;3.0;12.0;MALRAUX;groupe scolaire Malraux Rue Joan Miro/ rue du mas rouge  34980 MONTPELLIER;;;;06 17 90 64 49;https://www.montpellier.fr/1110-les-centres-de-loisirs-municipaux.htm
231;Accueil de loisir;Mairie;ENFANT ;3.0;12.0;ASTERIX;domaine de Grammont Avenue Albert Einstein  34000 MONTPELLIER;;;;06 77 76 58 26;https://www.montpellier.fr/1110-les-centres-de-loisirs-municipaux.htm
232;Accueil de loisir;Mairie;ENFANT ;3.0;12.0;JEAN MOULIN / BERGMAN;école Moulin 20 boulevard Mounié  34000 MONTPELLIER;;;;06 17 90 60 67;https://www.montpellier.fr/1110-les-centres-de-loisirs-municipaux.htm
233;Accueil de loisir;Mairie;ENFANT ;3.0;12.0;ALSH JUVIGNAC;groupe scolaire Nelson Mandela 20 rue Neptune 34990 JUVIGNAC;;;;06 80 43 52 17;https://www.juvignac.fr/centre-de-loisirs-2/
234;Accueil de loisir;La Maison des Enfants;ENFANT ;3.0;12.0;LA MAISON DES ENFANTS;1 place Charles de Gaulle 34170 CASTELNAU LE LEZ;;;;;http://www.lamaisondesenfants.fr/fr/ateliersdesvacances-fr/
235;Accueil de loisir;Mairie;ENFANT ;3.0;12.0;LE TERRIER;205 chemin des mazes 34730 PRADES LE LEZ;;;;04 67 06 59 96;https://www.prades-le-lez.fr/Le-terrier/58/
236;Accueil de loisir;Mairie;ENFANT ;3.0;11.0;L'OLIVIER;4 impasse du chateau 34980 MONTFERRIER;;;;04 67 59 54 99;https://ville-montferrier-sur-lez.fr/centre-de-loisirs-2/
237;Accueil de loisir;Mairie;ENFANT ;3.0;5.0;ALSH CLAPIERS;école Olympe de Gouge 51 Rue Jean Moulin 34830 CLAPIERS;;;;04 67 59 46 95;https://www.ville-clapiers.fr/Enfance-Jeunesse%20(ALP-ALSH-MENUS)/105/58
238;Accueil de loisir;Mairie;ENFANT ;6.0;12.0;ALSH CLAPIERS;Rue du bosc 34830 CLAPIERS;;;;06 86 68 95 66;https://www.ville-clapiers.fr/Enfance-Jeunesse%20(ALP-ALSH-MENUS)/105/58
239;Accueil de loisir;Mairie;ENFANT ;10.0;17.0;ALSH CLAPIERS;Adresse inconnue 34830 CLAPIERS;;;;06 86 68 95 66;https://www.ville-clapiers.fr/Enfance-Jeunesse%20(ALP-ALSH-MENUS)/105/58
240;Accueil de loisir;Mairie;ENFANT ;3.0;12.0;ALSH LE CRES;21 avenue des Cevennes 34920 LE CRES;;;;04 67 41 95 49;https://www.ville-lecres.fr/index.php/Vacances-%26-mercredis?idpage=89&afficheMenuContextuel=true
241;Accueil de loisir;Mairie;ENFANT ;3.0;17.0;CHALBOS / JEAN MOULIN;213 allée Chalbos 34170 CASTELNAU LE LEZ;;;;04 67 14 27 92;https://www.castelnau-le-lez.fr/-%20Services%20p%C3%A9riscolaires%20(ALP)/10047/178
242;Accueil de loisir;Mairie;ENFANT ;3.0;11.0;LA MAISON DES LOISIRS SAINT AUNES;place de l' escolette 34130 SAINT AUNES;;;;06 19 37 52 35;http://www.saint-aunes.fr/Centre-de-loisirs-espace-jeunes.html
243;Accueil de loisir;Mairie;ENFANT ;3.0;12.0;FONDESPIERRE;domaine de Fondespierre Route de Fontmarie  34160 CASTRIES;;;;04 67 87 30 15;https://www.castries.fr/Accueil-Loisirs-3-12-ans-Fondespierre/106/
244;Accueil de loisir;Mairie;ENFANT ;3.0;5.0;LES MOUSSAILLONS;2 avenue d'Occitanie Maison de la petite enfance F. Dolto 34680 ST GEORGES D'ORQUES;;;;04 67 40 57 12;https://www.ville-st-georges-dorques.fr/jeunesse/alsh/
245;Accueil de loisir;Mairie;ENFANT ;6.0;12.0;CHIFOUMI;avenue des Jardins 34680 ST GEORGES D'ORQUES;;;;04 67 45 59 47;https://www.ville-st-georges-dorques.fr/jeunesse/alsh/
246;Accueil de loisir;Mairie;ENFANT ;3.0;12.0;LES GALOPINS;écoles Valène et Rompude, 70 rue Rompude 34980 ST GELY DU FESC;;;;04 67 66 64 88;https://www.ville-saintgelydufesc.fr/ALSH-Les-Galopins.html?lang=fr&retour=back
247;Accueil de loisir;Mairie;ENFANT ;6.0;12.0;ALSH ST CLEMENT DE RIVIERE;Centre Fernand Arnaud  34980 ST CLEMENT DE RIVIERE;;;;04 67 84 49 60;https://www.saint-clement-de-riviere.fr/p2115-informations-pratiques.html
248;Accueil de loisir;Mairie;ENFANT ;3.0;5.0;ALSH ST CLEMENT DE RIVIERE;Centre La Source 34980 ST CLEMENT DE RIVIERE;;;;04 67 54 08 92;https://www.saint-clement-de-riviere.fr/p2115-informations-pratiques.html
249;Accueil de loisir;Mairie;ENFANT ;3.0;12.0;LES GARRIGUES;chemin de la combe 34430 ST JEAN DE VEDAS;;;;04 99 52 20 62;https://www.saintjeandevedas.fr/ville/accueil-de-loisirs-sans-hebergement-alsh
250;Accueil de loisir;Mairie;ENFANT ;3.0;12.0;LA CLEF DES CHAMPS;avenue du chateau 34880 LAVERUNE;;;;04 99 51 20 17;http://www.laverune.fr/index.php/ALAE?idpage=116&afficheMenuContextuel=true
251;Accueil de loisir;Mairie;ENFANT ;3.0;17.0;ALSH municipal le mazet Saint Mathieu de treviers;le mazet, centre commercial le terrieu 34270 ST MATHIEU DE TREVIERS;;;;04 67 55 20 28;http://www.ville-saint-mathieu-de-treviers.fr/ALSH-Centres-de-loisirs.html?retour=back
252;Accueil de loisir;Métropôle Montpellier 3M;ENFANT ;4.0;12.0;ALSH l'Ecolothèque;Mas de Grille, 1 rue Théophraste Renaudot 34430 ST JEAN DE VEDAS;;;;04 99 52 82 82;https://ecolotheque.montpellier3m.fr/accueil-de-loisirs
253;Accueil de loisir;CC Béziers Méditerranée;ENFANT ;3.0;15.0;ALSH intercommunal Servian (maternel & élémentaire);Bois d'Amilhac 34290 SERVIAN;;;;04 67 76 02 76;http://villamont-beziers.fr/portfolio/centre-de-loisir/
254;Accueil de loisir;Mairie;ENFANT ;;;ALSH associatif MJC Trencavel (élémentaire & Ados);13A boulevard Du Guesclin 34500 BEZIERS;;;;04 67 31 27 34;https://www.ville-beziers.fr/mes-enfants/4-11-ans/les-accueils-de-loisirs
255;Accueil de loisir;Mairie;ENFANT ;;;ALSH municipal Brassens (élémentaire);31 avenue Auguste Albertini 34500 BEZIERS;;;;04 67 62 87 00;https://www.ville-beziers.fr/mes-enfants/4-11-ans/les-accueils-de-loisirs
256;Accueil de loisir;Mairie;ENFANT ;;;ALSH municipal Dolto (maternel);330 rue Claude Nougaro 34500 BEZIERS;;;;04 99 43 81 72;https://www.ville-beziers.fr/mes-enfants/4-11-ans/les-accueils-de-loisirs
257;Accueil de loisir;Mairie;ENFANT ;;;ALSH municipal Albert Camus (élémentaire);esplanade Rosa Parks 34500 BEZIERS;;;;04 67 32 62 00;https://www.ville-beziers.fr/mes-enfants/4-11-ans/les-accueils-de-loisirs
258;Accueil de loisir;Mairie;ENFANT ;;;ALSH municipal Vaclav Havel (élémentaire);rue Jules Dalou 34500 BEZIERS;;;;04 67 36 73 57;https://www.ville-beziers.fr/mes-enfants/4-11-ans/les-accueils-de-loisirs
259;Accueil de loisir;Mairie;ENFANT ;;;ALSH municipal Malbosc (marternel);Quartier La Courondelle, 181 rue Ostermeyer 34500 BEZIERS;;;;04 99 43 81 72;https://www.ville-beziers.fr/mes-enfants/4-11-ans/les-accueils-de-loisirs
260;Accueil de loisir;Mairie;ENFANT ;;;ALSH municipal Zinga Zanga (maternel & élémentaire);Traverse de Colombiers, pradines le bas 34500 BEZIERS;;;;04 67 48 13 36;https://www.ville-beziers.fr/mes-enfants/4-11-ans/les-accueils-de-loisirs
261;Accueil de loisir;Mairie;ENFANT ;;;ALSH municipal Martin Luther King (élémentaire);26 rue de l'Orb 34500 BEZIERS;;;;04 67 80 07 20;https://www.ville-beziers.fr/mes-enfants/4-11-ans/les-accueils-de-loisirs
262;Accueil de loisir;Mairie;ENFANT ;;;ALSH municipal Sauvian (maternel & élémentaire);50 rue caucadis 34410 Sauvian 34410 SAUVIAN;;;alsh@ville-sauvian.com;04 67 32 20 49;https://www.ville-sauvian.fr/enfance-et-jeunesse/alsh/
263;Accueil de loisir;Mairie;ENFANT ;;;ALSH associatif les Francas (maternel & élémentaire);rue des lilas 34420 VILLENEUVE LES BEZIERS;;;;04 67 39 39 59;http://www.villeneuve-les-beziers.fr/enfance-jeunesse/accueil-de-loisirs-sans-hebergement/
264;Accueil de loisir;Mairie;ENFANT ;3.0;17.0;ALSH municipal Sussargues;école, rue des carignans 34160 SUSSARGUES;;;;04 67 87 30 15;http://ville-sussargues.fr/category/a-tout-age/vie-extra-scolaire/lalsh/
265;Accueil de loisir;CC pays de Lunel;ENFANT ;3.0;5.0;ALSH municipal Lunel (maternelle);340 rue Mario Roustan 34400 LUNEL;;;;06 65 25 32 26;http://alsh.paysdelunel.fr/lunel
266;Accueil de loisir;CC pays de Lunel;ENFANT ;6.0;11.0;ALSH municipal Lunel (élementaire);le lavoir, 75 rue de l'école du Parc -  34400 LUNEL;;;;06 65 45 42 77;http://alsh.paysdelunel.fr/lunel
267;Accueil de loisir;CC pays de Lunel;ENFANT ;3.0;11.0;ALSH  municipal Lunel viel;école maternelle les thermes, 24 rue des thermes 34400 LUNEL-VIEL;;;;07 63 23 10 07;http://alsh.paysdelunel.fr/blog-lunel-viel-0
268;Accueil de loisir;Mairie;ENFANT ;12.0;17.0;Accueil le monde des jeunes Vendemian;2 place delamairie 34230 VENDEMIAN;;;;04 67 88 76 51;https://www.vendemian.fr/-MDJ-Monde-des-Jeunes-11-18-ans-.html
269;Accueil de loisir;Mairie;ENFANT ;6.0;11.0;ALSH municipal le monde des enfants Vendemian;avenue du tambourin 34230 VENDEMIAN;;;;04 67 88 76 51;https://www.vendemian.fr/-Accueil-Loisirs-6-11-ans-42-.html
270;Accueil de loisir;Mairie;ENFANT ;3.0;17.0;MDJ Cazouls les beziers;20 chemin de l'enclos 34370 CAZOULS-LES-BEZIERS;;;;04 67 32 97 64;https://www.cazoulslesbeziers.com/enfance-et-jeunesse/service-enfance-jeunesse
271;Accueil de loisir;Mairie;ENFANT ;3.0;17.0;MDJ Colombiers;rue des écoles 34440 COLOMBIERS;;;;04 67 32 00 43;http://jeunessecolombiers.blogspot.com/
272;Accueil de loisir;Mairie;ENFANT ;12.0;17.0;Accueil de jeunes de Colombiers;rue des buissonnets 34710 LESPIGNAN;;;;04 67 37 14 95;http://www.lespignan.fr/-Enfance-Jeunesse-.html
273;Accueil de loisir;Mairie;ENFANT ;6.0;11.0;ALSH  municipal Lespignan la cardonilha;8 rue des jardins 34710 LESPIGNAN;;;;04 67 98 49 96;http://www.lespignan.fr/-Enfance-Jeunesse-.html
274;Accueil de loisir;Mairie;ENFANT ;3.0;12.0;ALSH municipal à Puisserguier Planète Lirou;rue font claire 34620 PUISSERGIER;;;;04 67 93 52 17;https://www.cc-sud-herault.fr/enfance-jeunesse-et-famille/enfance/
275;Accueil de loisir;Mairie;ENFANT ;3.0;14.0;ALSH municipal du libron Vias;Ecole Genevieve de Gaulle 34450 VIAS;;;;04 67 09 25 40;http://www.vias-mediterranee.fr/Annuaire-des-services-lieux-et-equipements/Centre-Aere-ALSH-du-Libron
276;Accueil de loisir;Mairie;ENFANT ;8.0;11.0;ALSH municipal Le Cyber Sète;4 rue Robespierre 34200 SETE;;;;04 67 53 60 10;https://www.sete.fr/vie-quotidienne/jeunesse-et-education/accueils-de-loisirs-sans-hebergement/
277;Accueil de loisir;Mairie;ENFANT ;6.0;7.0;ALSH  municipal Le Chateau Vert Sète;boulevard chevalier de Clerville 34200 SETE;;;;04 67 51 39 82;https://www.sete.fr/vie-quotidienne/jeunesse-et-education/accueils-de-loisirs-sans-hebergement/
278;Accueil de loisir;Mairie;ENFANT ;3.0;5.0;ALSH municipal Le Vallon Sète;15 rue Robespierre 34200 SETE;;;;04 67 51 10 33;https://www.sete.fr/vie-quotidienne/jeunesse-et-education/accueils-de-loisirs-sans-hebergement/
279;ACCUEIL DE LOISIRS SS HÉBERGEMENT HÉRAULT;;ENFANT;;;Association Halte Pouce;21 Rue Jean Giroux, 34080 Montpellier ;43.6385499;3.827752;;04 67 40 31 12;
280;ACCUEIL DE LOISIRS SS HÉBERGEMENT HÉRAULT;;ENFANT;;;ALSH associatif UFOLEP Ovalie (maternel & élémentaire);1375 rue de Bugarel, 34070 Montpellier;43.5909137;3.8459423999999998;;04 67 67 41 63;
281;ACCUEIL DE LOISIRS SS HÉBERGEMENT HÉRAULT;;ENFANT;;;ALSH associatif UFOLEP Grisettes (maternel & élémentaire);280 rue du Mas Nouguier, 34070 Montpellier;43.5842791;3.8563229;;04 67 67 41 63;
282;ACCUEIL DE LOISIRS SS HÉBERGEMENT HÉRAULT;;ENFANT;;;ALSH associatif UFOLEP Voltaire (élémentaire);157 rue Henri Sellier, 34000 Montpellier;43.5951802;3.8632524;;04 67 67 41 63;
283;ACCUEIL DE LOISIRS SS HÉBERGEMENT HÉRAULT;;ENFANT;;;ALSH associatif UFOLEP Kipling (maternel);311 avenue de Saint Clément, 34000 Montpellier;43.6162952;3.8452347999999996;;04 67 67 41 63;
284;ACCUEIL DE LOISIRS SS HÉBERGEMENT HÉRAULT;;ENFANT;;;ALSH associatif UFOLEP Pagnol (maternel);305 rue Georges Brassens, 34000 Montpellier;43.5940222;3.8653888999999997;;04 67 67 41 63;
285;ACCUEIL DE LOISIRS SS HÉBERGEMENT HÉRAULT;;ENFANT;;;ALSH associatif UFOLEP Baudelaire (élémentaire);311 avenue de Saint Clément, 34000 Montpellier;43.616571;3.8459483;;04 67 67 41 63;
286;ACCUEIL DE LOISIRS SS HÉBERGEMENT HÉRAULT;;ENFANT;;;ALSH associatif MUC Vacances (maternel et élémentaire);120 rue de la Jalade, 34090 Montpellier;43.626631599999996;3.8644567000000003;;04 99 58 35 36;
287;ACCUEIL DE LOISIRS SS HÉBERGEMENT HÉRAULT;;ENFANT;;;ALSH associatif MUC Vacances;175 rue Villalonga, 34000 Montpellier;43.611984299999996;3.9077739;;04 99 58 35 36;
288;ACCUEIL DE LOISIRS SS HÉBERGEMENT HÉRAULT;;ENFANT;;;ALSH associatif le Relais des enfants (maternel);15 rue Saint Sépulcre, 34000 Montpellier;43.6093354;3.8733869;;04 67 66 21 30;
289;ACCUEIL DE LOISIRS SS HÉBERGEMENT HÉRAULT;;ENFANT;;;ALSH associatif le Relais des enfants (maternel);21 rue d’Aigrefeuille, 34062 Montpellier;43.612419200000005;3.8759052000000005;;04 67 66 21 30;
290;ACCUEIL DE LOISIRS SS HÉBERGEMENT HÉRAULT;;ENFANT;;;ALSH associatif le Relais des enfants (élémentaire);1 rue Embouque d’Or, 34000 Montpellier;43.6108096;3.8788543;;04 67 66 21 30;
291;ACCUEIL DE LOISIRS SS HÉBERGEMENT HÉRAULT;;ENFANT;;;ALSH associatif Vacances évasion (maternel);3 rue des Coronilles, 34000 Montpellier;43.6110296;3.8534272000000005;;04 99 13 71 10;
292;ACCUEIL DE LOISIRS SS HÉBERGEMENT HÉRAULT;;ENFANT;;;ALSH associatif Vacances évasion (élémentaire);5 rue de Clémentville, 34000 Montpellier;43.6108174;3.8541292;;04 99 13 71 10;
293;ACCUEIL DE LOISIRS SS HÉBERGEMENT HÉRAULT;;ENFANT;;;ALSH associatif Vacances évasion (élémentaire);10 chemin des Barques, 34000 Montpellier;43.60437460000001;3.8943939;;04 99 13 71 10;
294;ACCUEIL DE LOISIRS SS HÉBERGEMENT HÉRAULT;;ENFANT;;;ALSH associatif Vacances évasion (maternel & élémentaire);rue du 8 Mai 1945, 34740 Vendargues;43.655436;3.9758812000000003;;06 40 42 18 62;
295;ACCUEIL DE LOISIRS SS HÉBERGEMENT HÉRAULT;;ENFANT;;;ALSH associatif Vacances évasion (maternel & élémentaire);place des écoles, 34830 Jacou;43.6551585;3.9118299;;04 99 13 7 10;www.vaceva.com
296;ACCUEIL DE LOISIRS SS HÉBERGEMENT HÉRAULT;;ENFANT;;;ALSH associatif Vacances évasion (maternel);49 rue de la Méditerranée, 34000 Montpellier;43.6047984;3.8864529;;04 99 13 71 10;
297;ACCUEIL DE LOISIRS SS HÉBERGEMENT HÉRAULT;;ENFANT;;;ALSH associatif Vacances évasion (élémentaire);45 rue de la Méditerranée, 34000 Montpellier;43.604988299999995;3.8857432000000003;;04 99 13 71 10;
298;ACCUEIL DE LOISIRS SS HÉBERGEMENT HÉRAULT;;ENFANT;;;ALSH associatif Vacances évasion (maternel);60 avenue d'Assas, 34000 Montpellier;43.6169515;3.861621;;04 99 13 71 10;
299;ACCUEIL DE LOISIRS SS HÉBERGEMENT HÉRAULT;;ENFANT;;;ALSH associatif Vacances évasion (élémentaire);10 chemin des Barques, 34000 Montpellier;43.6043513;3.8941418;;04 99 13 71 10;
300;ACCUEIL DE LOISIRS SS HÉBERGEMENT HÉRAULT;;ENFANT;;;ALSH associatif Vacances évasion (élémentaire);60 avenue d'Assas, 34000 Montpellier;43.6165651;3.8620822999999995;;04 99 13 71 10;
301;ACCUEIL DE LOISIRS SS HÉBERGEMENT HÉRAULT;;ENFANT;;;ALSH associatif la Gerbe (élémentaire);19 rue Chaptal, 34000 Montpellier;43.6060055;3.8695994;;04 99 74 24 30;
302;ACCUEIL DE LOISIRS SS HÉBERGEMENT HÉRAULT;;ENFANT;;;ALSH associatif les Francas (maternel);123 rue de Salamanque, 34000 Montpellier;43.623810799999994;3.8183917000000003;mderoche@francas34.fr;06 51 87 47 99;
303;ACCUEIL DE LOISIRS SS HÉBERGEMENT HÉRAULT;;ENFANT;;;ALSH municipal Sun Yat Sen (élémentaire);843 rue de la Croix de Figuerolles, 34000 Montpellier;43.604394899999996;3.8439558;;06 51 87 47 99;
304;ACCUEIL DE LOISIRS SS HÉBERGEMENT HÉRAULT;;ENFANT;;;ALSH associatif les Francas (élémentaire);360 avenue de Barcelone, 34000 Montpellier;43.623544700000004;3.8180502;mderoche@francas34.fr;06 51 87 47 99;
305;ACCUEIL DE LOISIRS SS HÉBERGEMENT HÉRAULT;;ENFANT;;;ALSH municipal Maria Callas (maternel);803  rue de la Croix de Figuerolles, 34000 Montpellier;43.6043417;3.8446538999999995;;06 51 87 47 99;
306;ACCUEIL DE LOISIRS SS HÉBERGEMENT HÉRAULT;;ENFANT;;;ALSH associatif les Francas (maternel & élémentaire);;43.626152000000005;3.6751419999999997;;06 24 82 89 40;
307;ACCUEIL DE LOISIRS SS HÉBERGEMENT HÉRAULT;;ENFANT;;;ALSH associatif les Francas (maternel & élémentaire);;43.697624;3.673969;;;
308;ACCUEIL DE LOISIRS SS HÉBERGEMENT HÉRAULT;;ENFANT;;;ALSH associatif GFEN Languedoc (élémentaire);320 rue Le Grand Mail, 34000 Montpellier;43.625273;3.8154991999999996;;09 50 07 12 44;
309;ACCUEIL DE LOISIRS SS HÉBERGEMENT HÉRAULT;;ENFANT;;;ALSH associatif GFEN Languedoc (élémentaire);320 rue Le Grand Mail, 34000 Montpellier;43.6251385;3.8139937000000006;;09 50 07 12 44);
310;ACCUEIL DE LOISIRS SS HÉBERGEMENT HÉRAULT;;ENFANT;;;ALSH associatif PEP 34 (maternel et élémentaire);71 rue Jean Joseph Laborde, 34000 Montpellier;43.6341324;3.8309743999999997;;04 67 40 73 00;
311;ACCUEIL DE LOISIRS SS HÉBERGEMENT HÉRAULT;;ENFANT;;;ALSH associatif ACLE (élémentaire);183 allée de l'aqueduc, 34087 Montpellier;43.61961779999999;3.8423608;;09 65 30 94 83;
312;ACCUEIL DE LOISIRS SS HÉBERGEMENT HÉRAULT;;ENFANT;;;ALSH associatif ACLE (maternel);183 allée de l'aqueduc, 34087 Montpellier;43.6197421;3.842275;;09 65 30 94 83;
313;ACCUEIL DE LOISIRS SS HÉBERGEMENT HÉRAULT;;ENFANT;;;ALSH associatif Passe-muraille;;43.6711861;3.7178519999999997;alshvailhauques@lepassemuraille.org;06 78 12 96 89;
314;ACCUEIL DE LOISIRS SS HÉBERGEMENT HÉRAULT;;ENFANT;;;ALSH associatif Passe-muraille (maternel & élémentaire);;43.791551;3.732024;alshsaintmartindelondres@lepassemuraille.org;06 70 49 33 37;
315;ACCUEIL DE LOISIRS SS HÉBERGEMENT HÉRAULT;;ENFANT;;;ALSH associatif Loisirs de La Salle (maternel & élémentaire);Rue Lunaret, 34000 MONTPELLIER;43.6195802;3.8820108;;04 67 02 76 84;
316;ACCUEIL DE LOISIRS SS HÉBERGEMENT HÉRAULT;;ENFANT;;;ALSH associatif Les Enfants d’Hélène (maternel et élémentaire);1330 rue Henri Lagattu, 34000 Montpellier;43.629981799999996;3.8320799;;04 99 74 72 80;
317;ACCUEIL DE LOISIRS SS HÉBERGEMENT HÉRAULT;;ENFANT;;;ALSH associatif Léo Lagrange;6 rue Jules Ferry école primaire, 34110 MIREVAL;43.506566799999995;3.7995871;leolagrange.mireval@orange.fr;04 67 74 94 21;
318;ACCUEIL DE LOISIRS SS HÉBERGEMENT HÉRAULT;;ENFANT;;;ALSH associatif Éveil en Mouvement (maternel et élémentaire);Rue Antoine Laurent de Jussieu, 34000 Montpellier;43.6364508;3.8738226000000004;;06 34 45 61 72;
319;ACCUEIL DE LOISIRS SS HÉBERGEMENT HÉRAULT;;ENFANT;;;ALSH associatif Loisirs-Education et Citoyenneté Grand sud (maternel);allée de l'espérance, 34270 Saint-Mathieu-de-Tréviers;43.7740495;3.8682537000000004;lesloulousdupic@loisireduc.org;04 67 55 17 03;
320;ACCUEIL DE LOISIRS SS HÉBERGEMENT HÉRAULT;;ENFANT;;;ALSH municipal Aiguelongue (maternel et élémentaire);2 rue des , 34000 Montpellier;43.626080200000004;3.8793731;;06 17 90 63 81;
321;ACCUEIL DE LOISIRS SS HÉBERGEMENT HÉRAULT;;ENFANT;;;ALSH municipal les Tours (maternel);Rue Pierre Nicolas, 34000 Montpellier;43.639726;3.8126265;;06 17 90 60 33;
322;ACCUEIL DE LOISIRS SS HÉBERGEMENT HÉRAULT;;ENFANT;;;ALSH municipal les Tours (élémentaire);135 allée des Hauts de Massane, 34000 Montpellier;43.639943200000005;3.8201086;;06 17 90 60 33;
323;ACCUEIL DE LOISIRS SS HÉBERGEMENT HÉRAULT;;ENFANT;;;ALSH municipal Oxford (maternel);;43.6273018;3.8190497000000003;;06 17 90 60 97;
324;ACCUEIL DE LOISIRS SS HÉBERGEMENT HÉRAULT;;ENFANT;;;ALSH municipal Oxford (élémentaire);25 rue de Lausanne, 34000 Montpellier;43.6273968;3.8195928;;06 17 90 60 97;
325;ACCUEIL DE LOISIRS SS HÉBERGEMENT HÉRAULT;;ENFANT;;;ALSH municipal Malet (élémentaire);5 allée Pierre Carabasse, 34080 Montpellier;43.61267410000001;3.8318149;;06 17 90 64 41;
326;ACCUEIL DE LOISIRS SS HÉBERGEMENT HÉRAULT;;ENFANT;;;ALSH municipal Carpantier (maternel);12 rue des Écoles, 34000 Montpellier;43.61368529999999;3.8277248999999998;;06 17 90 71 27;
327;ACCUEIL DE LOISIRS SS HÉBERGEMENT HÉRAULT;;ENFANT;;;ALSH municipal la Martelle (maternel);88 rue Viollet le Duc, 34000 Montpellier;43.6086738;3.8366795;;06 17 90 70 19;
328;ACCUEIL DE LOISIRS SS HÉBERGEMENT HÉRAULT;;ENFANT;;;ALSH municipal la Martelle (élémentaire);110 rue Viollet le Duc, 34000 Montpellier;43.608437200000004;3.8378976000000002;;06 17 90 70 19;
329;ACCUEIL DE LOISIRS SS HÉBERGEMENT HÉRAULT;;ENFANT;;;ALSH municipal Michelet (maternel);Rue des Araucarias, 34000 Montpellier;43.6156312;3.8385227;;06 17 90 68 30;
330;ACCUEIL DE LOISIRS SS HÉBERGEMENT HÉRAULT;;ENFANT;;;ALSH municipal Villon (élémentaire);Rue des Araucarias, 34000 Montpellier;43.615629299999995;3.8385172999999995;;06 17 90 67 99;
331;ACCUEIL DE LOISIRS SS HÉBERGEMENT HÉRAULT;;ENFANT;;;ALSH municipal Combes (maternel);20 rue Edmond Lautard, 34000 Montpellier;43.6228685;3.8406951;;06 17 90 69 12;
332;ACCUEIL DE LOISIRS SS HÉBERGEMENT HÉRAULT;;ENFANT;;;ALSH municipal Combes (élémentaire);20 rue Edmond Lautard, 34000 Montpellier;43.623094;3.8404288;;06 17 90 69 12;
333;ACCUEIL DE LOISIRS SS HÉBERGEMENT HÉRAULT;;ENFANT;;;ALSH municipal Vernes (élémentaire);127 rue Yehudi Menuhin, 34000 Montpellier;43.6173554;3.8839626000000003;;06 17 90 65 34;
334;ACCUEIL DE LOISIRS SS HÉBERGEMENT HÉRAULT;;ENFANT;;;ALSH municipal la Fontaine (maternel);27 quai des Tanneurs, 34090 Montpellier;43.615585700000004;3.8781024;;06 17 90 67 64;
335;ACCUEIL DE LOISIRS SS HÉBERGEMENT HÉRAULT;;ENFANT;;;ALSH municipal Roux (maternel & élémentaire);96 rue du Faubourg Figuerolles, 34000 Montpellier;43.6059136;3.8623796;;06 17 90 62 65;
336;ACCUEIL DE LOISIRS SS HÉBERGEMENT HÉRAULT;;ENFANT;;;ALSH municipal Lantissargues (maternel & élémentaire);215 boulevard Pédro de Luna, 34000 Montpellier;43.5948815;3.8708123;;06 17 44 58 78;
337;ACCUEIL DE LOISIRS SS HÉBERGEMENT HÉRAULT;;ENFANT;;;ALSH municipal Estanove (maternel & élémentaire);Rue du Lavandin, 34000 Montpellier;43.599718599999996;3.8547426;;06 17 90 62 24;
338;ACCUEIL DE LOISIRS SS HÉBERGEMENT HÉRAULT;;ENFANT;;;ALSH municipal Savary (élémentaire);240 quai Flora Tristan, 34070 Montpellier;43.5967226;3.8392168;;06 17 90 64 84;
339;ACCUEIL DE LOISIRS SS HÉBERGEMENT HÉRAULT;;ENFANT;;;ALSH municipal Boucher (maternel);240 quai Flora Tristan, 34070 Montpellier;43.5964545;3.8399142;;06 17 90 64 84;
340;ACCUEIL DE LOISIRS SS HÉBERGEMENT HÉRAULT;;ENFANT;;;ALSH municipal les Aiguerelles (élémentaire);686 avenue du Pont Trinquat, 34000 Montpellier;43.5977947;3.8918833;;06 17 90 69 63;
341;ACCUEIL DE LOISIRS SS HÉBERGEMENT HÉRAULT;;ENFANT;;;ALSH municipal les Aiguerelles (maternel);686 avenue du Pont Trinquat, 34000 Montpellier;43.5977947;3.8918833;;06 17 90 69 63;
342;ACCUEIL DE LOISIRS SS HÉBERGEMENT HÉRAULT;;ENFANT;;;ALSH municipal Cité Mion (élémentaire);Impasse des Marmousets, 34060 Montpellier;43.59820429999999;3.8818932999999998;;06 17 90 61 09;
343;ACCUEIL DE LOISIRS SS HÉBERGEMENT HÉRAULT;;ENFANT;;;ALSH municipal Cité Mion (maternel);Impasse des Marmousets, 34060 Montpellier;43.5985236;3.8821491000000004;;06 17 90 61 09;
344;ACCUEIL DE LOISIRS SS HÉBERGEMENT HÉRAULT;;ENFANT;;;ALSH municipal Malraux (maternel & élémentaire);Rue Joan Miro, 34000 Montpellier;43.6021215;3.9076084000000004;;04 67 20 35 53;
345;ACCUEIL DE LOISIRS SS HÉBERGEMENT HÉRAULT;;ENFANT;;;ALSH municipal Astérix (maternel & élémentaire);Avenue Albert Einstein, 34000 Montpellier;43.615215500000005;3.9309275;;06 77 76 58 26;
346;ACCUEIL DE LOISIRS SS HÉBERGEMENT HÉRAULT;;ENFANT;;;ALSH municipal Jean Moulin (élémentaire);;43.6187042;3.8913425000000004;rizlene.kebdani@ville-montpellier.fr;06 17 90 60 67;
347;ACCUEIL DE LOISIRS SS HÉBERGEMENT HÉRAULT;;ENFANT;;;ALSH municipal Bergman (maternel);20 boulevard Mounié, 34000 Montpellier;43.61905170000001;3.8909214999999997;;06 17 90 60 67;
348;ACCUEIL DE LOISIRS SS HÉBERGEMENT HÉRAULT;;ENFANT;;;ALSH municipal Juvignac;20 rue Neptune, 34990 Juvignac;43.621117100000006;3.8070538000000003;;06 80 43 52 17;
349;ACCUEIL DE LOISIRS SS HÉBERGEMENT HÉRAULT;;ENFANT;;;ALSH municipal la maison des enfants;2 rue des écoles, 34820 Teyran;43.683088899999994;3.9284476;;06 11 83 01 37;
350;ACCUEIL DE LOISIRS SS HÉBERGEMENT HÉRAULT;;ENFANT;;;ALSH municipal Prades-le-lez;205 chemin des mazes, 34730 Prades-le-Lez;43.700664200000006;3.8667802000000004;;04 67 06 59 96;
351;ACCUEIL DE LOISIRS SS HÉBERGEMENT HÉRAULT;;ENFANT;;;ALSH municipal Montferrier (maternel & élémentaire);4 impasse du château, 34980 Montferrier-sur-Lez;43.666682;3.8610019999999996;esj.m@wanadoo.fr;04 67 59 54 99 ;
352;ACCUEIL DE LOISIRS SS HÉBERGEMENT HÉRAULT;;ENFANT;;;ALSH municipal Clapiers (maternel);151 Rue Jean Moulin, 34830 Clapiers;43.6551936;3.888072;;;
353;ACCUEIL DE LOISIRS SS HÉBERGEMENT HÉRAULT;;ENFANT;;;ALSH municipal Clapiers (élémentaire);Rue du bosc, 34830 Clapiers;43.658343200000004;3.8875469;;;
354;ACCUEIL DE LOISIRS SS HÉBERGEMENT HÉRAULT;;ENFANT;;;ALSH municpal Le Crès (maternel & élémentaire);28 avenue des Cevennes, 34920 LE CRES;43.6475406;3.9412095999999996;;04 67 41 95 49  ;
355;ACCUEIL DE LOISIRS SS HÉBERGEMENT HÉRAULT;;ENFANT;;;ALSH municipal Castelnau-le-Lez (maternel & élémentaire);213 Chemin des Mendrous, 34170 Castelnau-le-Lez;43.636702899999996;3.9147117;;04 67 14 27 92;
356;ACCUEIL DE LOISIRS SS HÉBERGEMENT HÉRAULT;;ENFANT;;;ALSH municipal Saint Aunès;Place de l' escolette, 34130 Saint-Aunès;43.636678499999995;3.9652053999999994;;;
357;ACCUEIL DE LOISIRS SS HÉBERGEMENT HÉRAULT;;ENFANT;;;ALSH intercommunal Castries (maternel & élmentaire);Route de Fontmarie, 34160 CASTRIES;43.6945671;3.9936403;;04 67 87 30 15;
358;ACCUEIL DE LOISIRS SS HÉBERGEMENT HÉRAULT;;ENFANT;;;ALSH municipal Saint Georges d'orques (maternel);2 avenue d'Occitanie, 34680 Saint-Georges-d'Orques;43.6084717;3.7875222;alsh.maternel@ville-st-georges-dorques.fr;04 67 40 57 12;
359;ACCUEIL DE LOISIRS SS HÉBERGEMENT HÉRAULT;;ENFANT;;;ALSH municipal Saint Georges d'orques (élémentaire);avenue des Jardins, 34680 Saint-Georges-d'Orques;43.6088205;3.7830133000000004;clsh.primaire@ville-st-georges-dorques.fr;04 67 45 59 47;
360;ACCUEIL DE LOISIRS SS HÉBERGEMENT HÉRAULT;;ENFANT;;;ALSH municipal Saint Gély du Fesc (maternel & élémentaire);70 rue Rompude, 34980 Saint-Gély-du-Fesc;43.6948565;3.8004523;mairie.alshlesgalopins@saintgelydufesc.com;04 67 66 64 88;
361;ACCUEIL DE LOISIRS SS HÉBERGEMENT HÉRAULT;;ENFANT;;;ALSH municipal Saint Clément de rivière (élémentaire);;43.6858576;3.8490193;clsh@saint-clement-de-riviere.fr;04.67.84.49.60;
362;ACCUEIL DE LOISIRS SS HÉBERGEMENT HÉRAULT;;ENFANT;;;ALSH municipal Saint Jean de védas (maternel & élémentaire);rue de la combe, 34430 Saint-Jean-de-Védas;43.566998999999996;3.8249872000000003;;04 99 52 20 62;
363;ACCUEIL DE LOISIRS SS HÉBERGEMENT HÉRAULT;;ENFANT;;;ALSH municipal Lavérune (maternel & élémentaire);Avenue du château, 34880 Lavérune;43.5847556;3.8021772000000005;;04 99 51 20 17;
364;ACCUEIL DE LOISIRS SS HÉBERGEMENT HÉRAULT;;ENFANT;;;ALSH intercommunal de Mauguio (maternel & élémentaire);chemin de Bentenac, 34130 Mauguio;43.6055575;4.0179168;maison.des.loisirs@paysdelor.fr;04 67 91 20 89;
365;ACCUEIL DE LOISIRS SS HÉBERGEMENT HÉRAULT;;ENFANT;;;ALSH intercommunal Palavas les flots (maternel & élémentaire);Rue de la Tramontane, 34250 Palavas-les-Flots;43.531469;3.9332550000000004;clsh.palavas@paysdelor.fr;04 67 20 18 35;
366;ACCUEIL DE LOISIRS SS HÉBERGEMENT HÉRAULT;;ENFANT;;;ALSH intercommunal de La Grande motte (maternel & élémentaire);98 rue Saint-Louis, 34280 La Grande Motte;43.5594089;4.0995064;clsh.lgm@paysdelor.fr;04 67 56 08 10;
367;ACCUEIL DE LOISIRS SS HÉBERGEMENT HÉRAULT;;ENFANT;;;ALSH intercommunal Valergues (maternel & élémentaire);105 avenue Frédéric Mistral, 34130 Valergues;43.6672191;4.06252;clsh.valergues@paysdelor.fr;04 67 63 47 05;
368;ACCUEIL DE LOISIRS SS HÉBERGEMENT HÉRAULT;;ENFANT;;;ALSH municipal Baillargues (maternel & élémentaire);10 rue de la Chicane, 34670 Baillargues;43.6592717;4.0121985;sportetjeunesse@ville-baillargues.fr;04 67 87 41 93 / 95;
369;ACCUEIL DE LOISIRS SS HÉBERGEMENT HÉRAULT;;ENFANT;;;ALSH municipal Lattes (maternel & élémentaire);avenue de Fréjorgues, 34970 LATTES;43.569431099999996;3.9109347999999997;centre.loisirs@ville-lattes.fr;06 15 77 50 56;
370;ACCUEIL DE LOISIRS SS HÉBERGEMENT HÉRAULT;;ENFANT;;;ALSH municipal Murviel-les-montpellier (maternel & élémentaire);Rue Lucie et Raymond Aubrac, 34570 Murviel Les Montpellier;43.6045681;3.7353312000000005;;04 67 47 68 65;
371;ACCUEIL DE LOISIRS SS HÉBERGEMENT HÉRAULT;;ENFANT;;;ALSH municipal Pérols (maternel & élémentaire);Rue des flamants roses, 34470 Pérols;43.565839200000006;3.9527059999999996;;04 67 50 45 45;
372;ACCUEIL DE LOISIRS SS HÉBERGEMENT HÉRAULT;;ENFANT;;;ALSH municipal Pignan (maternal & élémentaire);;43.582080100000006;3.7611531000000005;;06 71 32 15 90;
373;ACCUEIL DE LOISIRS SS HÉBERGEMENT HÉRAULT;;ENFANT;;;ALSH municipal Fabrègues (maternel & élémentaire);"150 rue Georges-Pompidou, 34690
Fabrègues";43.5559572;3.7812038999999995;alsh@fabregues.fr;04 67 85 43 62;
374;ACCUEIL DE LOISIRS SS HÉBERGEMENT HÉRAULT;;ENFANT;;;ALSH associatif APUM Fac de sciences (maternel & élémentaire);Place Eugène-Bataillon Case courrier 098, 34095 Montpellier Cedex;43.6352557;3.8607745;cle-apum@umontpellier.fr;04 67 14 30 99;
375;ACCUEIL DE LOISIRS SS HÉBERGEMENT HÉRAULT;;ENFANT;;;ALSH municipal Villeneuve-les-maguelone;2 place des Héros, 34750 Villeneuve-lès-Maguelone;43.5334869;3.8611367999999997;;04 67 69 75 70;
376;ACCUEIL DE LOISIRS SS HÉBERGEMENT HÉRAULT;;ENFANT;;;ALSH municipal Grabels (maternel & élémentaire);15 impasse du Picadou, 34790 Grabels;43.644850299999995;3.8019851000000005;;04 67 79 71 85;
377;ACCUEIL DE LOISIRS SS HÉBERGEMENT HÉRAULT;;ENFANT;;;ALSH municipal Montarnaud (maternel & élémentaire);;43.650152;3.6928577000000007;;;
378;ACCUEIL DE LOISIRS SS HÉBERGEMENT HÉRAULT;;ENFANT;;;ALSH municipal Cournonterral (maternel & élémentaire);;43.558067;3.719578;centreloisirs@ville-cournonterral.fr;;
379;ACCUEIL DE LOISIRS SS HÉBERGEMENT HÉRAULT;;ENFANT;;;ALSH municipal Combaillaux (maternel & élémentaire);;43.677099;3.766372;;;
380;ACCUEIL DE LOISIRS SS HÉBERGEMENT HÉRAULT;;ENFANT;;;ALSH municipal les Matelles (maternel & élémentaire);;43.7306886;3.8117928;alsh@mairiedesmatelles.fr;;
381;ACCUEIL DE LOISIRS SS HÉBERGEMENT HÉRAULT;;ENFANT;;;ALSH municipal Saint Matthieu de treviers (maternel & élémentaire);;43.7628705;3.8695616999999998;;;
382;ACCUEIL DE LOISIRS SS HÉBERGEMENT HÉRAULT;;ENFANT;;;Accueil l'Ecolothèque;Mas de Grille, 1 rue Théophraste Renaudot, 34430 Saint-Jean-de-Védas;43.5727501;3.8524260000000004;;04 99 52 82 82;
383;ACCUEIL DE LOISIRS SS HÉBERGEMENT HÉRAULT;;ENFANT;;;Accueil les Ateliers d'Arthur;12 rue Marcel de Serres, 34000 Montpellier;43.6127828;3.865104;;09 81 05 21 20;
384;ACCUEIL DE LOISIRS SS HÉBERGEMENT HÉRAULT;;ENFANT;;;Accueil MCSA 34;Association Montpellier Culture Sport Adapté 2 Rue Ernest Castan, 34090 Montpellier;43.619015600000004;3.8811282;;04 67 79 23 40;
385;ACCUEIL DE LOISIRS SS HÉBERGEMENT HÉRAULT;;ENFANT;;;Accueil Pause-goûter;Village du Père Soulas Mas des Moulins, 2452 Avenue du Père Soulas, 34090 Montpellier;43.6296766;3.8445282;;04 67 41 98 21;
386;ACCUEIL DE LOISIRS SS HÉBERGEMENT HÉRAULT;;ENFANT;;;ALSH associatif MJC Trencavel (élémentaire & Ados);Maison des Jeunes et de la Culture Centre socioculturel Trencavel, 13A Bd Du Guesclin 34500 Béziers;43.34482070000001;3.2232491000000003;infos@mjc-beziers.org;04 67 31 27 34;www.mjc-beziers.org
387;ACCUEIL DE LOISIRS SS HÉBERGEMENT HÉRAULT;;ENFANT;;;ALSH municipal Brassens (élémentaire);31 avenue Auguste Albertini, , 34500 Béziers;43.3493755;3.2361793999999997;;04 67 62 87 00;
388;ACCUEIL DE LOISIRS SS HÉBERGEMENT HÉRAULT;;ENFANT;;;ALSH intercommunal Servian (maternel & élémentaire);PCL VILLAMONT, Bois d’Amilhac, 34290 SERVIAN                     ;43.3957641;3.3021102999999994;;04 67 76 02 76;http://villamont-beziers.fr/portfolio/centre-de-loisir/
389;ACCUEIL DE LOISIRS SS HÉBERGEMENT HÉRAULT;;ENFANT;;;ALSH municipal Dolto (maternel);ALSH Dolto, 330 rue Claude Nougaro, 34500 Béziers;43.3452082;3.2528232999999998;;04 99 43 81 72;
390;ACCUEIL DE LOISIRS SS HÉBERGEMENT HÉRAULT;;ENFANT;;;ALSH municipal Albert Camus (élémentaire);ALSH Albert Camus, Esplanade Rosa Parks, 34500 Béziers;43.3345614;3.2516232999999994;;04 67 32 62 00;
391;ACCUEIL DE LOISIRS SS HÉBERGEMENT HÉRAULT;;ENFANT;;;ALSH municipal Vaclav Havel (élémentaire);ALSH Vaclav Havel, Rue Jules Dalou, 34500 Béziers;43.350751;3.2088330000000003;;04 67 36 73 57;
392;ACCUEIL DE LOISIRS SS HÉBERGEMENT HÉRAULT;;ENFANT;;;ALSH municipal Malbosc (marternel);ALSH Malbosc,Quartier La Courondelle, 181 rue Ostermeyer, 34500 Béziers;43.363313500000004;3.2255525;;04 99 43 81 72;
393;ACCUEIL DE LOISIRS SS HÉBERGEMENT HÉRAULT;;ENFANT;;;ALSH municipal Zinga Zanga (maternel & élémentaire);Centre Loisirs Zinga Zanga, Traverse de Colombiers, 34500 Béziers - Pradines le Bas;43.329228;3.190512;;04 67 48 13 36;
394;ACCUEIL DE LOISIRS SS HÉBERGEMENT HÉRAULT;;ENFANT;;;ALSH municipal Martin Luther King (élémentaire);ALSH Martin Luther King, 26, rue de l’Orb, 34500 Béziers;43.338458200000005;3.2101064;;04 67 80 07 20;
395;ACCUEIL DE LOISIRS SS HÉBERGEMENT HÉRAULT;;ENFANT;;;ALSH municipal Sauvian (maternel & élémentaire);ALSH municipal Sauvian, rue caucadis, 34410 Sauvian;43.295778600000006;3.2600096;direction.alsh@ville-sauvian.com / alsh@ville-sauvian.com;04 67 32 20 49;
396;ACCUEIL DE LOISIRS SS HÉBERGEMENT HÉRAULT;;ENFANT;;;ALSH associatif les Francas (maternel & élémentaire);ALSH associatif les Francas, Rue des Lilas, 34420 VILLENEUVE LES BEZIERS                        ;43.31531629999999;3.2862556000000005;;04 67 39 39 59;
397;ACCUEIL DE LOISIRS SS HÉBERGEMENT HÉRAULT;;ENFANT;;;ALSH municipal Sérignan (maternel & élémentaire);Ecole Ferdinand Buisson, Avenue de la Plage, 34410  Sérignan;43.2772086;3.2837376000000003;clm@ville-serignan.fr;04 67 32 32 13;
398;ACCUEIL DE LOISIRS SS HÉBERGEMENT HÉRAULT;;ENFANT;;;ALSH municipal Montady (maternel & élémentaire);;43.3307667;3.1202843;Centredeloisirs@montady.com;04 86 11 28 03;
399;ACCUEIL DE LOISIRS SS HÉBERGEMENT HÉRAULT;;ENFANT;;;ALSH municipal Portiragnes;;43.277700200000005;3.3545756;clshmoniquesaluste@wanadoo.fr;04 67 90 81 01;www.clshmoniquesaluste.com
400;ACCUEIL DE LOISIRS SS HÉBERGEMENT HÉRAULT;;ENFANT;;;ALSH municipal Bessan (maternel & élémentaire);A.L.S.H de Montblanc, Route de Montblanc, 34550 Bessan;43.3702474;3.4103707;;04 67 77 57 32;
401;ACCUEIL DE LOISIRS SS HÉBERGEMENT HÉRAULT;;ENFANT;;;ALSH municipal Montblanc (maternel);1 Résidence les Vignes, 34290 MONTBLANC;43.3962226;3.3635371;accueildeloisirs-montblanc34@orange.fr;04 67 37 93 56;
402;ACCUEIL DE LOISIRS SS HÉBERGEMENT HÉRAULT;;ENFANT;;;ALSH municipal Montblanc (élémentaire);AVENUE DE LA PAIX, 34290 MONTBLANC;43.393708200000006;3.3655411;accueildeloisirs-montblanc34@orange.fr;04 67 01 57 43;
403;ACCUEIL DE LOISIRS SS HÉBERGEMENT HÉRAULT;;ENFANT;;;ALSH municipal Pézenas (maternel & élémentaire;2 rue Louis Audibert, 34120 Pézenas;43.4540925;3.4159900000000003;l.senesi@ville-pezenas.fr;04 67 90 74 05;
404;ACCUEIL DE LOISIRS SS HÉBERGEMENT HÉRAULT;;ENFANT;;;ALSH municipal Valros (maternel & élémentaire);ALSH « Les Faïsses », 12 Allée des Tilleuls 34290 VALROS;43.4174193;3.3655577000000005;alpalsh.valros@laposte.net;06 71 34 49 39;
405;ACCUEIL DE LOISIRS SS HÉBERGEMENT HÉRAULT;;ENFANT;;;ALSH associatif les Francas (maternel & élémentaire);;43.771518;3.9078489999999997;loisirssaintecroix@francas34.fr;06 51 62 73 55;
406;ACCUEIL DE LOISIRS SS HÉBERGEMENT HÉRAULT;;ENFANT;;;Accueil associatif UFCV salle attente PMI Béziers;;43.3376441;3.2556267999999995;languedoc-roussillon@ufcv.fr;;
407;ACCUEIL DE LOISIRS SS HÉBERGEMENT HÉRAULT;;ENFANT;;;ALSH intercommunal Planète Lirou(maternel & élémentaire);Maison des Enfants, Rue Font Claire, 34620 Puisserguier;43.367434;3.051838;;04 67 93 65 17;
408;ACCUEIL DE LOISIRS SS HÉBERGEMENT HÉRAULT;;ENFANT;;;ALSH intercommunal Planète Orb (maternel & élémentaire);Ecole Maternelle/Espace Léo Lagrange, 34360 CESSENON-SUR-ORB;43.450873200000004;3.0501278;;04 67 89 60 78;
409;ACCUEIL DE LOISIRS SS HÉBERGEMENT HÉRAULT;;ENFANT;;;ALSH municipal Montagnac (maternel & élémentaire);7 rue gendarme Lebaron, 34530 MONTAGNAC;43.4839644;3.4791502999999997;alsh.ferry@ville-montagnac.fr;04 67 25 02 24;
410;ACCUEIL DE LOISIRS SS HÉBERGEMENT HÉRAULT;;ENFANT;;;ALSH intercommunal la Clé des champs (maternel & élémentaire);Avenue de Caux, 34320 ROUJAN;43.5046204;3.3133081;lacledeschamps.roujan@wanadoo.fr;04 67 24 82 31;
411;ACCUEIL DE LOISIRS SS HÉBERGEMENT HÉRAULT;;ENFANT;;;ALSH municipal Montagnac (maternel & élémentaire);;43.499911600000004;3.5975426;alsh@villeveyrac.fr;04 67 53 44 92;
412;ACCUEIL DE LOISIRS SS HÉBERGEMENT HÉRAULT;;ENFANT;;;ALSH municipal Loupian (maternel & élémentaire);;43.449123799999995;3.6148102999999994;clae@loupian.fr;04 67 43 91 62;
413;ACCUEIL DE LOISIRS SS HÉBERGEMENT HÉRAULT;;ENFANT;;;ALSH municipal Mèze (maternel);;43.421470299999996;3.5955472;alsh.maternel@ville-meze.fr;04 67 43 93 55;
414;ACCUEIL DE LOISIRS SS HÉBERGEMENT HÉRAULT;;ENFANT;;;ALSH municipal Mèze (élémentaire);;43.441308299999996;3.5945258;alsh-sesquiers@ville-meze.fr;04 67 43 93 55;
415;ACCUEIL DE LOISIRS SS HÉBERGEMENT HÉRAULT;;ENFANT;;;ALSH municipal Marseillan (maternel & élémentaire);1 rue du Général de Gaulle, 34340 Marseillan;43.3170627;3.5462837;sabrina.ibanez@marseillan.com;06 67 65 37 71;
416;ACCUEIL DE LOISIRS SS HÉBERGEMENT HÉRAULT;;ENFANT;;;ALSH municipal Florensac (maternel & élémentaire);AVENUE JEAN JAURES, 34510 Florensac;43.3839211;3.4645667;;;
417;ACCUEIL DE LOISIRS SS HÉBERGEMENT HÉRAULT;;ENFANT;;;ALSH intercommunal Fontès (maternel);;43.5390115;3.3794154;pole.fontes@cc-clermontais.fr;04 67 24 10 22;
418;ACCUEIL DE LOISIRS SS HÉBERGEMENT HÉRAULT;;ENFANT;;;ALSH intercommunal Fontès (élémentaire);;43.5395635;3.3814184000000003;;;
419;ACCUEIL DE LOISIRS SS HÉBERGEMENT HÉRAULT;;ENFANT;;;ALSH intercommunal Canet (maternel & élémentaire);;43.608585999999995;3.4886468999999996;pole.canet@cc-clermontais.fr;04 67 96 93 53;
420;ACCUEIL DE LOISIRS SS HÉBERGEMENT HÉRAULT;;ENFANT;;;ALSH intercommunal Ceyras (maternel & élémentaire);;43.648404799999994;3.4538333;pole.ceyras@cc-clermontais.fr;04 67 88 67 04;
421;ACCUEIL DE LOISIRS SS HÉBERGEMENT HÉRAULT;;ENFANT;;;ALSH intercommunal Clermont l'Hérault (maternel & élémentaire);;43.6330524;3.4301709000000002;pole.clermont@cc-clermontais.fr;04 67 96 23 05;
422;ACCUEIL DE LOISIRS SS HÉBERGEMENT HÉRAULT;;ENFANT;;;ALSH intercommunal Nébian (maternel & élémentaire);;43.6045216;3.4349383;pole.nebian@cc-clermontais.fr;04 67 88 08 98;
423;ACCUEIL DE LOISIRS SS HÉBERGEMENT HÉRAULT;;ENFANT;;;ALSH intercommunal Paulhan (maternel & élémentaire);;43.54300429999999;3.4605612;pole.paulhan@cc-clermontais.fr;04 67 25 05 23;
424;ACCUEIL DE LOISIRS SS HÉBERGEMENT HÉRAULT;;ENFANT;;;ALSH municipal Gigean (élémentaire);Rue des écoles laïques, 34770 Gigean;43.5002341;3.7131748;;04 67 46 64 61;
425;ACCUEIL DE LOISIRS SS HÉBERGEMENT HÉRAULT;;ENFANT;;;ALSH municipal Gigean (maternel);Rue de la Clau, 34770 Gigean;43.494122600000004;3.7060824;;06 67 53 77 19;
426;ACCUEIL DE LOISIRS SS HÉBERGEMENT HÉRAULT;;ENFANT;;;ALSH municipal Poussan (maternel  é élémentaire);26 rue de la salle, 34560 POUSSAN;43.488103499999994;3.6668613;clsh@ville-poussan.fr;04 67 18 13 38;
427;ACCUEIL DE LOISIRS SS HÉBERGEMENT HÉRAULT;;ENFANT;;;ALSH municipal Gignac (élémentaire);Centre Georges Frayssinhes, Rue Pierre Curie, 34150 Gignac;43.6535417;3.5465957;centredeloisirs@ville-gignac.com;04 67 57 63 31;
428;ACCUEIL DE LOISIRS SS HÉBERGEMENT HÉRAULT;;ENFANT;;;ALSH municipal Saint André de Sangonis (maternel & élémentaire);7 Cours de la Liberté, 34725 Saint-André-de-Sangonis;43.650686799999995;3.5033461000000004;;04 67 60 31 67;
429;ACCUEIL DE LOISIRS SS HÉBERGEMENT HÉRAULT;;ENFANT;;;ALSH municipal Montpeyroux (maternel & élémentaire);;43.6983965;3.5011767999999996;enfance.jeunesse@montpeyroux34.com;06 14 39 69 44;
430;ACCUEIL DE LOISIRS SS HÉBERGEMENT HÉRAULT;;ENFANT;;;ALSH municipal Saint Pargoire (maternel & élémentaire);Espace Jean moulin, 34230 SAINT PARGOIRE;43.526555;3.5177605000000005;enfance-jeunesse@ville-saintpargoire.com;04 67 98 76 75;
431;ACCUEIL DE LOISIRS SS HÉBERGEMENT HÉRAULT;;ENFANT;;;ALSH associatif La Clau Besierenca (maternel & élémentaire);;43.3395751;3.2172194;clau.calandreta@gmail.com;04 67 28 18 53;
432;ACCUEIL DE LOISIRS SS HÉBERGEMENT HÉRAULT;;ENFANT;;;Association Jouons en ludothèques;;43.5997216;3.8447079;;04 67 69 00 81;www.jouonsenludotheques.fr
433;ACCUEIL DE LOISIRS SS HÉBERGEMENT HÉRAULT;;ENFANT;;;ALSH intercommunal Cessenon-sur-Orb (maternel & élémentaire);;43.4495675;3.0498402000000002;;;
434;ACCUEIL DE LOISIRS SS HÉBERGEMENT HÉRAULT;;ENFANT;;;Mairie;;43.6530197;3.5511947;;;
435;ACCUEIL DE LOISIRS SS HÉBERGEMENT HÉRAULT;;ENFANT;;;Fabregues;;43.5495789;3.7791279;;;
436;ACCUEIL DE LOISIRS SS HÉBERGEMENT HÉRAULT;;ENFANT;;;MONTARNAUD;;43.64881679999999;3.6982044999999997;;;
437;ACCUEIL DE LOISIRS SS HÉBERGEMENT HÉRAULT;;ENFANT;;;Cournonsec;;43.543483;3.6993669999999996;;;
438;ACCUEIL DE LOISIRS SS HÉBERGEMENT HÉRAULT;;ENFANT;;;Lattes;;43.568028000000005;3.901911;;;
439;ACCUEIL DE LOISIRS SS HÉBERGEMENT HÉRAULT;;ENFANT;;;Bouillon Cube / LA GRANGE;Bouillon cube La Grange, 34380 Causse de la Selle;43.813824;3.660712;grange@bouilloncube.fr;04 67 71 35 42;www.bouilloncube.fr
440;ACCUEIL DE LOISIRS SS HÉBERGEMENT HÉRAULT;;ENFANT;;;ALSH municipal Lauret;;43.8327149;3.8855452000000006;;09 60 12 94 77;
441;ACCUEIL DE LOISIRS SS HÉBERGEMENT HÉRAULT;;ENFANT;;;ALSH municipal Claret;;43.861204;3.9044269999999996;;09 60 12 94 77;
442;ACCUEIL DE LOISIRS SS HÉBERGEMENT HÉRAULT;;ENFANT;;;MDJ Claret;;43.8647323;3.8930898999999997;mdj@claret.fr;06 72 26 17 33;
443;ACCUEIL DE LOISIRS SS HÉBERGEMENT HÉRAULT;;ENFANT;;;ALSH St Bauzille de Putois;;43.895697600000005;3.7391205999999997;accueildeloisirssaintbauzille@gmail.com;04 67 73 37 68;
444;ACCUEIL DE LOISIRS SS HÉBERGEMENT HÉRAULT;;ENFANT;;;ALSH association le passe muraille;;43.7523698;3.7177653;;04 67 55 96 68;
445;ACCUEIL DE LOISIRS SS HÉBERGEMENT HÉRAULT;;ENFANT;;;ALSH  La Giraf’à Bulles Bleues à Brissac;;43.877954200000005;3.7032491999999997;alsh.brissac@hotmail.fr;04 99 53 81 47;
446;ACCUEIL DE LOISIRS SS HÉBERGEMENT HÉRAULT;;ENFANT;;;ALSH de Ganges;;43.936295799999996;3.7073996;;04 67 73 80 05;
447;ACCUEIL DE LOISIRS SS HÉBERGEMENT HÉRAULT;;ENFANT;;;ALSH les santolines Viols le fort;;43.7424485;3.7040333;;06 87 94 43 74;
448;ACCUEIL DE LOISIRS SS HÉBERGEMENT HÉRAULT;;ENFANT;;;ALSH municipal st jean de fos;;43.7000816;3.5536885999999996;alsh.saintjean34@hotmail.fr;04 67 29 99 72;
449;ACCUEIL DE LOISIRS SS HÉBERGEMENT HÉRAULT;;ENFANT;;;ALSH muncipal st Drezéry;;43.733889000000005;3.981963;;04 67 86 90 87;
450;ACCUEIL DE LOISIRS SS HÉBERGEMENT HÉRAULT;;ENFANT;;;ALSH municipal Sussargues;;43.7127355;4.0045918;;04 67 87 42 70;
451;ACCUEIL DE LOISIRS SS HÉBERGEMENT HÉRAULT;;ENFANT;;;ALSH municipal Lunel (maternelle);;43.6704367;4.1260303;alsh.lunel@paysdelunel.fr;04 99 51 69 44;alsh.paysdelunel.fr
452;ACCUEIL DE LOISIRS SS HÉBERGEMENT HÉRAULT;;ENFANT;;;ALSH municipal Lunel (élementaire);;43.6761474;4.1300876;alsh.lunel@paysdelunel.fr;04 99 51 69 44;alsh.paysdelunel.fr
453;ACCUEIL DE LOISIRS SS HÉBERGEMENT HÉRAULT;;ENFANT;;;ALSH  municipal Lunel viel;;43.6763225;4.0934807;alsh.lunelviel@paysdelunel.fr;07 63 23 10 07;
454;ACCUEIL DE LOISIRS SS HÉBERGEMENT HÉRAULT;;ENFANT;;;ALSH municipal Vendemian;;43.58103079999999;3.5617242;alsh-vendemian@hotmail.fr;04 67 88 76 51;
455;ACCUEIL DE LOISIRS SS HÉBERGEMENT HÉRAULT;;ENFANT;;;MDJ Cazouls les beziers;;43.393318;3.0969365;maison-des-jeunes7@wanadoo.fr;04 67 93 58 28;
456;ACCUEIL DE LOISIRS SS HÉBERGEMENT HÉRAULT;;ENFANT;;;MDJ Colombiers;;43.3129565;3.1413465;jeunessecolombiers@gmail.com;04 67 32 00 43;
457;ACCUEIL DE LOISIRS SS HÉBERGEMENT HÉRAULT;;ENFANT;;;ALSH  municipal Lespignan (primaire);;43.273275700000006;3.1698557999999997;lacardonilha@lespignan.fr;04 67 98 49 96;
458;ACCUEIL DE LOISIRS SS HÉBERGEMENT HÉRAULT;;ENFANT;;;ALSH municipal à Puisserguier Planète Lirou;;43.3674862;3.0516002999999996;centreloisirs@cc-sud-herault.fr;04 67 93 52 17;
459;ACCUEIL DE LOISIRS SS HÉBERGEMENT HÉRAULT;;ENFANT;;;ALSH municipal du libron Vias;;43.2901713;3.4084874;alsh@ville-vias.fr;04 67 21 50 15;
460;ACCUEIL DE LOISIRS SS HÉBERGEMENT HÉRAULT;;ENFANT;;;ALSH municipal Le Cyber Sète;;43.408747;3.6809358;;04 67 53 60 10;
461;ACCUEIL DE LOISIRS SS HÉBERGEMENT HÉRAULT;;ENFANT;;;ALSH  municipal Le Chateau Vert Sète;;43.4074462;3.6806171;;04 67 51 39 82;
462;ACCUEIL DE LOISIRS SS HÉBERGEMENT HÉRAULT;;ENFANT;;;ALSH municipal Le Vallon Sète;;43.4089861;3.6801784;;04 67 51 10 33;
