nom_commune_postal;code_postal;libelle_acheminement;latitude;longitude;nom_region
MONTPELLIER;34000;MONTPELLIER;43.6134409138;3.86851657896;Occitanie
MONTPELLIER;34070;MONTPELLIER;43.6134409138;3.86851657896;Occitanie
MONTPELLIER;34080;MONTPELLIER;43.6134409138;3.86851657896;Occitanie
MONTPELLIER;34090;MONTPELLIER;43.6134409138;3.86851657896;Occitanie
FRONTIGNAN;34110;FRONTIGNAN;43.4482458873;3.74923522416;Occitanie
FRONTIGNAN;34110;FRONTIGNAN;43.4482458873;3.74923522416;Occitanie
MIREVAL;34110;MIREVAL;43.5170572388;3.80306531824;Occitanie
VIC LA GARDIOLE;34110;VIC LA GARDIOLE;43.4862693496;3.80342869911;Occitanie
CASTELNAU DE GUERS;34120;CASTELNAU DE GUERS;43.4352029154;3.47130498268;Occitanie
CAZOULS D HERAULT;34120;CAZOULS D HERAULT;43.5018486169;3.45727466019;Occitanie
LEZIGNAN LA CEBE;34120;LEZIGNAN LA CEBE;43.4922078632;3.43960981956;Occitanie
NEZIGNAN L EVEQUE;34120;NEZIGNAN L EVEQUE;43.4214743639;3.4038201049;Occitanie
PEZENAS;34120;PEZENAS;43.462990168;3.41651652125;Occitanie
TOURBES;34120;TOURBES;43.4426128717;3.37325063166;Occitanie
CANDILLARGUES;34130;CANDILLARGUES;43.6184336518;4.06397943606;Occitanie
LANSARGUES;34130;LANSARGUES;43.6364436854;4.08270443666;Occitanie
MAUGUIO;34130;MAUGUIO;43.5928279472;4.00425693337;Occitanie
MUDAISON;34130;MUDAISON;43.6402176481;4.03634822151;Occitanie
ST AUNES;34130;ST AUNES;43.6349513822;3.96578818387;Occitanie
VALERGUES;34130;VALERGUES;43.67240395;4.05870783975;Occitanie
BOUZIGUES;34140;BOUZIGUES;43.4453207742;3.65707555068;Occitanie
LOUPIAN;34140;LOUPIAN;43.4494192218;3.62638267982;Occitanie
MEZE;34140;MEZE;43.4292981138;3.57774572973;Occitanie
ANIANE;34150;ANIANE;43.6835011433;3.59259437611;Occitanie
ARBORAS;34150;ARBORAS;43.7212717776;3.47409312363;Occitanie
LA BOISSIERE;34150;LA BOISSIERE;43.6543984294;3.64428863872;Occitanie
GIGNAC;34150;GIGNAC;43.6393937216;3.57384628868;Occitanie
LAGAMAS;34150;LAGAMAS;43.6745844077;3.5321562547;Occitanie
MONTPEYROUX;34150;MONTPEYROUX;43.711158125;3.50240555203;Occitanie
PUECHABON;34150;PUECHABON;43.7250949806;3.60615436685;Occitanie
ST GUILHEM LE DESERT;34150;ST GUILHEM LE DESERT;43.756664412;3.54505481445;Occitanie
ST JEAN DE FOS;34150;ST JEAN DE FOS;43.6938600875;3.5464221395;Occitanie
BEAULIEU;34160;BEAULIEU;43.7298984427;4.02118900985;Occitanie
BOISSERON;34160;BOISSERON;43.7523646952;4.07621075324;Occitanie
BUZIGNARGUES;34160;BUZIGNARGUES;43.771599327;3.99491070508;Occitanie
CAMPAGNE;34160;CAMPAGNE;43.7858302535;4.03449984137;Occitanie
CASTRIES;34160;CASTRIES;43.6886913473;3.97909849679;Occitanie
GALARGUES;34160;GALARGUES;43.7823313364;4.00782608796;Occitanie
GARRIGUES;34160;GARRIGUES;43.7983239512;4.01049087518;Occitanie
MONTAUD;34160;MONTAUD;43.7478625345;3.96019972895;Occitanie
RESTINCLIERES;34160;RESTINCLIERES;43.7241060431;4.04113886056;Occitanie
ST BAUZILLE DE MONTMEL;34160;ST BAUZILLE DE MONTMEL;43.776222742;3.95036124695;Occitanie
ST DREZERY;34160;ST DREZERY;43.7284558791;3.97774419373;Occitanie
ST GENIES DES MOURGUES;34160;ST GENIES DES MOURGUES;43.6972031545;4.03751252164;Occitanie
ST HILAIRE DE BEAUVOIR;34160;ST HILAIRE DE BEAUVOIR;43.7530311064;4.01945192332;Occitanie
ST JEAN DE CORNIES;34160;ST JEAN DE CORNIES;43.744776404;4.00334009324;Occitanie
SAUSSINES;34160;SAUSSINES;43.758954777;4.05038800559;Occitanie
SUSSARGUES;34160;SUSSARGUES;43.7090174126;3.99451003779;Occitanie
CASTELNAU LE LEZ;34170;CASTELNAU LE LEZ;43.6380218809;3.91265416028;Occitanie
AGONES;34190;AGONES;43.9010523591;3.72652630409;Occitanie
BRISSAC;34190;BRISSAC;43.8680305219;3.70509691756;Occitanie
CAZILHAC;34190;CAZILHAC;43.9181503248;3.69073251307;Occitanie
FERRIERES LES VERRERIES;34190;FERRIERES LES VERRERIES;43.8675537207;3.80028962389;Occitanie
GANGES;34190;GANGES;43.9457300618;3.70523816055;Occitanie
GORNIES;34190;GORNIES;43.8843569278;3.62462795605;Occitanie
LAROQUE;34190;LAROQUE;43.9256514661;3.73343293055;Occitanie
MONTOULIEU;34190;MONTOULIEU;43.919242211;3.80187206005;Occitanie
MOULES ET BAUCELS;34190;MOULES ET BAUCELS;43.9497259922;3.75555165229;Occitanie
ST ANDRE DE BUEGES;34190;ST ANDRE DE BUEGES;43.8538870813;3.64957493521;Occitanie
ST BAUZILLE DE PUTOIS;34190;ST BAUZILLE DE PUTOIS;43.9007200249;3.75901045062;Occitanie
ST MAURICE NAVACELLES;34190;ST MAURICE NAVACELLES;43.8448734239;3.5062650669;Occitanie
SETE;34200;SETE;43.3917705831;3.64705148296;Occitanie
AGEL;34210;AGEL;43.3482634234;2.85354795637;Occitanie
AIGNE;34210;AIGNE;43.3255517298;2.79308395136;Occitanie
AIGUES VIVES;34210;AIGUES VIVES;43.3476601284;2.82493400005;Occitanie
AZILLANET;34210;AZILLANET;43.3236122497;2.74504101895;Occitanie
BEAUFORT;34210;BEAUFORT;43.3040872042;2.76829342504;Occitanie
CASSAGNOLES;34210;CASSAGNOLES;43.3973278254;2.60178289175;Occitanie
LA CAUNETTE;34210;LA CAUNETTE;43.3674487312;2.78721523132;Occitanie
CESSERAS;34210;CESSERAS;43.3311589874;2.70406695025;Occitanie
FELINES MINERVOIS;34210;FELINES MINERVOIS;43.354036783;2.58187245659;Occitanie
FERRALS LES MONTAGNES;34210;FERRALS LES MONTAGNES;43.4188135877;2.6417753577;Occitanie
LA LIVINIERE;34210;LA LIVINIERE;43.3372267899;2.63272340257;Occitanie
MINERVE;34210;MINERVE;43.3629052396;2.72160547585;Occitanie
OLONZAC;34210;OLONZAC;43.2811329903;2.73729224863;Occitanie
OUPIA;34210;OUPIA;43.2886870933;2.77613204437;Occitanie
SIRAN;34210;SIRAN;43.3302941258;2.66325916558;Occitanie
BOISSET;34220;BOISSET;43.4017637442;2.69024605331;Occitanie
COURNIOU;34220;COURNIOU;43.489357501;2.69325210308;Occitanie
RIEUSSEC;34220;RIEUSSEC;43.4221214711;2.73234133546;Occitanie
RIOLS;34220;RIOLS;43.5020076583;2.7978815483;Occitanie
ST PONS DE THOMIERES;34220;ST PONS DE THOMIERES;43.4788345407;2.74852691953;Occitanie
VELIEUX;34220;VELIEUX;43.3902090063;2.74495377415;Occitanie
VERRERIES DE MOUSSANS;34220;VERRERIES DE MOUSSANS;43.4493841395;2.67914780973;Occitanie
ADISSAN;34230;ADISSAN;43.535473519;3.42608475989;Occitanie
AUMELAS;34230;AUMELAS;43.5777908844;3.61727878859;Occitanie
BELARGA;34230;BELARGA;43.5541458971;3.50006172125;Occitanie
CAMPAGNAN;34230;CAMPAGNAN;43.5407744121;3.49239234848;Occitanie
PAULHAN;34230;PAULHAN;43.5382461437;3.45878001705;Occitanie
PLAISSAN;34230;PLAISSAN;43.5590614886;3.52978704961;Occitanie
POPIAN;34230;POPIAN;43.6241428585;3.53329416559;Occitanie
LE POUGET;34230;LE POUGET;43.5925476738;3.51727150563;Occitanie
POUZOLS;34230;POUZOLS;43.6204813753;3.50913792041;Occitanie
PUILACHER;34230;PUILACHER;43.5667592874;3.50438177235;Occitanie
ST BAUZILLE DE LA SYLVE;34230;ST BAUZILLE DE LA SYLVE;43.6102378186;3.55875643759;Occitanie
ST PARGOIRE;34230;ST PARGOIRE;43.5312864116;3.54356674694;Occitanie
ST PONS DE MAUCHIENS;34230;ST PONS DE MAUCHIENS;43.5093525294;3.51237930309;Occitanie
TRESSAN;34230;TRESSAN;43.5728727057;3.48660359956;Occitanie
USCLAS D HERAULT;34230;USCLAS D HERAULT;43.5218019107;3.46731273264;Occitanie
VENDEMIAN;34230;VENDEMIAN;43.5790567885;3.56253401848;Occitanie
COMBES;34240;COMBES;43.602411245;3.0476220061;Occitanie
LAMALOU LES BAINS;34240;LAMALOU LES BAINS;43.5964619142;3.08445405222;Occitanie
PALAVAS LES FLOTS;34250;PALAVAS LES FLOTS;43.533536456;3.92620839566;Occitanie
AVENE;34260;AVENE;43.7483953944;3.10467542388;Occitanie
LE BOUSQUET D ORB;34260;LE BOUSQUET D ORB;43.7025373477;3.15150280873;Occitanie
CAMPLONG;34260;CAMPLONG;43.6898005202;3.11179486832;Occitanie
CEILHES ET ROCOZELS;34260;CEILHES ET ROCOZELS;43.809322318;3.09184232431;Occitanie
GRAISSESSAC;34260;GRAISSESSAC;43.6862996463;3.08522636762;Occitanie
ST ETIENNE ESTRECHOUX;34260;ST ETIENNE ESTRECHOUX;43.6605180139;3.10431751286;Occitanie
LA TOUR SUR ORB;34260;LA TOUR SUR ORB;43.6555250797;3.15144431615;Occitanie
CAZEVIEILLE;34270;CAZEVIEILLE;43.7640929334;3.79487938999;Occitanie
CLARET;34270;CLARET;43.8572510508;3.87648647293;Occitanie
FONTANES;34270;FONTANES;43.7944026303;3.91839771103;Occitanie
LAURET;34270;LAURET;43.8313701737;3.88187587;Occitanie
LES MATELLES;34270;LES MATELLES;43.7279155498;3.8068218202;Occitanie
STE CROIX DE QUINTILLARGUES;34270;STE CROIX DE QUINTILLARGUES;43.7680759693;3.91047320364;Occitanie
ST JEAN DE CUCULLES;34270;ST JEAN DE CUCULLES;43.7516512162;3.83370653974;Occitanie
ST MATHIEU DE TREVIERS;34270;ST MATHIEU DE TREVIERS;43.7692073898;3.87002027505;Occitanie
SAUTEYRARGUES;34270;SAUTEYRARGUES;43.830914793;3.91858398089;Occitanie
LE TRIADOU;34270;LE TRIADOU;43.7367810666;3.85739515015;Occitanie
VACQUIERES;34270;VACQUIERES;43.828951354;3.95059092593;Occitanie
VALFLAUNES;34270;VALFLAUNES;43.8020094105;3.86188285063;Occitanie
MAUGUIO;34280;MAUGUIO;43.5928279472;4.00425693337;Occitanie
LA GRANDE MOTTE;34280;LA GRANDE MOTTE;43.5685394142;4.0758328467;Occitanie
ABEILHAN;34290;ABEILHAN;43.4575019905;3.29923508306;Occitanie
ALIGNAN DU VENT;34290;ALIGNAN DU VENT;43.4688122746;3.33925724714;Occitanie
BASSAN;34290;BASSAN;43.4084026514;3.2545400418;Occitanie
COULOBRES;34290;COULOBRES;43.4507697404;3.27495989155;Occitanie
ESPONDEILHAN;34290;ESPONDEILHAN;43.4372418767;3.25795790915;Occitanie
LIEURAN LES BEZIERS;34290;LIEURAN LES BEZIERS;43.4122997013;3.23066232037;Occitanie
MONTBLANC;34290;MONTBLANC;43.3707718036;3.35755094036;Occitanie
SERVIAN;34290;SERVIAN;43.4143351267;3.30645261407;Occitanie
VALROS;34290;VALROS;43.419189427;3.36141259687;Occitanie
AGDE;34300;AGDE;43.309129116;3.48447903133;Occitanie
AGDE;34300;AGDE;43.309129116;3.48447903133;Occitanie
CAPESTANG;34310;CAPESTANG;43.3217608814;3.04813542922;Occitanie
CRUZY;34310;CRUZY;43.3518501139;2.93451082669;Occitanie
MONTADY;34310;MONTADY;43.3285047609;3.11398724899;Occitanie
MONTELS;34310;MONTELS;43.2896268975;3.02567631465;Occitanie
MONTOULIERS;34310;MONTOULIERS;43.3353694214;2.90623639932;Occitanie
POILHES;34310;POILHES;43.3045807211;3.08955688711;Occitanie
QUARANTE;34310;QUARANTE;43.3507961482;2.980712669;Occitanie
FONTES;34320;FONTES;43.5419967541;3.39026556007;Occitanie
FOS;34320;FOS;43.5681193831;3.24200444843;Occitanie
GABIAN;34320;GABIAN;43.5181480219;3.26449755932;Occitanie
MARGON;34320;MARGON;43.4864901755;3.30406918161;Occitanie
MONTESQUIEU;34320;MONTESQUIEU;43.5621026684;3.27145529278;Occitanie
NEFFIES;34320;NEFFIES;43.5393423873;3.33354409395;Occitanie
NIZAS;34320;NIZAS;43.5137142122;3.41956425429;Occitanie
ROQUESSELS;34320;ROQUESSELS;43.5504361002;3.22634826627;Occitanie
ROUJAN;34320;ROUJAN;43.5109460252;3.30936586252;Occitanie
VAILHAN;34320;VAILHAN;43.5542014743;3.29989404644;Occitanie
CAMBON ET SALVERGUES;34330;CAMBON ET SALVERGUES;43.625504452;2.89047084983;Occitanie
FRAISSE SUR AGOUT;34330;FRAISSE SUR AGOUT;43.5926354982;2.79705531131;Occitanie
LA SALVETAT SUR AGOUT;34330;LA SALVETAT SUR AGOUT;43.6021759228;2.68705591152;Occitanie
LE SOULIE;34330;LE SOULIE;43.5430961388;2.68991254335;Occitanie
MARSEILLAN;34340;MARSEILLAN;43.3605776007;3.54718963761;Occitanie
MARSEILLAN;34340;MARSEILLAN;43.3605776007;3.54718963761;Occitanie
VALRAS PLAGE;34350;VALRAS PLAGE;43.2476112282;3.28929431362;Occitanie
VENDRES;34350;VENDRES;43.2581519414;3.22720260244;Occitanie
ASSIGNAN;34360;ASSIGNAN;43.3998665892;2.8868499773;Occitanie
BABEAU BOULDOUX;34360;BABEAU BOULDOUX;43.4382106135;2.89298078323;Occitanie
BERLOU;34360;BERLOU;43.4985990248;2.94998951427;Occitanie
CEBAZAN;34360;CEBAZAN;43.4057714323;2.98753544728;Occitanie
FERRIERES POUSSAROU;34360;FERRIERES POUSSAROU;43.4833450309;2.903540512;Occitanie
PARDAILHAN;34360;PARDAILHAN;43.4450155578;2.83724812939;Occitanie
PIERRERUE;34360;PIERRERUE;43.4408898427;2.96353265776;Occitanie
PRADES SUR VERNAZOBRE;34360;PRADES SUR VERNAZOBRE;43.4587254561;2.97637908047;Occitanie
ST CHINIAN;34360;ST CHINIAN;43.4211029335;2.93138227583;Occitanie
ST JEAN DE MINERVOIS;34360;ST JEAN DE MINERVOIS;43.3998259676;2.8186318647;Occitanie
VILLESPASSANS;34360;VILLESPASSANS;43.3817686884;2.91141941594;Occitanie
CAZOULS LES BEZIERS;34370;CAZOULS LES BEZIERS;43.3976310061;3.09968408339;Occitanie
CREISSAN;34370;CREISSAN;43.3771624265;2.99976062143;Occitanie
MARAUSSAN;34370;MARAUSSAN;43.370567073;3.1537894615;Occitanie
MAUREILHAN;34370;MAUREILHAN;43.3515394407;3.10170846517;Occitanie
ARGELLIERS;34380;ARGELLIERS;43.7249523063;3.67420720253;Occitanie
CAUSSE DE LA SELLE;34380;CAUSSE DE LA SELLE;43.793318405;3.62922803202;Occitanie
MAS DE LONDRES;34380;MAS DE LONDRES;43.7875830947;3.77381385903;Occitanie
NOTRE DAME DE LONDRES;34380;NOTRE DAME DE LONDRES;43.8324773443;3.75718423369;Occitanie
PEGAIROLLES DE BUEGES;34380;PEGAIROLLES DE BUEGES;43.8051515536;3.57590546556;Occitanie
ROUET;34380;LE ROUET;43.8258792958;3.81594115677;Occitanie
ST JEAN DE BUEGES;34380;ST JEAN DE BUEGES;43.8341627793;3.60534795017;Occitanie
ST MARTIN DE LONDRES;34380;ST MARTIN DE LONDRES;43.7926372953;3.70749671559;Occitanie
VIOLS EN LAVAL;34380;VIOLS EN LAVAL;43.7448968901;3.74026730313;Occitanie
VIOLS LE FORT;34380;VIOLS LE FORT;43.7367573026;3.69220324597;Occitanie
COLOMBIERES SUR ORB;34390;COLOMBIERES SUR ORB;43.5853145564;3.01084654208;Occitanie
MONS;34390;MONS;43.5698246812;2.96307448549;Occitanie
OLARGUES;34390;OLARGUES;43.540135455;2.91772316116;Occitanie
PREMIAN;34390;PREMIAN;43.5395150426;2.82265477;Occitanie
ST ETIENNE D ALBAGNAN;34390;ST ETIENNE D ALBAGNAN;43.5283591648;2.86528483537;Occitanie
ST JULIEN;34390;ST JULIEN;43.5848869061;2.9022163453;Occitanie
ST MARTIN DE L ARCON;34390;ST MARTIN DE L ARCON;43.5800016675;2.98506078379;Occitanie
ST VINCENT D OLARGUES;34390;ST VINCENT D OLARGUES;43.5598159229;2.8730344645;Occitanie
VIEUSSAN;34390;VIEUSSAN;43.5401854893;3.00065269263;Occitanie
LUNEL;34400;LUNEL;43.6820481757;4.13566472301;Occitanie
LUNEL VIEL;34400;LUNEL VIEL;43.6826642395;4.08422296335;Occitanie
ST CHRISTOL;34400;ST CHRISTOL;43.7236376937;4.07222709677;Occitanie
ST JUST;34400;ST JUST;43.6561845666;4.1118455055;Occitanie
ST NAZAIRE DE PEZAN;34400;ST NAZAIRE DE PEZAN;43.6351201941;4.11706198292;Occitanie
ST SERIES;34400;ST SERIES;43.7355275594;4.1049570212;Occitanie
SATURARGUES;34400;SATURARGUES;43.7142810482;4.11714344824;Occitanie
VERARGUES;34400;VERARGUES;43.708930199;4.09292324004;Occitanie
VILLETELLE;34400;VILLETELLE;43.7241089039;4.1368883121;Occitanie
SAUVIAN;34410;SAUVIAN;43.2910373806;3.25406479284;Occitanie
SERIGNAN;34410;SERIGNAN;43.2733185307;3.29725083254;Occitanie
CERS;34420;CERS;43.3302709569;3.31729573152;Occitanie
PORTIRAGNES;34420;PORTIRAGNES;43.301736727;3.3476310741;Occitanie
VILLENEUVE LES BEZIERS;34420;VILLENEUVE LES BEZIERS;43.3172489997;3.28958494349;Occitanie
ST JEAN DE VEDAS;34430;ST JEAN DE VEDAS;43.5716282319;3.83221847952;Occitanie
COLOMBIERS;34440;COLOMBIERS;43.3154427074;3.14408489609;Occitanie
NISSAN LEZ ENSERUNE;34440;NISSAN LEZ ENSERUNE;43.2811833354;3.11227016;Occitanie
VIAS;34450;VIAS;43.3131142636;3.39889710362;Occitanie
CAZEDARNES;34460;CAZEDARNES;43.4234094585;3.0282977991;Occitanie
CESSENON SUR ORB;34460;CESSENON SUR ORB;43.454255953;3.04105685842;Occitanie
ROQUEBRUN;34460;ROQUEBRUN;43.5055301367;3.01020767963;Occitanie
PEROLS;34470;PEROLS;43.5606642689;3.95175708518;Occitanie
AUTIGNAC;34480;AUTIGNAC;43.4997194171;3.16767512449;Occitanie
CABREROLLES;34480;CABREROLLES;43.5347800126;3.12207083233;Occitanie
FOUZILHON;34480;FOUZILHON;43.5057316875;3.23717233184;Occitanie
LAURENS;34480;LAURENS;43.5218394157;3.1996305574;Occitanie
MAGALAS;34480;MAGALAS;43.4808688877;3.21744589266;Occitanie
POUZOLLES;34480;POUZOLLES;43.4790289284;3.27343526543;Occitanie
PUIMISSON;34480;PUIMISSON;43.4378848969;3.20792607822;Occitanie
PUISSALICON;34480;PUISSALICON;43.4539009157;3.23775688397;Occitanie
ST GENIES DE FONTEDIT;34480;ST GENIES DE FONTEDIT;43.4689118509;3.17497763189;Occitanie
CAUSSES ET VEYRAN;34490;CAUSSES ET VEYRAN;43.4679658506;3.09140817523;Occitanie
CORNEILHAN;34490;CORNEILHAN;43.4019158731;3.19646909988;Occitanie
LIGNAN SUR ORB;34490;LIGNAN SUR ORB;43.382486634;3.17270457784;Occitanie
MURVIEL LES BEZIERS;34490;MURVIEL LES BEZIERS;43.4576685107;3.13592247665;Occitanie
PAILHES;34490;PAILHES;43.4371324494;3.18478770413;Occitanie
ST NAZAIRE DE LADAREZ;34490;ST NAZAIRE DE LADAREZ;43.5174613218;3.08019366504;Occitanie
THEZAN LES BEZIERS;34490;THEZAN LES BEZIERS;43.4132925116;3.15810877475;Occitanie
BEZIERS;34500;BEZIERS;43.3475883319;3.23076754164;Occitanie
VILLENEUVE LES BEZIERS;34500;VILLENEUVE LES BEZIERS;43.3172489997;3.28958494349;Occitanie
FLORENSAC;34510;FLORENSAC;43.3858472782;3.4638416795;Occitanie
LE CAYLAR;34520;LE CAYLAR;43.8716890931;3.31157473989;Occitanie
LE CROS;34520;LE CROS;43.8802736977;3.36304927943;Occitanie
LES RIVES;34520;LES RIVES;43.8557506126;3.26405102266;Occitanie
ST FELIX DE L HERAS;34520;ST FELIX DE L HERAS;43.8393766952;3.31453583361;Occitanie
ST MAURICE NAVACELLES;34520;ST MAURICE NAVACELLES;43.8448734239;3.5062650669;Occitanie
ST MICHEL;34520;ST MICHEL;43.8408209485;3.40636511329;Occitanie
ST PIERRE DE LA FAGE;34520;ST PIERRE DE LA FAGE;43.7942818756;3.42249252339;Occitanie
SORBS;34520;SORBS;43.8909610556;3.40642995016;Occitanie
LA VACQUERIE ET ST MARTIN DE CASTRIES;34520;LA VACQUERIE ST MARTIN CASTRIES;43.7940763777;3.481075382;Occitanie
AUMES;34530;AUMES;43.4638784757;3.46993966613;Occitanie
MONTAGNAC;34530;MONTAGNAC;43.4745284586;3.51074216978;Occitanie
BALARUC LES BAINS;34540;BALARUC LES BAINS;43.4469007065;3.69072086799;Occitanie
BALARUC LE VIEUX;34540;BALARUC LE VIEUX;43.4659799669;3.69713367505;Occitanie
BESSAN;34550;BESSAN;43.3569862701;3.41660408543;Occitanie
MONTBAZIN;34560;MONTBAZIN;43.5327997823;3.67193055324;Occitanie
POUSSAN;34560;POUSSAN;43.4938682747;3.66060526328;Occitanie
VILLEVEYRAC;34560;VILLEVEYRAC;43.5001280333;3.59372946669;Occitanie
MONTARNAUD;34570;MONTARNAUD;43.6470278582;3.69970280024;Occitanie
MURVIEL LES MONTPELLIER;34570;MURVIEL LES MONTPELLIER;43.6095675101;3.73935842429;Occitanie
PIGNAN;34570;PIGNAN;43.5855297709;3.74922617626;Occitanie
ST PAUL ET VALMALLE;34570;ST PAUL ET VALMALLE;43.6147377182;3.67925764242;Occitanie
SAUSSAN;34570;SAUSSAN;43.569013259;3.78095911379;Occitanie
VAILHAUQUES;34570;VAILHAUQUES;43.6641779009;3.72842619012;Occitanie
MARSILLARGUES;34590;MARSILLARGUES;43.6268280772;4.14781957357;Occitanie
LES AIRES;34600;LES AIRES;43.5695523361;3.07138973209;Occitanie
BEDARIEUX;34600;BEDARIEUX;43.6125569074;3.16680787195;Occitanie
CARLENCAS ET LEVAS;34600;CARLENCAS ET LEVAS;43.6298590815;3.22034291707;Occitanie
CAUSSINIOJOULS;34600;CAUSSINIOJOULS;43.5484030335;3.15563201931;Occitanie
FAUGERES;34600;FAUGERES;43.5687652177;3.18349121003;Occitanie
HEREPIAN;34600;HEREPIAN;43.591789169;3.11770187761;Occitanie
PEZENES LES MINES;34600;PEZENES LES MINES;43.5990802709;3.24486558872;Occitanie
LE POUJOL SUR ORB;34600;LE POUJOL SUR ORB;43.5830682965;3.05437993033;Occitanie
LE PRADAL;34600;LE PRADAL;43.6331733126;3.09603125078;Occitanie
TAUSSAC LA BILLIERE;34600;TAUSSAC LA BILLIERE;43.6330025046;3.07651674533;Occitanie
VILLEMAGNE L ARGENTIERE;34600;VILLEMAGNE L ARGENTIERE;43.6189067153;3.12143240976;Occitanie
CASTANET LE HAUT;34610;CASTANET LE HAUT;43.6738023402;2.95490649454;Occitanie
ROSIS;34610;ROSIS;43.6281696619;2.99215452371;Occitanie
ST GENIES DE VARENSAL;34610;ST GENIES DE VARENSAL;43.6879655757;3.00291654936;Occitanie
ST GENIES DE VARENSAL;34610;ST GENIES DE VARENSAL;43.6879655757;3.00291654936;Occitanie
ST GERVAIS SUR MARE;34610;ST GERVAIS SUR MARE;43.6671393403;3.0497555288;Occitanie
PUISSERGUIER;34620;PUISSERGUIER;43.3772339365;3.04590546447;Occitanie
ST THIBERY;34630;ST THIBERY;43.3927611076;3.4008093198;Occitanie
BRENAS;34650;BRENAS;43.6412617949;3.25359817589;Occitanie
DIO ET VALQUIERES;34650;DIO ET VALQUIERES;43.6690497036;3.22101697098;Occitanie
JONCELS;34650;JONCELS;43.7662193916;3.18310096799;Occitanie
LUNAS;34650;LUNAS;43.7089785299;3.20607492455;Occitanie
ROMIGUIERES;34650;ROMIGUIERES;43.8174606939;3.23863631035;Occitanie
ROQUEREDONDE;34650;ROQUEREDONDE;43.7962962251;3.20797377545;Occitanie
COURNONSEC;34660;COURNONSEC;43.5404276115;3.70276147936;Occitanie
COURNONTERRAL;34660;COURNONTERRAL;43.5694241257;3.70642853592;Occitanie
BAILLARGUES;34670;BAILLARGUES;43.6581051757;4.01030491176;Occitanie
ST BRES;34670;ST BRES;43.6665945893;4.03794071375;Occitanie
ST GEORGES D ORQUES;34680;ST GEORGES D ORQUES;43.6168353652;3.77376629814;Occitanie
FABREGUES;34690;FABREGUES;43.5344767016;3.77192951891;Occitanie
LE BOSC;34700;LE BOSC;43.6957752498;3.38710687452;Occitanie
CELLES;34700;CELLES;43.6663640232;3.35967873955;Occitanie
FOZIERES;34700;FOZIERES;43.7508754164;3.35595982822;Occitanie
LAUROUX;34700;LAUROUX;43.7915234446;3.27831492551;Occitanie
LAVALETTE;34700;LAVALETTE;43.6926559892;3.27139234301;Occitanie
LODEVE;34700;LODEVE;43.7307354901;3.30567667879;Occitanie
OLMET ET VILLECUN;34700;OLMET ET VILLECUN;43.7080042614;3.29790307096;Occitanie
PEGAIROLLES DE L ESCALETTE;34700;PEGAIROLLES DE L ESCALETTE;43.8129638311;3.33457368813;Occitanie
LES PLANS;34700;LES PLANS;43.7561210421;3.26564672986;Occitanie
POUJOLS;34700;POUJOLS;43.7720254249;3.3186584195;Occitanie
LE PUECH;34700;LE PUECH;43.6831429742;3.32501216649;Occitanie
ST ETIENNE DE GOURGAS;34700;ST ETIENNE DE GOURGAS;43.7836963728;3.38499935958;Occitanie
ST JEAN DE LA BLAQUIERE;34700;ST JEAN DE LA BLAQUIERE;43.7101712397;3.42987273184;Occitanie
ST PRIVAT;34700;ST PRIVAT;43.7510304618;3.43193440263;Occitanie
SOUBES;34700;SOUBES;43.7796056987;3.35201368511;Occitanie
SOUMONT;34700;SOUMONT;43.7254656283;3.34970945877;Occitanie
USCLAS DU BOSC;34700;USCLAS DU BOSC;43.7281811066;3.39872803324;Occitanie
LESPIGNAN;34710;LESPIGNAN;43.2737109255;3.16982256617;Occitanie
CAUX;34720;CAUX;43.5044671037;3.36827222924;Occitanie
JONQUIERES;34725;JONQUIERES;43.673901625;3.47813467686;Occitanie
ST ANDRE DE SANGONIS;34725;ST ANDRE DE SANGONIS;43.6502281651;3.50287642429;Occitanie
ST FELIX DE LODEZ;34725;ST FELIX DE LODEZ;43.6608409227;3.46889642638;Occitanie
ST GUIRAUD;34725;ST GUIRAUD;43.6784032786;3.45134218605;Occitanie
ST SATURNIN DE LUCIAN;34725;ST SATURNIN DE LUCIAN;43.7020641243;3.46562017139;Occitanie
PRADES LE LEZ;34730;PRADES LE LEZ;43.7072541597;3.86489213915;Occitanie
ST VINCENT DE BARBEYRARGUES;34730;ST VINCENT DE BARBEYRARGUES;43.7107487308;3.87689704795;Occitanie
VENDARGUES;34740;VENDARGUES;43.6610457488;3.96283033113;Occitanie
VILLENEUVE LES MAGUELONE;34750;VILLENEUVE LES MAGUELONE;43.5249723481;3.85846205367;Occitanie
BOUJAN SUR LIBRON;34760;BOUJAN SUR LIBRON;43.3803202017;3.26313194789;Occitanie
GIGEAN;34770;GIGEAN;43.4940932526;3.72353998798;Occitanie
GRABELS;34790;GRABELS;43.6507076799;3.79423262021;Occitanie
ASPIRAN;34800;ASPIRAN;43.5672233099;3.4481611939;Occitanie
BRIGNAC;34800;BRIGNAC;43.6219841604;3.47081573374;Occitanie
CABRIERES;34800;CABRIERES;43.5777973112;3.34800607563;Occitanie
CANET;34800;CANET;43.5983184879;3.48279950593;Occitanie
CEYRAS;34800;CEYRAS;43.6499208195;3.45967930935;Occitanie
CLERMONT L HERAULT;34800;CLERMONT L HERAULT;43.6338885209;3.41317415682;Occitanie
LACOSTE;34800;LACOSTE;43.6572095085;3.42316601881;Occitanie
LIAUSSON;34800;LIAUSSON;43.6402749752;3.36044063892;Occitanie
LIEURAN CABRIERES;34800;LIEURAN CABRIERES;43.5916311464;3.40878385733;Occitanie
MERIFONS;34800;MERIFONS;43.6355182849;3.28015799164;Occitanie
MOUREZE;34800;MOUREZE;43.6156849322;3.35101426907;Occitanie
NEBIAN;34800;NEBIAN;43.5995432245;3.43678111885;Occitanie
OCTON;34800;OCTON;43.6574397146;3.29580652136;Occitanie
PERET;34800;PERET;43.5749250914;3.39831770364;Occitanie
SALASC;34800;SALASC;43.6220930985;3.31240348008;Occitanie
VALMASCLE;34800;VALMASCLE;43.6001846206;3.2999967216;Occitanie
VILLENEUVETTE;34800;VILLENEUVETTE;43.6102089011;3.40077488317;Occitanie
POMEROLS;34810;POMEROLS;43.3966621859;3.51470119674;Occitanie
ASSAS;34820;ASSAS;43.7104129973;3.89790490064;Occitanie
GUZARGUES;34820;GUZARGUES;43.7292469184;3.9239639392;Occitanie
TEYRAN;34820;TEYRAN;43.6849602174;3.92844546049;Occitanie
CLAPIERS;34830;CLAPIERS;43.6620192267;3.88689748204;Occitanie
JACOU;34830;JACOU;43.6629846943;3.9119610777;Occitanie
PINET;34850;PINET;43.4090371213;3.51249503942;Occitanie
LAVERUNE;34880;LAVERUNE;43.5848099789;3.80168949969;Occitanie
LE CRES;34920;LE CRES;43.6540978695;3.93608851243;Occitanie
LATTES;34970;LATTES;43.5638594056;3.90226222861;Occitanie
COMBAILLAUX;34980;COMBAILLAUX;43.6724651023;3.77949432527;Occitanie
MONTFERRIER SUR LEZ;34980;MONTFERRIER SUR LEZ;43.6690783518;3.86408542938;Occitanie
MURLES;34980;MURLES;43.7017303603;3.75723604182;Occitanie
ST CLEMENT DE RIVIERE;34980;ST CLEMENT DE RIVIERE;43.6860686936;3.84318936676;Occitanie
ST GELY DU FESC;34980;ST GELY DU FESC;43.6896523672;3.80969577473;Occitanie
JUVIGNAC;34990;JUVIGNAC;43.6237646402;3.79579375182;Occitanie