,Unnamed: 0,SECTEUR,SOUS-SECTEUR,CIBLE,AGE-MIN,AGE-MAX,NOM,ADRESSE,LATITUDE,LONGITUDE,MAIL,TELEPHONE,LIEN,Longitude,Latitude,Adresse
0,0,SANITAIRE,,ENFANT,,,CAMSP DE BEZIERS,CENTRE EDUCATIF ET MEDICAL AVENUE DE MONSEIGNEUR COSTE 34500 BEZIERS,,,,04 67 30 43 21,,3.251712,43.34269,"Avenue Monseigneur Coste, 34500 Béziers"
1,1,SANITAIRE,,ENFANT,,,CAMSP DE MONTPELLIER / LUNEL,HOPITAL ST ELOI - 80 AVENUE AUGUSTIN FLICHE 34295 MONTPELLIER,,,,04 67 33 68 63,,3.861329,43.629624,"80 Avenue Augustin Fliche, 34090 Montpellier"
2,2,SANITAIRE,,ENFANT,,,CAMSP EQUINOXE - SETE,"62, BOULEVARD CAMILLE BLANC 34200 SETE",,,,04 67 18 56 01,,3.666941,43.407307,"62 Boulevard Camille Blanc, 34200 Sète"
3,3,SANITAIRE,,ENFANT,,,CMPP DE BEZIERS,CENTRE EDUCATIF ET MEDICAL AVENUE DE MONSEIGNEUR COSTE 34500 BEZIERS,,,,04 99 43 00 17,,3.251712,43.34269,"Avenue Monseigneur Coste, 34500 Béziers"
4,4,SANITAIRE,,ENFANT,,,CMPP DE SETE,"VILLA MALIBRAN  441 BIS, CHEMIN DES CARRIERES 34200 SETE",,,,04 67 53 16 22,,3.670864,43.3973,"441 b Chemin des Carrieres, 34200 Sète"
5,5,ÉTABLISSEMENTS,,ENFANT,,,CMPP MARCEL FOUCAULT,"RESIDENCE LE DIAMANT - BATIMENT B  419, RUE LEON BLUM 34000 MONTPELLIER",,,,04 67 61 08 20,,3.890873,43.609875,"Rue Léon Blum, 34000 Montpellier"
6,6,ÉTABLISSEMENTS,,ENFANT,,,CMPP MARCEL FOUCAULT - LUNEL,450 AVENUE DES ABRIVADOS 34400 LUNEL,,,,04 99 54 90 10,,4.1282,43.669302,"450 Avenue des Abrivados, 34400 Lunel"
7,7,ÉTABLISSEMENTS,,ENFANT,,,CMPP PAYS COEUR DHERAULT,"230, AVENUE DU MAS SALAT 34150 GIGNAC",,,,04 67 12 81 92,,3.544416,43.657855,"Avenue du Mas Salat, 34150 Gignac"
8,8,ÉTABLISSEMENTS,,ENFANT,,,IME DU CENTRE MEDICAL ET EDUCATIF DE LENFANCE FONTCAUDE,"70, RUE TIPASA 34080 MONTPELLIER",,,,04 67 10 23 00,,3.816671,43.629068,"70 Rue de Tipasa, 34080 Montpellier"
9,9,ÉTABLISSEMENTS,,ENFANT,,,IME DU CHATEAU DO,"2359, AVENUE DU PERE SOULAS 34094 MONTPELLIER CEDEX 5",,,,04 67 63 18 92,,3.844616,43.629154,"2359 Avenue du Père Soulas, 34090 Montpellier"
10,10,ÉTABLISSEMENTS,,ENFANT,,,IME INSTITUT RAYMOND FAGES,CHEMIN RAYMOND FAGES 34300 AGDE,,,,04 67 01 05 20,,3.483299,43.295653,"Chemin Raymond Fages, 34300 Agde"
11,11,ÉTABLISSEMENTS,,ENFANT,,,IME INSTITUT SAINT HILAIRE,12 AVENUE ALEXANDRE LAVAL 34510 FLORENSAC,,,,04 67 77 00 01,,3.463445,43.385579,"12 Avenue Alexandre Laval, 34510 Florensac"
12,12,ÉTABLISSEMENTS,,ENFANT,,,IME LENSOLEILLADE,55 AVENUE DE MONTPELLIER  - BP 52 34725 SAINT ANDRE DE SANGONIS,,,,04 67 57 00 46,,3.508205,43.6504,"55 Avenue de Montpellier, 34725 Saint-André-de-Sangonis"
13,13,ÉTABLISSEMENTS,,ENFANT,,,IME LA CORNICHE,"16 BIS, BOULEVARD JOLIOT CURIE 34200 SETE",,,,04 67 51 28 29,,3.670316,43.395983,"16 bis Boulevard Joliot Curie, 34200 Sète"
14,14,ÉTABLISSEMENTS,,ENFANT,,,IME LA MAISON DE SOLN,"18, AVENUE DE LA GARE 34440 NISSAN LEZ ENSERUNE",,,,04 67 11 85 20,,3.125902,43.291159,"18 Avenue de la Gare, 34440 Nissan-lez-Enserune"
15,15,ÉTABLISSEMENTS,,ENFANT,,,IME LA PINEDE,AVENUE CYPRIEN OLIVIER 34830 JACOU,,,,04 67 59 11 78,,3.908847,43.663701,"Avenue Cyprien Olivier, 34830 Jacou"
16,16,ÉTABLISSEMENTS,,ENFANT,,,IME LES HIRONDELLES,"11, AVENUE DU STADE 34410 SAUVIAN",,,,04 67 32 19 06,,3.254113,43.29258,"11 Avenue du Stade, 34410 Sauvian"
17,17,ÉTABLISSEMENTS,,ENFANT,,,IME LES HIRONDELLES PAYS DE THAU,RUE DES LIERLES CS 97001 34115 FRONTIGNAN CEDEX,,,,04 67 46 62 38,,3.727621,43.427074,"Rue des Lierles, 34110 Frontignan"
18,18,ÉTABLISSEMENTS,,ENFANT,,,IME LES MURIERS,"1804, AVENUE DU PERE SOULAS 34090 MONTPELLIER",,,,04 67 63 13 48,,3.84971,43.625814,"1804 Avenue du Père Soulas, 34090 Montpellier"
19,19,ÉTABLISSEMENTS,,ENFANT,,,IME LES OLIVIERS,"695, RUE DES BOUISSES 34070 MONTPELLIER",,,,04 67 13 23 40,,3.833702,43.601975,"695 Rue des Bouisses, 34070 Montpellier"
20,20,ÉTABLISSEMENTS,,ENFANT,,,IME LES PESCALUNES,111 RUE DES NEFLIERS 34400 LUNEL,,,,04 67 83 87 57,,4.12442,43.688296,"111 Rue des Nefliers, 34400 Lunel"
21,21,ÉTABLISSEMENTS,,ENFANT,,,IME NOTRE DAME DE LA SALETTE,"2, RUE DU PUECH DU FOUR - BP 34 34600 BEDARIEUX",,,,04 67 95 59 05,,3.160379,43.613446,"2 Rue Puech du Four, 34600 Bédarieux"
22,22,ÉTABLISSEMENTS,,ENFANT,,,ITEP CENTRE BOURNEVILLE,"120, RUE DU MAS PRUNET 34070 MONTPELLIER",,,,04 67 42 43 66,,3.833975,43.599346,"120 Rue du Mas de Prunet, 34070 Montpellier"
23,23,ÉTABLISSEMENTS,,ENFANT,,,ITEP INSTITUT CAMPESTRE,"1120, ROUTE DE BEDARIEUX 34700 LODEVE",,,,04 67 44 23 44,,3.286123,43.731518,"1120 Route de Bedarieux, 34700 Lodève"
24,24,ÉTABLISSEMENTS,,ENFANT,,,ITEP LA CORNICHE,"16 BIS, BOULEVARD JOLIOT CURIE 34200 SETE",,,,04 67 51 28 29,,3.670316,43.395983,"16 bis Boulevard Joliot Curie, 34200 Sète"
25,25,ÉTABLISSEMENTS,,ENFANT,,,ITEP LE LANGUEDOC,38 RUE DU MAZET - MAS PRUNET 34070 MONTPELLIER,,,,04 67 42 45 44,,3.833975,43.599346,"Rue du Mas de Prunet, 34070 Montpellier"
26,26,ÉTABLISSEMENTS,,ENFANT,,,ITEP MONT-LOZERE,"74, RUE MICHELINE OSTERMEYER 34500 BEZIERS",,,,04 67 31 87 40,,3.225163,43.362358,"74 Rue Micheline Ostermeyer, 34500 Béziers"
27,27,ÉTABLISSEMENTS,,ENFANT,,,ITEP NAZARETH,"13, RUE DE NAZARETH 34093 MONTPELLIER",,,,04 99 58 21 21,,3.881696,43.622161,"13 Rue de Nazareth, 34090 Montpellier"
28,28,ACCUEILS ALTERNATIFS,,ENFANT,,,ACCUEIL ADOLESCENTS SESAME - LOUSTAL DE SESAME," 31, AVENUE DE LOCCITANIE 34310 CAPESTANG""",,,,04 67 93 31 02,,3.047854,43.329872,"31 Avenue de l'Occitanie, 34310 Capestang"
29,29,ACCUEILS ALTERNATIFS,,ENFANT,,,ACCUEIL ADOLESCENTS SESAME - LA MAISON DE MANON,"22, RUE DES ROMARINS 34990 JUVIGNAC",,,,04 67 40 52 01,,3.812822,43.614548,"22 Rue du Romarin, 34990 Juvignac"
30,30,ACCUEILS ALTERNATIFS,,ENFANT,,,CENTRE DEDUCATION SPECIALISE POUR DEFICIENTS AUDITIFS (CESDA 34),14 RUE SAINT-VINCENT-DE-PAUL 34090 MONTPELLIER,,,,04 67 02 99 00,,3.875509,43.621278,"14 Rue Saint Vincent de Paul, 34090 Montpellier"
31,31,ACCUEILS ALTERNATIFS,,ENFANT,,,CENTRE DEDUCATION SPECIALISEE POUR DEFICIENTS AUDITIFS (CESDA 34),"14, RUE SAINT VINCENT DE PAUL 34090 MONTPELLIER",,,,04 67 02 99 00,,3.875509,43.621278,"14 Rue Saint Vincent de Paul, 34090 Montpellier"
32,32,ACCUEILS ALTERNATIFS,,ENFANT,,,ETABLISSEMENT POUR ENFANTS ET ADOLESCENTS POLYHANDICAPES (EEAP) COSTE ROUSSE,"43, AVENUE DES BARONNES 34730 PRADES LE LEZ",,,,04 67 59 52 50,,3.872655,43.693229,"43 Avenue des Baronnes, 34730 Prades-le-Lez"
33,33,ACCUEILS ALTERNATIFS,,ENFANT,,,INSTITUT DEDUCATION MOTRICE (IEM) ALEXANDRE JOLLIEN,"8, PLACE GENERAL DE GAULLE 34240 LAMALOU LES BAINS",,,,04 67 95 75 30,,3.07754,43.605773,"8 Place du General de Gaulle, 34240 Lamalou-les-Bains"
34,34,ACCUEILS ALTERNATIFS,,ENFANT,,,INSTITUT DEDUCATION MOTRICE (IEM) LA CARDABELLE,"21, AVENUE DE CASTELNAU 34090 MONTPELLIER",,,,04 67 72 42 62,,3.882597,43.621463,"21 Avenue de Castelnau, 34090 Montpellier"
35,35,ACCUEILS ALTERNATIFS,,ENFANT,,,LES ATELIERS DE BENTENAC,ROUTE DES CABANES 34130 MAUGUIO,,,,04 67 29 52 45,,4.01968,43.593582,"Route des Cabanes, 34130 Mauguio"
36,36,ACCUEILS ALTERNATIFS,,ENFANT,,,SAFEP ET SAAAIS DE LA FEDERATION DES AVEUGLES ET AMBLYOPES DE FRANCE-LR (FAF-LR),"420, ALLEE HENRI II DE MONTMORENCY 34000 MONTPELLIER",,,,04 67 50 50 60,,3.888402,43.610155,"420 Allée Henri II de Montmorency, 34000 Montpellier"
37,37,ACCUEILS ALTERNATIFS,,ENFANT,,,SAFEP ET SSEFIS DE LASSOCIATION REGIONALE POUR LINTEGRATION ET LEDUCATION DES DEFICIENTS AUDITIFS (ARIEDA),2446 AVENUE DU PERE SOULAS 34090 MONTPELLIER,,,,04 99 23 27 70,,3.844029,43.629626,"2446 Avenue du Père Soulas, 34090 Montpellier"
38,38,ACCUEILS ALTERNATIFS,,ENFANT,,,SAFEP ET SSEFIS DU CENTRE DEDUCATION SPECIALISEE POUR DEFICIENTS AUDITIFS (CESDA 34),"14, RUE SAINT VINCENT DE PAUL 34090 MONTPELLIER",,,,04 67 02 99 00,,3.875509,43.621278,"14 Rue Saint Vincent de Paul, 34090 Montpellier"
39,39,ACCUEILS ALTERNATIFS,,ENFANT,,,SAFEP ET SSEFIS DU CENTRE DE REEDUCATION DE LOUIE ET DE LA PAROLE (CROP PAUL BOUVIER),"24, ROUTE DALES BP7 30170 SAINT HIPPOLYTE DU FORT""",,,,04 66 77 22 06,,3.868235,43.964517,"24 Route d'Ales, 30170 Saint-Hippolyte-du-Fort"
40,40,ULIS,,ENFANT,,,SESSAD BOREAL,CENTRE EDUCATIF ET MEDICAL  AVENUE MONSEIGNEUR COSTE 34500 BEZIERS,,,,04 67 31 73 30,,3.251712,43.34269,"Avenue Monseigneur Coste, 34500 Béziers"
41,41,ULIS,,ENFANT,,,SESSAD DE LAGATHOIS,CHEMIN RAYMOND FAGES 34300 AGDE,,,,04 67 77 00 01,,3.483299,43.295653,"Chemin Raymond Fages, 34300 Agde"
42,42,ULIS,,ENFANT,,,SESSAD DE LA MAISON DE SOL-N,"40, RUE DE LA MARGERIDE - BAT A 34760 BOUJAN SUR LIBRON",,,,04 67 90 63 81,,3.254753,43.366289,"40 Rue de la Margeride, 34760 Boujan-sur-Libron"
43,43,ULIS,,ENFANT,,,SESSAD DU CENTRE BOURNEVILLE,"120, RUE DU MAS PRUNET 34070 MONTPELLIER",,,,04 67 42 43 66,,3.833975,43.599346,"120 Rue du Mas de Prunet, 34070 Montpellier"
44,44,ULIS,,ENFANT,,,SESSAD EOLE,CENTRE EDUCATIF ET MEDICAL AVENUE MONSEIGNEUR COSTE 34500 BEZIERS,,,,04 67 31 73 30,,3.251712,43.34269,"Avenue Monseigneur Coste, 34500 Béziers"
45,45,ULIS,,ENFANT,,,SESSAD FONTCAUDE,"70, RUE TIPASA 34080 MONTPELLIER",,,,04 67 10 23 00,,3.816671,43.629068,"70 Rue de Tipasa, 34080 Montpellier"
46,46,ULIS,,ENFANT,,,SESSAD INSTITUT CAMPESTRE,"1120, ROUTE DE BEDARIEUX 34700 LODEVE",,,,04 67 44 23 44,,3.286123,43.731518,"1120 Route de Bedarieux, 34700 Lodève"
47,47,ULIS,,ENFANT,,,SESSAD LENSOLEILLADE," 4, QUAI HERCULE COT 34800 CLERMONT LHERAULT""",,,,04 67 88 90 85,,3.434903,43.626174,"4 Quai Hercule Cot, 34800 Clermont-l'Hérault"
48,48,ULIS,,ENFANT,,,SESSAD LOMBRELLE,"11, RUE DU ROMARIN 34990 JUVIGNAC",,,,04 67 52 31 29,,3.812645,43.614581,"11 Rue du Romarin, 34990 Juvignac"
49,49,ULIS,,ENFANT,,,SESSAD LA CARDABELLE,"21, AVENUE DE CASTELNAU 34090 MONTPELLIER",,,,04 67 54 04 38,,3.882597,43.621463,"21 Avenue de Castelnau, 34090 Montpellier"
50,50,ULIS,,ENFANT,,,SESSAD LA CORNICHE,"16 BIS, BOULEVARD JOLIOT CURIE 34200 SETE",,,,04 67 18 29 04,,3.670316,43.395983,"16 bis Boulevard Joliot Curie, 34200 Sète"
51,51,ULIS,,ENFANT,,,SESSAD LA DOMITIENNE,"1804, AVENUE DU PERE SOULAS 34090 MONTPELLIER",,,,04 67 54 43 54,,3.84971,43.625814,"1804 Avenue du Père Soulas, 34090 Montpellier"
52,52,ULIS,,ENFANT,,,SESSAD LA PINEDE,AVENUE CYPRIEN OLIVIER 34830 JACOU,,,,04 67 59 11 78,,3.908847,43.663701,"Avenue Cyprien Olivier, 34830 Jacou"
53,53,ULIS,,ENFANT,,,SESSAD LE LANGUEDOC,"38, RUE DU MAZET - MAS PRUNET 34070 MONTPELLIER",,,,04 67 42 45 44,,3.833975,43.599346,"Rue du Mas de Prunet, 34070 Montpellier"
54,54,ULIS,,ENFANT,,,SESSAD LES HIRONDELLES,RUE DES LIERLES - CS 97001 34115 FRONTIGNAN,,,,04 67 46 62 38,,3.727621,43.427074,"Rue des Lierles, 34110 Frontignan"
55,55,ULIS,,ENFANT,,,SESSAD LES PESCALUNES,"31, RUE DU 8 MAI 1945 34400 LUNEL",,,,04 67 07 86 01,,4.128208,43.675626,"31 Rue du 8 Mai 1945, 34400 Lunel"
56,56,ULIS,,ENFANT,,,SESSAD MARCEL FOUCAULT,"RESIDENCE LE DIAMANT - BATIMENT B 419, RUE LEON BLUM 34000 MONTPELLIER",,,,04 67 54 25 35,,3.890873,43.609875,"Rue Léon Blum, 34000 Montpellier"
57,57,ULIS,,ENFANT,,,SESSAD NAZARETH,"13, RUE DE NAZARETH 34093 MONTPELLIER CEDEX 5",,,,04 99 58 21 21,,3.881696,43.622161,"13 Rue de Nazareth, 34090 Montpellier"
58,58,ULIS,,ENFANT,,,SESSAD NOTRE DAME DE LA SALETTE,"2, RUE PUECH DU FOUR BP 34 34600 BEDARIEUX",,,,04 67 95 10 59,,3.160379,43.613446,"2 Rue Puech du Four, 34600 Bédarieux"
59,59,ULIS,,ENFANT,,,SESSAD PARENTS THESE," ZAC CLEMENT DALGER 20, RUE DES FRERES LUMIERE 34830 JACOU""",,,,04 67 45 63 02,,3.903751,43.658055,"20 Rue des Frères Lumière, 34830 Jacou"
60,60,ULIS,,ENFANT,,,CLIS ECOLE H. DE BORNIER,"75, RUE OBSERVANCE 34400 LUNEL",,,,04 67 87 83 89,,4.135032,43.67329,"75 Rue de l'Observance, 34400 Lunel"
61,61,ULIS,,ENFANT,,,MATERNELLE DESBORDES VALMORE,460 RUE DES LAVANDINS 34070 MONTPELLIER,,,,04 67 42 63 15,,3.855161,43.599681,"460 Rue du Lavandin, 34070 Montpellier"
62,62,ULIS,,ENFANT,,,ULIS ECOLE  DE MONTARNAUD,AVENUE FONT MOSSON 34570 MONTARNAUD,,,,04 67 55 56 99,,3.696857,43.651049,"Avenue Font Mosson, 34570 Montarnaud"
63,63,ULIS,,ENFANT,,,ULIS ECOLE ALPHONSE DAUDET," BOULEVARD GAMBETTA 34800 CLERMONT LHERAULT""",,,,04 67 96 02 69,,3.433256,43.625503,"Boulevard Gambetta, 34800 Clermont-l'Hérault"
64,64,ULIS,,ENFANT,,,ULIS ECOLE ANATOLE FRANCE,AVENUE ANATOLE FRANCE 34110 FRONTIGNAN,,,,04 67 46 51 11,,3.754946,43.447904,"Rue Anatole France, 34110 Frontignan"
65,65,ULIS,,ENFANT,,,ULIS ECOLE ANTOINE BALARD,"123, RUE DE SALAMANQUE 34080 MONTPELLIER",,,,04 67 75 43 01,,3.818578,43.623931,"123 Rue de Salamanque, 34080 Montpellier"
66,66,ULIS,,ENFANT,,,ULIS ECOLE ANTOINE DE SAINT EXUPÉRY,"16, RUE MICHELET 34370 CAZOULS LES BEZIERS",,,,04 67 93 60 63,,3.102613,43.389478,"16 Rue Michelet, 34370 Cazouls-lès-Béziers"
67,67,ULIS,,ENFANT,,,ULIS ECOLE ARAGO,21 RUE MONTMORENCY 34200 SETE,,,,04 67 74 35 24,,3.692855,43.406462,"21 Rue Montmorency, 34200 Sète"
68,68,ULIS,,ENFANT,,,ULIS ECOLE ARC EN CIEL,"260, ROUTE USCLAS 34230 PAULHAN",,,,04 67 25 05 00,,3.462993,43.536937,"260 Route d'Usclas, 34230 Paulhan"
69,69,ULIS,,ENFANT,,,ULIS ECOLE CAPITAINE BONNET,"2, AVENUE DE LA MAIRIE 34480 MAGALAS",,,,04 67 36 38 33,,3.223262,43.471644,"2 Avenue de la Mairie, 34480 Magalas"
70,70,ULIS,,ENFANT,,,ULIS ECOLE CESAR VINAS,RUE GEORGES FABRE 34700 LODEVE,,,,04 67 88 86 03,,3.319754,43.730372,"Rue Georges Fabre, 34700 Lodève"
71,71,ULIS,,ENFANT,,,ULIS ECOLE CHARLES BAUDELAIRE,"311, AVENUE SAINT-CLEMENT 34070 MONTPELLIER",,,,04 67 63 08 53,,3.846239,43.61679,"311 Avenue Saint Clément, 34070 Montpellier"
72,72,ULIS,,ENFANT,,,ULIS ECOLE CONDORCET,"2, PLACE DES ECOLES 34830 JACOU",,,,04 67 59 10 67,,3.911452,43.654449,"2 Place des Ecoles, 34830 Jacou"
73,73,ULIS,,ENFANT,,,ULIS ECOLE EDOUARD HERRIOT,RUE FRANCOIS FEYNES 34500 BEZIERS,,,,04 67 62 47 47,,3.225682,43.336776,"Rue Francois Feynes, 34500 Béziers"
74,74,ULIS,,ENFANT,,,ULIS ECOLE FRANCOIS MITTERRAND,"1330, RUE HENRI LAGATU 34080 MONTPELLIER",,,,04 99 74 72 80,,3.83136,43.63006,"1330 Rue Henri Lagatu, 34080 Montpellier"
75,75,ULIS,,ENFANT,,,ULIS ECOLE FRANCOIS MITTERRAND,AVENUE DE NISSAN 34310 CAPESTANG,,,,04 67 93 32 79,,3.048448,43.327419,"Avenue de Nissan, 34310 Capestang"
76,76,ULIS,,ENFANT,,,ULIS ECOLE FRESCATIS,34220 SAINT PONS DE THOMIERES,,,,04 67 97 05 67,,2.759143,43.483626,"Saint-Pons-de-Thomières, 34220 Saint-Pons-de-Thomières"
77,77,ULIS,,ENFANT,,,ULIS ECOLE GALILÉE,RUE JAUFFRE RUDEL 34080 MONTPELLIER,,,,04 67 75 34 59,,3.821311,43.637687,"Rue Jaufre Rudel, 34080 Montpellier"
78,78,ULIS,,ENFANT,,,ULIS ECOLE GARIBALDI,"2, PLACE DE FONTJUN 34070 MONTPELLIER",,,,04 67 42 77 13,,3.868946,43.592575,"2 Place de Fontjun, 34070 Montpellier"
79,79,ULIS,,ENFANT,,,ULIS ECOLE GEORGES BASTIDE,"2, RUE LEON BLUM 34660 COURNONTERRAL",,,,04 67 85 60 56,,3.721477,43.555759,"2 Rue Léon Blum, 34660 Cournonterral"
80,80,ULIS,,ENFANT,,,ULIS ECOLE GEORGES CLEMENCEAU,RUE DES BORIES 34140 MEZE,,,,04 67 43 81 01,,3.605961,43.428219,"Rue Bories, 34140 Mèze"
81,81,ULIS,,ENFANT,,,ULIS ECOLE HAROUN TAZIEFF,"3, RUE DES ECOLES 34770 GIGEAN",,,,04 67 46 64 61,,3.712154,43.500587,"Rue des Ecoles Laiques, 34770 Gigean"
82,82,ULIS,,ENFANT,,,ULIS ECOLE HENRI DE BORNIER," 75, RUE DE LOBSERVANCE 34400 LUNEL""",,,,04 67 87 83 89,,4.135032,43.67329,"75 Rue de l'Observance, 34400 Lunel"
83,83,ULIS,,ENFANT,,,ULIS ECOLE JACQUES BREL,"5, IMPASSE DES MARMOUSETS 34000 MONTPELLIER",,,,04 67 64 08 74,,3.881864,43.598011,"5 Impasse des Marmousets, 34000 Montpellier"
84,84,ULIS,,ENFANT,,,ULIS ECOLE JACQUES PREVERT,CHEMIN FAISSINE 34120 PEZENAS,,,,04 67 98 38 76,,3.422058,43.457921,"Chemin de la Faissine, 34120 Pézenas"
85,85,ULIS,,ENFANT,,,ULIS ECOLE JEAN GUY,AVENUE PAUL VIDAL 34490 MURVIEL LES BEZIERS,,,,04 67 37 80 64,,3.146838,43.441524,"Avenue Paul Vidal, 34490 Murviel-lès-Béziers"
86,86,ULIS,,ENFANT,,,ULIS ECOLE JEAN JAURES,RUE HORT DE MONSEIGNEUR 34500 BEZIERS,,,,04 67 30 10 68,,3.23369,43.35079,"Rue de l'Hort de Monseigneur, 34500 Béziers"
87,87,ULIS,,ENFANT,,,ULIS ECOLE JEAN MACE," RUE DU 81EME REGIMENT DINFANTERIE 34200 SETE""",,,,04 67 51 10 50,,3.684539,43.408722,"Rue du 81e Regiment d'Infanterie, 34200 Sète"
88,88,ULIS,,ENFANT,,,ULIS ECOLE JEAN MACE,"289, RUE SAINT HILAIRE 34000 MONTPELLIER",,,,04 67 64 40 60,,3.868124,43.611058,"Rue Hilaire Ricard, 34000 Montpellier"
89,89,ULIS,,ENFANT,,,ULIS ECOLE JEAN MERMOZ,"196, RUE DE LA CROIX DU SUD 34000 MONTPELLIER",,,,04 67 65 04 66,,3.891719,43.614293,"196 Rue de la Croix du Sud, 34000 Montpellier"
90,90,ULIS,,ENFANT,,,ULIS ECOLE JULES FERRY,"184, AVENUE EDMOND ROSTAND 34590 MARSILLARGUES",,,,04 67 83 55 77,,4.173491,43.66792,"184 Avenue Edmond Rostand, 34590 Marsillargues"
91,91,ULIS,,ENFANT,,,ULIS ECOLE JULES FERRY," PLACE DE LEUROPE 34820 TEYRAN""",,,,04 67 70 34 27,,3.927314,43.682618,"Place de l'Europe, 34820 Teyran"
92,92,ULIS,,ENFANT,,,ULIS ECOLE JULES FERRY,RUE EDOUARD HERRIOT 34290 SERVIAN,,,,04 67 39 11 42,,3.300801,43.428531,"Rue Edouard Herriot, 34290 Servian"
93,93,ULIS,,ENFANT,,,ULIS ECOLE JULES FERRY,"15, RUE DE LA REPUBLIQUE 34300 AGDE",,,,04 67 94 23 18,,3.468798,43.311098,"15 Rue de la Republique, 34300 Agde"
94,94,ULIS,,ENFANT,,,ULIS ECOLE JULES SIMON,"45, RUE DE LA MEDITERRANEE 34000 MONTPELLIER",,,,04 67 65 60 54,,3.885781,43.604919,"45 Rue de la Méditerranée, 34070 Montpellier"
95,95,ULIS,,ENFANT,,,ULIS ECOLE KUROSAWA,"400, RUE PIERRE CARDENAL 34080 MONTPELLIER",,,,04 67 75 28 34,,3.81948,43.64046,"400 Rue Pierre Cardenal, 34080 Montpellier"
96,96,ULIS,,ENFANT,,,ULIS ECOLE LA CHEVALIERE,RUE FERREOL MAZAS 34500 BEZIERS,,,,04 67 76 27 74,,3.228713,43.340468,"Rue Jacques Ferreol Mazas, 34500 Béziers"
97,97,ULIS,,ENFANT,,,ULIS ECOLE LA MARIANNE,RUE DES ECOLES REPUBLICAINES 34190 GANGES,,,,04 67 73 80 44,,3.706147,43.936298,"Rue des Ecoles Republicaines, 34190 Ganges"
98,98,ULIS,,ENFANT,,,ULIS ECOLE LA RENAISSANCE,"3, RUE DU 4 SEPTEMBRE 34200 SETE",,,,04 67 74 42 10,,3.693174,43.408609,"3 Rue du 4 Septembre, 34200 Sète"
99,99,ULIS,,ENFANT,,,ULIS ECOLE LANGEVIN-WALLON,RUE DU VIGNAL 34600 BEDARIEUX,,,,04 67 95 07 48,,3.157146,43.61675,"Rue du Vignal, 34600 Bédarieux"
100,100,ULIS,,ENFANT,,,ULIS ECOLE LE GRAND TAMARIS,AVENUE DE FREJORGUES 34970 LATTES,,,,04 67 65 21 61,,3.911483,43.569524,"Avenue de Frejorgues, 34970 Lattes"
101,101,ULIS,,ENFANT,,,ULIS ECOLE LEO MALET,"5, ALLEE PIERRE CARABASSE 34080 MONTPELLIER",,,,04 67 75 46 45,,3.830926,43.612686,"5 Allée Pierre Carabasse, 34080 Montpellier"
102,102,ULIS,,ENFANT,,,ULIS ECOLE LEOPOLD SEDAR SENGHOR,"26, AVENUE DE BOLOGNE 34080 MONTPELLIER",,,,04 67 75 34 79,,3.813887,43.636595,"Avenue de Naples, 34080 Montpellier"
103,103,ULIS,,ENFANT,,,ULIS ECOLE LES AMANDIERS,BOULEVARD BIR HAKEIM 34500 BEZIERS,,,,04 67 62 48 72,,3.259907,43.33676,"Boulevard de Bir-hakeim, 34500 Béziers"
104,104,ULIS,,ENFANT,,,ULIS ECOLE LES ARBOUSIERS,"1, AVENUE LES ARBOUSIERS 34500 BEZIERS",,,,04 67 76 22 18,,3.244283,43.336174,"1 Avenue des Arbousiers, 34500 Béziers"
105,105,ULIS,,ENFANT,,,ULIS ECOLE LES LAVANDINS,AVENUE DU STADE 34110 FRONTIGNAN LA PEYRADE,,,,04 67 46 51 61,,3.727468,43.427147,"Avenue du Stade, 34110 Frontignan"
106,106,ULIS,,ENFANT,,,ULIS ECOLE LES ROMARINS,RUE DE SETIF LA DEVEZE 34500 BEZIERS,,,,04 67 76 52 38,,3.249046,43.333014,"Rue de la Devèze, 34500 Béziers"
107,107,ULIS,,ENFANT,,,ULIS ECOLE LOUIS MALBOSC,"181, RUE MICHELE OSTERMEYER 34500 BEZIERS",,,,04 99 43 80 10,,3.225246,43.363079,"181 Rue Micheline Ostermeyer, 34500 Béziers"
108,108,ULIS,,ENFANT,,,ULIS ECOLE LOUISVILLE,"431, AVENUE LOUISVILLE 34080 MONTPELLIER",,,,04 67 75 36 01,,3.815525,43.625098,"431 Avenue de Louisville, 34080 Montpellier"
109,109,ULIS,,ENFANT,,,ULIS ECOLE LUCIE AUBRAC,RUE DU PEYROU 34570 PIGNAN,,,,04 67 47 83 34,,3.759747,43.582501,"Rue du Peyrou, 34570 Pignan"
110,110,ULIS,,ENFANT,,,ULIS ECOLE MARC BLOCH,"135, ALLEE DES HAUTS DE MONTPELLIER 34080 MONTPELLIER",,,,04 67 75 13 87,,3.811847,43.639752,"135 Allée des Hauts de Montpellier, 34080 Montpellier"
111,111,ULIS,,ENFANT,,,ULIS ECOLE MARIO ROUSTAN,RUE ARCHIMEDE 34130 MAUGUIO,,,,04 67 29 54 68,,4.015826,43.618471,"Rue Archimede, 34130 Mauguio"
112,112,ULIS,,ENFANT,,,ULIS ECOLE OLONZAC,AVENUE DE PEPIEUX 34210 OLONZAC,,,,04 68 91 32 42,,2.71654,43.286956,"Avenue de Pépieux, 34210 Olonzac"
113,113,ULIS,,ENFANT,,,ULIS ECOLE PAUL BERT,"2, RUE DE VILLEFRANCHE 34200 SETE",,,,04 67 46 09 87,,3.693281,43.400788,"2 Rue Villefranche, 34200 Sète"
114,114,ULIS,,ENFANT,,,ULIS ECOLE PAUL BERT,"11, RUE AUGUSTE COMTE 34110 SERIGNAN",,,,04 67 32 14 51,,3.720633,43.42403,"Rue Auguste Rodin, 34110 Frontignan"
115,115,ULIS,,ENFANT,,,ULIS ECOLE PAUL LANGEVIN,"5, RUE DE CLEMENTVILLE 34000 MONTPELLIER",,,,04 67 92 85 70,,3.854371,43.610934,"5 Rue de Clémentville, 34070 Montpellier"
116,116,ULIS,,ENFANT,,,ULIS ECOLE PELLISSON,RUE PIERRE CURIE 34500 BEZIERS,,,,04 67 31 67 42,,3.217088,43.351309,"Rue Pierre Curie, 34500 Béziers"
117,117,ULIS,,ENFANT,,,ULIS ECOLE PINTAT-LES OISEAUX,RUE JULES DALOU 34500 BEZIERS,,,,04 67 31 25 17,,3.210085,43.347949,"Rue Jules Dalou, 34500 Béziers"
118,118,ULIS,,ENFANT,,,ULIS ECOLE SIGMUND FREUD,"2, RUE DES TOURTERELLES 34090 MONTPELLIER",,,,04 67 72 42 53,,3.879302,43.626243,"2 Rue des Tourterelles, 34090 Montpellier"
119,119,ULIS,,ENFANT,,,ULIS ECOLE TERRES BLANCHES,RUE JULES FERRY 34110 FRONTIGNAN,,,,04 67 18 50 94,,3.748364,43.44667,"Rue Jules Ferry, 34110 Frontignan"
120,120,ULIS,,ENFANT,,,ULIS ECOLE VICTOR HUGO,RUE GENERAL RIU 34000 MONTPELLIER,,,,04 67 65 64 80,,3.882306,43.604619,"Rue Général Riu, 34000 Montpellier"
121,121,ULIS,,ENFANT,,,ULIS ECOLE VICTOR HUGO,AVENUE DU 8 MAI 1945 34550 BESSAN,,,,04 67 77 42 56,,3.424714,43.361338,"Avenue du 8 Mai 1945, 34550 Bessan"
122,122,ULIS,,ENFANT,,,ULIS ECOLE VICTOR HUGO,RUE DU CALVAIRE 34830 CLAPIERS,,,,04 67 55 90 06,,3.88887,43.657895,"Rue du Calvaire, 34830 Clapiers"
123,123,ULIS,,ENFANT,,,ULIS ECOLE VICTOR HUGO,"9, AVENUE VICTOR HUGO 34400 LUNEL",,,,04 67 87 83 82,,4.133696,43.67695,"Avenue Victor Hugo, 34400 Lunel"
124,124,ULIS,,ENFANT,,,ULIS ECOLE VOLTAIRE,"157, RUE HENRI SELLIER 34070 MONTPELLIER",,,,04 67 47 19 65,,3.863407,43.595438,"157 Rue Henri Sellier, 34070 Montpellier"
125,125,ULIS,,ENFANT,,,ULIS ECOLE WINSTON CHURCHILL,"424, RUE DU LAVANDIN 34070 MONTPELLIER",,,,04 67 42 54 64,,3.854728,43.599762,"424 Rue du Lavandin, 34070 Montpellier"
126,126,ULIS,,ENFANT,,,ULIS COLLEGE AMBRUSSUM,"45, AVENUE LOUIS MEDARD 34400 LUNEL",,,,04 67 71 51 10,,4.133683,43.688125,"45 Avenue Louis Medard, 34400 Lunel"
127,127,ULIS,,ENFANT,,,ULIS COLLEGE ARTHUR RIMBAUD,2 RUE MARIUS PETIPA 34080 MONTPELLIER,,,,04 67 75 43 90,,3.821417,43.615829,"Rue Marius Petipa, 34080 Montpellier"
128,128,ULIS,,ENFANT,,,ULIS COLLEGE CROIX DARGENT," 361, RUE DE LARNEL 34070 MONTPELLIER""",,,,04 67 42 94 15,,3.862536,43.605655,"Rue de Claret, 34070 Montpellier"
129,129,ULIS,,ENFANT,,,ULIS COLLEGE DE LA VOIE DOMITIENNE,BP 14 34920 LE CRES,,,,04 67 70 32 78,,3.937211,43.652788,"Le Crès, 34920 Le Crès"
130,130,ULIS,,ENFANT,,,ULIS COLLEGE DU JEU DE MAIL,"5, AVENUE BERTIN SANS 34000 MONTPELLIER",,,,04 67 52 11 50,,3.864889,43.627545,"5 Avenue Emile Bertin-sans, 34090 Montpellier"
131,131,ULIS,,ENFANT,,,ULIS COLLEGE DU SALAGOU," 7 AVENUE PAUL VALERY 34800 CLERMONT LHERAULT""",,,,04 67 96 04 31,,3.431443,43.632893,"Avenue Paul Valery, 34800 Clermont-l'Hérault"
132,132,ULIS,,ENFANT,,,ULIS COLLEGE FERDINAND FABRE,"CITE MIXTE FERDINAND FABRE 2, RUE JEAN MOULIN 34600 BEDARIEUX",,,,04 67 23 30 60,,3.1561,43.613808,"2 Boulevard Jean Moulin, 34600 Bédarieux"
133,133,ULIS,,ENFANT,,,ULIS COLLEGE FRANCOIS MITTERRAND,"380, AVENUE DE CASTELNAU 34830 CLAPIERS",,,,04 67 55 90 20,,3.895643,43.653099,"380 Avenue de Castelnau, 34830 Clapiers"
134,134,ULIS,,ENFANT,,,ULIS COLLEGE FRANCOIS RABELAIS,"200, RUE DE MALBOSC 34080 MONTPELLIER",,,,04 99 77 21 21,,3.832128,43.626004,"200 Rue de Malbosc, 34080 Montpellier"
135,135,ULIS,,ENFANT,,,ULIS COLLEGE FREDERIC BAZILLE,"170, AVENUE DU 8 MAI 1945 34170 CASTELNAU LE LEZ",,,,04 67 79 74 10,,3.908234,43.633556,"170 Avenue du 8 Mai 1945, 34170 Castelnau-le-Lez"
136,136,ULIS,,ENFANT,,,ULIS COLLEGE GEORGES BRASSENS,AVENUE DU MEJEAN 34970 LATTES,,,,04 67 22 08 94,,3.90076,43.565485,"Avenue du Mejean, 34970 Lattes"
137,137,ULIS,,ENFANT,,,ULIS COLLEGE GERARD PHILIPE,"686, AVENUE DU PONT TRINQUAT 34070 MONTPELLIER",,,,04 67 65 64 64,,3.891841,43.597649,"686 Avenue du Pont Trinquat, 34070 Montpellier"
138,138,ULIS,,ENFANT,,,ULIS COLLEGE JEAN BENE,1 AVENUE PAUL VIDAL DE LA BLACHE 34120 PEZENAS,,,,04 67 98 11 55,,3.41636,43.459201,"1 Avenue Paul Vidal de la Blache, 34120 Pézenas"
139,139,ULIS,,ENFANT,,,ULIS COLLEGE JEAN JAURES,"10 BIS, AVENUE DU GENERAL DE GAULLE 34140 MEZE",,,,04 67 43 81 00,,3.60287,43.426096,"10 bis Avenue General de Gaulle, 34140 Mèze"
140,140,ULIS,,ENFANT,,,ULIS COLLEGE KATIA ET MAURICE KRAFFT,BOULEVARD YVES DE MANOIR 34513 BEZIERS CEDEX,,,,04 67 76 18 66,,3.247045,43.337445,"Boulevard Yves du Manoir, 34500 Béziers"
141,141,ULIS,,ENFANT,,,ULIS COLLEGE LAS CAZES,"420, RUE CROIX DE LAS CAZES 34080 MONTPELLIER",,,,04 67 04 39 39,,3.848302,43.617319,"420 Rue de la Croix de Las Cazes, 34000 Montpellier"
142,142,ULIS,,ENFANT,,,ULIS COLLEGE LE BERANGE,"21, AVENUE CONTR\xc3\x94LE 34670 BAILLARGUES",,,,04 67 70 13 51,,4.017822,43.66592,"21 Allee Leon Cordes, 34670 Baillargues"
143,143,ULIS,,ENFANT,,,ULIS COLLEGE LES ARBOURYS,RUE DE LA PROMENADE 34480 MAGALAS,,,,04 67 62 31 70,,3.223396,43.471284,"Rue de la Promenade, 34480 Magalas"
144,144,ULIS,,ENFANT,,,ULIS COLLEGE LES DEUX PINS,"6, RUE MAURICE CLAVEL 34113 FRONTIGNAN",,,,04 67 18 69 50,,3.751757,43.45335,"6 Rue Maurice Clavel, 34110 Frontignan"
145,145,ULIS,,ENFANT,,,ULIS COLLEGE LES ESCHOLIERS DE LA MOSSON,"70, AVENUE DU BITERROIS 34184 MONTPELLIER",,,,04 67 10 47 30,,3.822002,43.632558,"70 Avenue du Biterrois, 34080 Montpellier"
146,146,ULIS,,ENFANT,,,ULIS COLLEGE LOUISE MICHEL,PLACE JULES FERRY 34190 GANGES,,,,04 67 73 81 01,,3.705277,43.936302,"Place Jules Ferry 1832 1893, 34190 Ganges"
147,147,ULIS,,ENFANT,,,ULIS COLLEGE LUCIE AUBRAC,"4, RUE DE JUSSIEU 34500 BEZIERS",,,,04 99 43 20 50,,3.222346,43.352863,"4 Rue Antoine de Jussieu, 34500 Béziers"
148,148,ULIS,,ENFANT,,,ULIS COLLEGE MARCEL PAGNOL,RUE EMILE TURCO 34410 SERIGNAN,,,,04 67 39 99 99,,3.272581,43.277013,"Rue Emile Turco, 34410 Sérignan"
149,149,ULIS,,ENFANT,,,ULIS COLLEGE MARIE CURIE,RUE DES CONDAMINES 34570 PIGNAN,,,,04 67 47 61 35,,3.762923,43.581235,"Rue des Condamines, 34570 Pignan"
150,150,ULIS,,ENFANT,,,ULIS COLLEGE PAUL BERT,"20, AVENUE DE LA REPUBLIQUE 34310 CAPESTANG",,,,04 67 49 82 22,,3.041231,43.329119,"20 Avenue de la Republique, 34310 Capestang"
151,151,ULIS,,ENFANT,,,ULIS COLLEGE PAUL RIQUET,PLACE GENERAL DE GAULLE 34500 BEZIERS,,,,04 99 43 26 30,,3.218256,43.345108,"Place General de Gaulle, 34500 Béziers"
152,152,ULIS,,ENFANT,,,ULIS COLLEGE PIERRE DELEY,AVENUE DE FLORENSAC 34340 MARSEILLAN,,,,04 67 35 30 70,,3.527243,43.359239,"Avenue de Florensac, 34340 Marseillan"
153,153,ULIS,,ENFANT,,,ULIS COLLEGE RAY CHARLES,RUE DES COUSSES 34690 FABREGUES,,,,04 67 85 63 40,,3.785751,43.555551,"Rue des Cousses, 34690 Fabrègues"
154,154,ULIS,,ENFANT,,,ULIS COLLEGE RENE CASSIN,RUE BALTHAZAR FLORET 34300 AGDE,,,,04 67 01 08 10,,3.480256,43.311733,"Rue Balthazar Floret, 34300 Agde"
155,155,ULIS,,ENFANT,,,ULIS COLLEGE ROGER CONTREPAS,AVENUE EDMOND ROSTANG 34590 MARSILLARGUES,,,,04 67 83 42 80,,4.174287,43.666528,"Avenue Edmond Rostand, 34590 Marsillargues"
156,156,ULIS,,ENFANT,,,ULIS COLLEGE SIMONE DE BEAUVOIR,ZONE ARTISANALE DE LA PEYRADE 34110 FRONTIGNAN LA PEYRADE,,,,04 67 80 91 00,,3.716674,43.424436,"Zone d'Activite la Peyrade, 34110 Frontignan"
157,157,ULIS,,ENFANT,,,ULIS COLLEGE VICTOR HUGO,AVENUE DE LA GARE 34550 BESSAN,,,,04 67 00 28 28,,3.422615,43.36114,"Avenue de la Gare, 34550 Bessan"
158,158,ULIS,,ENFANT,,,ULIS COLLEGE VICTOR HUGO,QUAI FRANCOIS MAILLOL 34200 SETE,,,,04 67 74 76 20,,3.700607,43.407921,"Quai Francois Maillol, 34200 Sète"
159,159,ULIS,,ENFANT,,,ULIS COLLEGE VINCENT BADIE,AVENUE GILBERT SENES 34570 MONTARNAUD,,,,04 99 62 31 70,,3.698299,43.649023,"Avenue Gilbert Senès, 34570 Montarnaud"
160,160,ULIS,,ENFANT,,,ULIS EREA-LEA JEAN JACQUES ROUSSEAU,AVENUE DE LA COLLINE 34075 MONTPELLIER,,,,04 67 10 41 41,,3.841731,43.608565,"Avenue de la Colline, 34070 Montpellier"
161,161,ULIS,,ENFANT,,,ULIS LYCEE JEAN MERMOZ,"717, AVENUE JEAN MERMOZ 34000 MONTPELLIER",,,,04 67 20 60 00,,3.89033,43.610748,"717 Avenue Jean Mermoz, 34000 Montpellier"
162,162,ULIS,,ENFANT,,,ULIS LYCEE PROFESSIONNEL CHARLES ALLIES,"24, BOULEVARD JOLIOT CURIE 34120 PEZENAS",,,,04 67 90 44 20,,3.417283,43.456343,"24 Boulevard Joliot Curie, 34120 Pézenas"
163,163,ULIS,,ENFANT,,,ULIS LYCEE PROFESSIONNEL CHARLES DE GAULLE,"19, BOULEVARD JOLIOT CURIE BP 167 34203 SETE",,,,04 67 18 66 66,,3.666852,43.396673,"19 Boulevard Joliot Curie, 34200 Sète"
164,164,ULIS,,ENFANT,,,ULIS LYCEE PROFESSIONNEL GEORGES FRECHE,"401, RUE TITIEN 34000 MONTPELLIER",,,,04 67 13 05 05,,3.911644,43.604323,"401 Rue le Titien, 34000 Montpellier"
165,165,ULIS,,ENFANT,,,ULIS LYCEE PROFESSIONNEL JEAN MOULIN,"19, AVENUE MARTYRS DE LA RESISTANCE 34500 BEZIERS",,,,04 67 35 59 35,,3.233478,43.34327,"19 Av des Martyrs de la Resistance, 34500 Béziers"
166,166,ULIS,,ENFANT,,,ULIS LYCEE PROFESSIONNEL JULES FERRY,"270, AVENUE DE LA COLLINE 34070 MONTPELLIER CEDEX 3",,,,04 67 10 74 01,,3.841885,43.606744,"270 Avenue de la Colline, 34070 Montpellier"
167,167,ULIS,,ENFANT,,,ULIS LYCEE PROFESSIONNEL MENDES FRANCE,"380, RUE DU MAS DE BROUSSE CS 26037 34060 MONTPELLIER",,,,04 67 13 35 00,,3.917809,43.601149,"Rue du Mas de Brousse, 34000 Montpellier"
168,168,ULIS,,ENFANT,,,ULIS LYCEE VICTOR HUGO,"527, ZAC LA PETITE CAMARGUE 34400 LUNEL",,,,04 99 13 70 30,,4.145526,43.688944,"527 ZAC la Petite Camargue, 34400 Lunel"
169,169,ÉTABLISSEMENTS,,ADULTE,,,MAS ALEXANDRE JOLLIEN (ANCIENNEMENT LAMALOU LE HAUT),ROUTE DE SAINT GERVAIS COMBES 34240 LAMALOU LES BAINS,,,,04 67 95 75 30,,3.081001,43.602645,"Impasse du Combe, 34240 Lamalou-les-Bains"
170,170,ÉTABLISSEMENTS,,ADULTE,,,MAS APARD - CENTRE APIGHREM,"4, RUE DES OURGOUILLOUS 34270 SAINT MATHIEU DE TREVIERS",,,,04 67 55 16 00,,3.871408,43.766369,"4 Rue des Orgueillous, 34270 Saint-Mathieu-de-Tréviers"
171,171,ÉTABLISSEMENTS,,ADULTE,,,MAS CAMILLE CLAUDEL," RUE HECTOR BERLIOZ 34800 CLERMONT LHERAULT""",,,,04 67 88 42 45,,3.421587,43.627322,"Rue Hector Berlioz, 34800 Clermont-l'Hérault"
172,172,ÉTABLISSEMENTS,,ADULTE,,,MAS CENTRE SAINT PIERRE,BP 15 34290 MONTBLANC,,,,04 67 98 50 07,,3.364622,43.398616,"Montblanc, 34290 Montblanc"
173,173,ÉTABLISSEMENTS,,ADULTE,,,MAS DE MONTFLOURES,TRAVERSE DE COLOMBIERS 34500 BEZIERS,,,,04 67 49 89 62,,3.191872,43.331747,"Traverse de Colombiers, 34500 Béziers"
174,174,ÉTABLISSEMENTS,,ADULTE,,,MAS DU CENTRE PAUL COSTE FLORET,BP 3 34240 LAMALOU LES BAINS,,,,04 67 23 55 00,,3.084148,43.597224,"Lamalou-les-Bains, 34240 Lamalou-les-Bains"
175,175,ÉTABLISSEMENTS,,ADULTE,,,MAS FONTCOLOMBE,"509, RUE DE CHATEAU BON 34080 MONTPELLIER",,,,04 67 13 41 20,,3.820086,43.618304,"Rue de Font Caude, 34080 Montpellier"
176,176,ÉTABLISSEMENTS,,ADULTE,,,MAS LA PARAGE,15 RUE DES AIGUES VIVES - BP52 34725 SAINT ANDRE DE SANGONIS,,,,04 67 57 00 50,,3.504845,43.640665,"15 Rue des Aigues Vives, 34725 Saint-André-de-Sangonis"
177,177,ÉTABLISSEMENTS,,ADULTE,,,MAS LES IV SEIGNEURS,"1082, AVENUE DU PIC SAINT LOUP 34090 MONTPELLIER",,,,04 67 63 38 62,,3.850784,43.638933,"1082 Avenue du Pic Saint Loup, 34090 Montpellier"
178,178,ÉTABLISSEMENTS,,ADULTE,,,MAS LES SOLEILS (ANCIENNEMENT PROPARA),"263, RUE DU CADUCEE  PARC EUROMEDECINE 34090 MONTPELLIER",,,,04 67 04 67 04,,3.832599,43.643574,"263 Rue du Caducée, 34090 Montpellier"
179,179,ÉTABLISSEMENTS,,ADULTE,,,MAS PAYS DE THAU,"1, AVENUE DU PIN 34140 MEZE",,,,04 99 57 23 10,,3.594939,43.421256,"1 Avenue des Pins, 34140 Mèze"
180,180,ÉTABLISSEMENTS,,ADULTE,,,MAS PERCE NEIGE,"569, AVENUE GEORGES FRECHE (ANCIEN CHEMIN DU MAS DE ROCHET) 34170 CASTELNAU LE LEZ",,,,04 67 99 80 30,,,,
181,181,ÉTABLISSEMENTS,,ADULTE,,,MAS SAINT VITAL,34240 COMBES,,,,04 67 23 52 00,,3.056759,43.604854,"Combes, 34240 Combes"
182,182,ÉTABLISSEMENTS,,ADULTE,,,FAM APARD - CENTRE APIGHREM,4 RUE DES OURGOUILLOUS  Z.A. LES AVANTS 34270 SAINT MATHIEU DE TREVIERS,,,,04 67 55 16 00,,3.866667,43.76587,"Rue des Avants, 34270 Saint-Mathieu-de-Tréviers"
183,183,ÉTABLISSEMENTS,,ADULTE,,,FAM ARCHIPEL DE MASSANE,"1855, RUE DE SAINT-PRIEST 34090 MONTPELLIER",,,,04 99 77 26 40,,3.831055,43.638882,"1855 Rue Saint-priest, 34090 Montpellier"
184,184,ÉTABLISSEMENTS,,ADULTE,,,FAM CENTRE SAINT PIERRE,BP 15 34290 MONTBLANC,,,,04 67 98 50 07,,3.364622,43.398616,"Montblanc, 34290 Montblanc"
185,185,ÉTABLISSEMENTS,,ADULTE,,,FAM DE MONTFLOURES,TRAVERSE DE COLOMBIERS 34500 BEZIERS,,,,04 67 49 89 54,,3.191872,43.331747,"Traverse de Colombiers, 34500 Béziers"
186,186,ÉTABLISSEMENTS,,ADULTE,,,FAM DOMAINE DE LA BRUYERE,DEPARTEMENTALE 171 34400 SAINT CHRISTOL,,,,04 67 86 48 09,,4.063055,43.702583,"Chemin Departemental 171, 34400 Entre-Vignes"
187,187,ÉTABLISSEMENTS,,ADULTE,,,FAM DU MILLENAIRE,"341, RUE HIPPOLYTE FIZEAU -  ZAC DU MILLENAIRE 34000 MONTPELLIER",,,,04 67 20 21 15,,3.913084,43.614444,"341 Rue Hippolyte Fizeau, 34000 Montpellier"
188,188,ÉTABLISSEMENTS,,ADULTE,,,FAM FRESCATIS," 5, CHEMIN DAPPRAT BP 35 34220 SAINT PONS DE THOMIERES""",,,,04 67 97 90 70,,2.756581,43.489345,"5 Chemin des Portes, 34220 Saint-Pons-de-Thomières"
189,189,ÉTABLISSEMENTS,,ADULTE,,,FAM ISABELLE MARIE," RUE DU PUIT DE LAMOUR 34310 QUARANTE""",,,,04 67 89 43 25,,2.957729,43.345851,"Rue du Puits de l'Amour, 34310 Quarante"
190,190,ÉTABLISSEMENTS,,ADULTE,,,FAM LE GUILHEM,"1804, AVENUE DU PERE SOULAS 34000 MONTPELLIER",,,,04 99 23 27 51,,3.84971,43.625814,"1804 Avenue du Père Soulas, 34090 Montpellier"
191,191,ÉTABLISSEMENTS,,ADULTE,,,FAM LE HAMEAU DES HORIZONS,"41, PLAN DES GARRIGUES 34830 CLAPIERS",,,,04 67 59 99 15,,3.891134,43.649822,"41 Plan des Garrigues, 34830 Clapiers"
192,192,ÉTABLISSEMENTS,,ADULTE,,,FAM LES COTEAUX DE SESAME,"1, ROUTE DE MARGON 34480 POUZOLLES",,,,04 99 57 20 90,,3.286467,43.481496,"1 Route de Margon, 34480 Pouzolles"
193,193,ÉTABLISSEMENTS,,ADULTE,,,FAM LES FONTAINES DO,"71, RUE HENRI NOGUERES  PARC EUROMEDECINE 34090 MONTPELLIER",,,,04 67 40 73 50,,3.832726,43.637058,"71 Rue Henri Noguères, 34090 Montpellier"
194,194,ÉTABLISSEMENTS,,ADULTE,,,FAM LES IV SEIGNEURS,"1082, AVENUE DU PIC SAINT LOUP 34090 MONTPELLIER",,,,04 67 63 38 62,,3.850784,43.638933,"1082 Avenue du Pic Saint Loup, 34090 Montpellier"
195,195,ÉTABLISSEMENTS,,ADULTE,,,FAM MAISON PERCE NEIGE,"569, AVENUE GEORGES FRECHE (ANCIEN CHEMIN DU MAS DE ROCHET) 34170 CASTELNAU LE LEZ",,,,04 67 99 80 30,,,,
196,196,ÉTABLISSEMENTS,,ADULTE,,,FAM ROBERT FALIU,PLAISANCE 34610 SAINT GENIES DE VARENSAL,,,,04 67 23 33 23,,3.004367,43.671623,"Lieu Dit Plaisance, 34610 Saint-Geniès-de-Varensal"
197,197,ÉTABLISSEMENTS,,ADULTE,,,FAM STRUCTURE HENRI WALLON,"285, RUE ROBERT KOCH  PARC EUROMEDECINE 2 34080 MONTPELLIER",,,,04 99 13 34 20,,,,
198,198,ÉTABLISSEMENTS,,ADULTE,,,FOYER DE VIE ARCHIPEL DE MASSANE,"1855, RUE DE SAINT PRIEST  PARC EUROMEDECINE 34090 MONTPELLIER",,,,04 99 77 26 40,,3.831055,43.638882,"1855 Rue Saint-priest, 34090 Montpellier"
199,199,ÉTABLISSEMENTS,,ADULTE,,,FOYER DE VIE CANTAUSSELS (INTERNAT),TRAVERSE DE COLOMBIERS 34500 BEZIERS,,,,04 67 49 89 65,,3.191872,43.331747,"Traverse de Colombiers, 34500 Béziers"
200,200,ÉTABLISSEMENTS,,ADULTE,,,FOYER DE VIE CANTAUSSELS MONTFLOURES,RUE DE CANTAUSSELS 34440 NISSAN LEZ ENSERUNE,,,,04 67 49 89 65,,3.129318,43.286761,"Chemin de Cantaussils, 34440 Nissan-lez-Enserune"
201,201,ÉTABLISSEMENTS,,ADULTE,,,FOYER DE VIE CENTRE HERAULT," 2, RUE DE LEGALITE 34120 NEZIGNAN LEVEQUE""",,,,04 67 90 43 23,,3.404986,43.421977,"Rue de l'Egalité, 34120 Nézignan-l'Évêque"
202,202,ÉTABLISSEMENTS,,ADULTE,,,FOYER DE VIE DANIEL MAYER,CHEMIN DES ALICANTES 34400 LUNEL,,,,04 67 91 28 70,,4.124088,43.664082,"Chemin des Alicantes, 34400 Lunel"
203,203,ÉTABLISSEMENTS,,ADULTE,,,FOYER DE VIE ESPACE CAMILLE CLAUDEL," ZAC DE FONTENAY RUE HECTOR BERLIOZ 34800 CLERMONT LHERAULT""",,,,04 67 88 42 45,,3.470754,43.603592,"ZAC la Salamane, 34800 Clermont-l'Hérault"
204,204,ÉTABLISSEMENTS,,ADULTE,,,FOYER DE VIE FRESCATIS," CHEMIN DAPPRAT BP 35 34220 SAINT PONS DE THOMIERES""",,,,04 67 97 90 70,,2.762686,43.48962,"Chemin du Roucas, 34220 Saint-Pons-de-Thomières"
205,205,ÉTABLISSEMENTS,,ADULTE,,,FOYER DE VIE HENRI WALLON,"285, RUE ROBERT KOCH  PARC EUROMEDECINE II 34080 MONTPELLIER",,,,04 99 13 34 20,,,,
206,206,ÉTABLISSEMENTS,,ADULTE,,,FOYER DE VIE ISABELLE MARIE," RUE DU PUITS DE LAMOUR 34310 QUARANTE""",,,,04 67 89 43 25,,2.957729,43.345851,"Rue du Puits de l'Amour, 34310 Quarante"
207,207,ÉTABLISSEMENTS,,ADULTE,,,FOYER DE VIE JEAN PIAGET,"13, RUE MICHEL CLERC 34110 FRONTIGNAN LA PEYRADE",,,,04 67 18 45 80,,3.722788,43.429553,"13 Rue Michel Clerc la Peyrade, 34110 Frontignan"
208,208,ÉTABLISSEMENTS,,ADULTE,,,FOYER DE VIE LHORIZON,"7, AVENUE DE CASTELNAU 34090 MONTPELLIER",,,,04 67 72 69 00,,3.880371,43.620052,"7 Avenue de Castelnau, 34090 Montpellier"
209,209,ÉTABLISSEMENTS,,ADULTE,,,FOYER DE VIE LE PARC (INTERNAT),"227, RUE DU MAS DE VILLARET CS 35032 34076 MONTPELLIER",,,,04 67 27 10 70,,3.864538,43.591303,"227 Rue du Mas de Villaret, 34070 Montpellier"
210,210,ÉTABLISSEMENTS,,ADULTE,,,FOYER DE VIE LES ARAMONS,63/175 RUE DU CADUCEE  PARC EUROMEDECINE 34195 MONTPELLIER,,,,04 67 04 43 88,,3.8335,43.643267,"175 Rue du Caducée, 34090 Montpellier"
211,211,ÉTABLISSEMENTS,,ADULTE,,,FOYER DE VIE LES ECUREUILS,"268, RUE DU CADUCEE  PARC EUROMEDECINE 34195 MONTPELLIER",,,,04 67 41 81 60,,3.835139,43.642663,"Rue du Caducée, 34090 Montpellier"
212,212,ÉTABLISSEMENTS,,ADULTE,,,FOYER DE VIE LES TERRES BLANCHES (EXTERNAT),"1804, AVENUE DU PERE SOULAS 34090 MONTPELLIER",,,,04 99 23 22 50,,3.84971,43.625814,"1804 Avenue du Père Soulas, 34090 Montpellier"
213,213,ÉTABLISSEMENTS,,ADULTE,,,FOYER DE VIE MARQUEROSE (INTERNAT),"162, RUE MARQUEROSE 34000 MONTPELLIER",,,,04 67 41 81 60,,3.872357,43.590481,"162 Rue de la Marquerose, 34070 Montpellier"
214,214,ÉTABLISSEMENTS,,ADULTE,,,FOYER DE VIE THIERRY ALBOUY,10 RUE EVARISTE GALOIS  BP 3073 34514 BEZIERS,,,,04 67 35 84 84,,3.248739,43.327917,"10 Rue Evariste Galois, 34500 Béziers"
215,215,ÉTABLISSEMENTS,,ADULTE,,,FOYER ESAT CENTRE HERAULT,"10, RUE LAENNEC  BP 100 34120 PEZENAS",,,,04 67 90 43 23,,3.422997,43.455944,"10 Rue Rene Laennec, 34120 Pézenas"
216,216,ÉTABLISSEMENTS,,ADULTE,,,FOYER ESAT DU PLATEAU DES LACS,"19, LOTISSEMENT RIEUCROS 34330 LA SALVETAT SUR AGOUT",,,,04 67 97 87 90,,2.697448,43.602328,"19 Rue Rieucros, 34330 La Salvetat-sur-Agout"
217,217,ÉTABLISSEMENTS,,ADULTE,,,FOYER ESAT LE ROC CASTEL,"156, RUE DES ECOLES 34520 LE CAYLAR",,,,04 67 44 50 22,,3.318764,43.862478,"156 Rue des Ecoles, 34520 Le Caylar"
218,218,ÉTABLISSEMENTS,,ADULTE,,,FOYER ESAT LES COMPAGNONS DE MAGUELONE,DOMAINE DE MAGUELONE 34250 PALAVAS LES FLOTS,,,,04 67 50 63 63,,3.909685,43.519915,"Route de Maguelone, 34250 Palavas-les-Flots"
219,219,ÉTABLISSEMENTS,,ADULTE,,,FOYER ESAT LES HAUTES GARRIGUES," 230, ALLEE DE LESPLANADE 34380 SAINT MARTIN DE LONDRES""",,,,04 67 55 42 83,,3.713344,43.773536,"Allée des Lavandes, 34380 Saint-Martin-de-Londres"
220,220,ÉTABLISSEMENTS,,ADULTE,,,FOYER ESAT LES LAVANDES,"227, RUE DU MAS DE VILLARET  CS 35032 34076 MONTPELLIER",,,,04 67 27 10 70,,3.864538,43.591303,"227 Rue du Mas de Villaret, 34070 Montpellier"
221,221,ÉTABLISSEMENTS,,ADULTE,,,FOYER ESAT PAYS DE THAU,CS 97001 34110 FRONTIGNAN,,,,04 67 18 48 60,,3.749313,43.446357,"Frontignan, 34110 Frontignan"
222,222,ÉTABLISSEMENTS,,ADULTE,,,FOYER ESAT ROBERT BADINTER,CHEMIN DES ALICANTES 34400 LUNEL,,,,04 67 91 28 71,,4.124088,43.664082,"Chemin des Alicantes, 34400 Lunel"
223,223,ÉTABLISSEMENTS,,ADULTE,,,FOYER ESAT ROBERT FALIU,PLAISANCE 34610 SAINT GENIES DE VARENSAL,,,,04 67 23 33 23,,3.004367,43.671623,"Lieu Dit Plaisance, 34610 Saint-Geniès-de-Varensal"
224,224,ÉTABLISSEMENTS,,ADULTE,,,FOYER ESAT SEVERINE,24 RUE ARGENCE  RESIDENCE ARGENCE 34500 BEZIERS,,,,04 67 49 97 48,,3.219884,43.350755,"24 Rue Argence, 34500 Béziers"
225,225,ÉTABLISSEMENTS,,ADULTE,,,FOYER ESAT THIERRY ALBOUY,10 RUE EVARISTE GALOIS  BP 3073 34514 BEZIERS,,,,04 67 35 84 84,,3.248739,43.327917,"10 Rue Evariste Galois, 34500 Béziers"
226,226,ÉTABLISSEMENTS,,ADULTE,,,FOYER LOGEMENT  LES ECUREUILS,"268, RUE DU CADUCEE  PARC EUROMEDECINE 34195 MONTPELLIER CEDEX 5",,,,04 67 41 81 60,,3.835139,43.642663,"Rue du Caducée, 34090 Montpellier"
227,227,ÉTABLISSEMENTS,,ADULTE,,,FOYER LOGEMENT HENRI WALLON,"357, AVENUE DU PROFESSEUR JEAN-LOUIS VIALA 34080 MONTPELLIER",,,,04 99 13 34 20,,3.826735,43.63629,"357 Avenue Professeur Jean-louis Viala, 34080 Montpellier"
228,228,ÉTABLISSEMENTS,,ADULTE,,,FOYER LOGEMENT LE BOUQUET DES GARRIGUES,CS 97001 34110 FRONTIGNAN,,,,04 67 18 48 60,,3.749313,43.446357,"Frontignan, 34110 Frontignan"
229,229,ÉTABLISSEMENTS,,ADULTE,,,FOYER LOGEMENT LE COLIBRI,"227, RUE DU MAS DE VILLARET  CS 35032 34076 MONTPELLIER",,,,04 67 27 10 70,,3.864538,43.591303,"227 Rue du Mas de Villaret, 34070 Montpellier"
230,230,ÉTABLISSEMENTS,,ADULTE,,,FOYER LOGEMENT LES COMPAGNONS DE MAGUELONE,DOMAINE DE MAGUELONE 34250 PALAVAS LES FLOTS,,,,04 67 50 63 63,,3.909685,43.519915,"Route de Maguelone, 34250 Palavas-les-Flots"
231,231,ÉTABLISSEMENTS,,ADULTE,,,FOYER LOGEMENT LES GRANDS ARBRES,CHEMIN DE CASSILLAC 34380 VIOLS LE FORT,,,,04 67 55 01 01,,3.705962,43.742002,"Rue de Cassillac, 34380 Viols-le-Fort"
232,232,ÉTABLISSEMENTS,,ADULTE,,,FOYER LOGEMENT LES HAUTES GARRIGUES," 230, ALLEE DE LESPLANADE 34380 SAINT MARTIN DE LONDRES""",,,,04 67 55 42 83,,3.713344,43.773536,"Allée des Lavandes, 34380 Saint-Martin-de-Londres"
233,233,ÉTABLISSEMENTS,,ADULTE,,,FOYER LOGEMENT MA RESIDENCE,"18, AVENUE DE LA GARDIE 34510 FLORENSAC",,,,04 67 77 00 65,,3.473506,43.390776,"18 Avenue de la Gardie, 34510 Florensac"
234,234,ÉTABLISSEMENTS,,ADULTE,,,FOYER LOGEMENT PLAISANCE,34610 SAINT GENIES DE VARENSAL,,,,04 67 23 33 23,,3.015713,43.683727,"Saint-Geniès-de-Varensal, 34610 Saint-Geniès-de-Varensal"
235,235,INSERTION PROFESSIONNELLE,,ADULTE,,,ESAT APF,"8, RUE DU LANTISSARGUES 34070 MONTPELLIER",,,,04 67 92 11 90,,3.885434,43.587995,"8 Rue du Lantissargues, 34070 Montpellier"
236,236,INSERTION PROFESSIONNELLE,,ADULTE,,,ESAT ATELIERS KENNEDY,"285, RUE DU MAS DE PRUNET 34070 MONTPELLIER",,,,04 67 42 62 78,,3.831113,43.599833,"285 Rue du Mas de Prunet, 34070 Montpellier"
237,237,INSERTION PROFESSIONNELLE,,ADULTE,,,ESAT CATAR,"9, AVENUE DE LA GARE DU MIDI 34120 PEZENAS",,,,04 67 90 43 23,,3.423828,43.454698,"9 Avenue de la Gare du Midi, 34120 Pézenas"
238,238,INSERTION PROFESSIONNELLE,,ADULTE,,,ESAT CENTRE THIERRY ALBOUY,10 RUE EVARISTE GALOIS  BP 3073 34514 BEZIERS,,,,04 67 35 84 84,,3.248739,43.327917,"10 Rue Evariste Galois, 34500 Béziers"
239,239,INSERTION PROFESSIONNELLE,,ADULTE,,,ESAT DE MONTFLOURES VIA EUROPA," ZAE VIA EUROPA 3, AVENUE DE LEUROPE 34350 VENDRES""",,,,04 67 39 49 68,,3.218983,43.300323,"3 Avenue de l'Europe, 34350 Vendres"
240,240,INSERTION PROFESSIONNELLE,,ADULTE,,,ESAT DE PLAISANCE,34610 SAINT GENIES DE VARENSAL,,,,04 67 23 60 29,,3.015713,43.683727,"Saint-Geniès-de-Varensal, 34610 Saint-Geniès-de-Varensal"
241,241,INSERTION PROFESSIONNELLE,,ADULTE,,,"ESAT HORS LES MURS ""LA PALANCA""","UGECAM - CRIP 435, AVENUE GEORGES FRECHE CS 10010 34173 CASTELNAU LE LEZ CEDEX",,,,04 67 33 18 00,,3.903767,43.626405,"435 Avenue Georges Frêche, 34170 Castelnau-le-Lez"
242,242,INSERTION PROFESSIONNELLE,,ADULTE,,,ESAT LENVOL,369 RUE BLAISE PASCAL  BP 52  P.A. LA GARRIGUE 34172 CASTELNAU LE LEZ,,,,04 67 02 92 80,,3.92007,43.642675,"369 Avenue Blaise Pascal, 34170 Castelnau-le-Lez"
243,243,INSERTION PROFESSIONNELLE,,ADULTE,,,ESAT LENVOL,Rue des Lierles CS 97001 34115 FRONTIGNAN,,,,04 67 43 23 99,,3.727621,43.427074,"Rue des Lierles, 34110 Frontignan"
244,244,INSERTION PROFESSIONNELLE,,ADULTE,,,ESAT LA BULLE BLEUE,"285, RUE DU MAS PRUNET 34070 MONTPELLIER",,,,04 67 42 18 61,,3.831113,43.599833,"285 Rue du Mas de Prunet, 34070 Montpellier"
245,245,INSERTION PROFESSIONNELLE,,ADULTE,,,ESAT LA CROIX VERTE,"455, RUE DE LA CROIX VERTE 34090 MONTPELLIER",,,,04 67 04 13 76,,3.83851,43.647167,"455 Rue de la Croix Verte, 34080 Montpellier"
246,246,INSERTION PROFESSIONNELLE,,ADULTE,,,ESAT LE ROC CASTEL,"156, RUE DES ECOLES 34520 LE CAYLAR",,,,04 67 44 50 22,,3.318764,43.862478,"156 Rue des Ecoles, 34520 Le Caylar"
247,247,INSERTION PROFESSIONNELLE,,ADULTE,,,ESAT LES ATELIERS DE LA VALLEE DE LHERAULT,"5, CHEMIN DES USINES 34510 FLORENSAC",,,,04 67 77 01 39,,3.473991,43.387703,"5 Chemin des Usines, 34510 Florensac"
248,248,INSERTION PROFESSIONNELLE,,ADULTE,,,ESAT LES ATELIERS DE SAPORTA,DOMAINE DE SAPORTA 34970 LATTES,,,,04 67 92 12 15,,3.880279,43.575081,"Chemin de Saporta, 34970 Lattes"
249,249,INSERTION PROFESSIONNELLE,,ADULTE,,,ESAT LES ATELIERS DU GARRIC," DOMAINE DE LA PAUSE ROUTE DANGLES 34330 LA SALVETAT SUR AGOUT""",,,,04 67 97 61 24,,2.683931,43.596037,"La Pause, 34330 La Salvetat-sur-Agout"
250,250,INSERTION PROFESSIONNELLE,,ADULTE,,,ESAT LES COMPAGNONS DE MAGUELONE,DOMAINE DE MAGUELONE 34250 PALAVAS LES FLOTS,,,,04 67 50 63 63,,3.909685,43.519915,"Route de Maguelone, 34250 Palavas-les-Flots"
251,251,INSERTION PROFESSIONNELLE,,ADULTE,,,ESAT LES HAUTES GARRIGUES,ZONE ARTISANALE ROUTE DE FROUZET 34380 SAINT MARTIN DE LONDRES,,,,04 67 55 15 99,,3.733133,43.794669,"Route de Frouzet, 34380 Saint-Martin-de-Londres"
252,252,INSERTION PROFESSIONNELLE,,ADULTE,,,ESAT PEYREFICADE,ROUTE DE LA GARE 34750 VILLENEUVE LES MAGUELONNE,,,,04 67 69 41 09,,3.855406,43.539127,"Route de la Gare, 34750 Villeneuve-lès-Maguelone"
253,253,INSERTION PROFESSIONNELLE,,ADULTE,,,ESAT VIA DOMITIA,CHEMIN DES ALICANTES 34400 LUNEL,,,,04 67 86 48 00,,4.124088,43.664082,"Chemin des Alicantes, 34400 Lunel"
254,254,INSERTION PROFESSIONNELLE,,ADULTE,,,SECTION ANNEXE ESAT ATELIERS KENNEDY,"285, RUE DU MAS DE PRUNET 34070 MONTPELLIER",,,,04 67 42 62 78,,3.831113,43.599833,"285 Rue du Mas de Prunet, 34070 Montpellier"
255,255,INSERTION PROFESSIONNELLE,,ADULTE,,,SECTION ANNEXE ESAT DE LAPF,"8, RUE DU LANTISSARGUES 34070 MONTPELLIER",,,,04 67 92 11 90,,3.885434,43.587995,"8 Rue du Lantissargues, 34070 Montpellier"
256,256,INSERTION PROFESSIONNELLE,,ADULTE,,,SECTION ANNEXE ESAT LENVOL,369 RUE BLAISE PASCAL  BP 52  P.A. LA GARRIGUE 34172 CASTELNAU LE LEZ,,,,04 67 02 92 80,,3.92007,43.642675,"369 Avenue Blaise Pascal, 34170 Castelnau-le-Lez"
257,257,INSERTION PROFESSIONNELLE,,ADULTE,,,SECTION ANNEXE ESAT LES HAUTES GARRIGUES,ZAE ROUTE DE FROUZET 34380 SAINT MARTIN DE LONDRES,,,,04 67 55 15 99,,3.733133,43.794669,"Route de Frouzet, 34380 Saint-Martin-de-Londres"
258,258,INSERTION PROFESSIONNELLE,,ADULTE,,,SECTION ANNEXE ESAT VIA EUROPA," VIA EUROPA 3, AVENUE DE LEUROPE 34350 VENDRES""",,,,04 67 49 89 68,,3.218983,43.300323,"3 Avenue de l'Europe, 34350 Vendres"
259,259,INSERTION PROFESSIONNELLE,,ADULTE,,,SECTION ANNEXE LES ATELIERS DE SAPORTA,DOMAINE DE SAPORTA 34970 LATTES,,,,04 67 92 12 15,,3.880279,43.575081,"Chemin de Saporta, 34970 Lattes"
260,260,INSERTION PROFESSIONNELLE,,ADULTE,,,ENTREPRISE ADAPTEE APF ENTREPRISES 34,"ZAC PARC EUREKA 301, AVENUE DU WALHALLA 34000 MONTPELLIER",,,,04 67 92 87 19,,3.915125,43.618239,"Avenue du Walhalla, 34000 Montpellier"
261,261,INSERTION PROFESSIONNELLE,,ADULTE,,,ENTREPRISE ADAPTEE DE LETANG DE LOR,"650, RUE BLAISE PASCAL  BP 52 P.A. LA GARRIGUE 34172 CASTELNAU LE LEZ",,,,04 67 02 92 80,,3.919928,43.644509,"650 Avenue Blaise Pascal, 34170 Castelnau-le-Lez"
262,262,INSERTION PROFESSIONNELLE,,ADULTE,,,ENTREPRISE ADAPTEE DES HAUTES GARRIGUES,ZAE ROUTE DE FROUZET 34080 SAINT MARTIN DE LONDRES,,,,04 67 55 15 99,,3.733133,43.794669,"Route de Frouzet, 34380 Saint-Martin-de-Londres"
263,263,INSERTION PROFESSIONNELLE,,ADULTE,,,ENTREPRISE ADAPTEE EAOS SERVICES," 212, RUE DE LARTISANAT 34400 LUNEL""",,,,04 67 42 41 79,,4.11911,43.677838,"212 Rue de l'Industrie, 34400 Lunel"
264,264,INSERTION PROFESSIONNELLE,,ADULTE,,,ENTREPRISE ADAPTEE GDEAS,"625, RUE DE LA SALADELLE 34130 SAINT-AUNES",,,,04 67 10 93 12,,3.982168,43.65096,"625 Avenue des Saladelles, 34130 Saint-Aunès"
265,265,INSERTION PROFESSIONNELLE,,ADULTE,,,ENTREPRISE ADAPTEE HANKOR PVC," ZAE LES TANNES BASSES 34800 CLERMONT LHERAULT""",,,,04 67 88 05 70,,3.454104,43.618137,"Zone Artisanale Tannes Basses, 34800 Clermont-l'Hérault"
266,266,INSERTION PROFESSIONNELLE,,ADULTE,,,ENTREPRISE ADAPTEE LATELIER DU PAPIER SOLEIL,"ZI DE LA LAUZE 33, RUE SAINT EXUPERY 34430 SAINT JEAN DE VEDAS",,,,04 99 53 36 83,,3.841105,43.562684,"33 Rue Antoine de Saint Exupery, 34430 Saint-Jean-de-Védas"
267,267,INSERTION PROFESSIONNELLE,,ADULTE,,,ENTREPRISE ADAPTEE LES ATELIERS DE LA VALLEE DE LHERAULT,"5, CHEMIN DES USINES 34510 FLORENSAC",,,,04 67 77 01 39,,3.473991,43.387703,"5 Chemin des Usines, 34510 Florensac"
268,268,INSERTION PROFESSIONNELLE,,ADULTE,,,ENTREPRISE ADAPTEE LES ATELIERS DE SAPORTA,DOMAINE DE SAPORTA 34970 LATTES,,,,04 67 92 12 15,,3.880279,43.575081,"Chemin de Saporta, 34970 Lattes"
269,269,INSERTION PROFESSIONNELLE,,ADULTE,,,ENTREPRISE ADAPTEE NODIXIA RECYCLING SERVICES,"590, RUE DU ROUCAGNIER ZAC DU ROUCAGNIER 34400 LUNEL",,,,04 99 51 27 68,,4.078314,43.676615,"590 Rue du Roucagnier, 34400 Lunel-Viel"
270,270,INSERTION PROFESSIONNELLE,,ADULTE,,,ENTREPRISE ADAPTEE PLANETECO RECYCLAGE,"Z.I. DE LA LAUZE 33, RUE SAINT-EXUPERY 34330 SAINT JEAN DE VEDAS",,,,06 75 57 36 09,,3.841105,43.562684,"33 Rue Antoine de Saint Exupery, 34430 Saint-Jean-de-Védas"
271,271,INSERTION PROFESSIONNELLE,,ADULTE,,,ENTREPRISE ADAPTEE TALARON SERVICES," BAT. HELENE\n222, RUE DODIN 34000 MONTPELLIER""",,,,04 11 28 00 30,,3.875835,43.609151,"Rue de Vallat, 34000 Montpellier"
272,272,INSERTION PROFESSIONNELLE,,ADULTE,,,ENTREPRISE ADAPTEE TRIADE AVENIR SUD,169 CHEMIN DES THERMES 34170 CASTELNAU LE LEZ,,,,04 67 72 67 55,,3.924192,43.631205,"169 Chemin des Thermes, 34170 Castelnau-le-Lez"
273,273,INSERTION PROFESSIONNELLE,,ADULTE,,,ENTREPRISE ADAPTEE VIA EUROPA," ZAE VIA EUROPA 3, AVENUE DE LEUROPE 34350 VENDRES""",,,,04 67 39 49 68,,3.218983,43.300323,"3 Avenue de l'Europe, 34350 Vendres"
274,274,INSERTION PROFESSIONNELLE,,ADULTE,,,CENTRE DE REEDUCATION ET DINSERTION PROFESSIONNELLE (CRIP),435 AVENUE GEORGES FRECHE CS 10010 34173 CASTELNAU LE LEZ,,,,04 67 33 18 00,,3.903767,43.626405,"435 Avenue Georges Frêche, 34170 Castelnau-le-Lez"
275,275,INSERTION PROFESSIONNELLE,,ADULTE,,,PREORIENTATION,"435, AVENUE GEORGES FRECHE CS 10010 34173 CASTELNAU LE LEZ",,,,04 67 33 18 00,,3.903767,43.626405,"435 Avenue Georges Frêche, 34170 Castelnau-le-Lez"
276,276,INSERTION PROFESSIONNELLE,,ADULTE,,,UNITE DE REINSERTION DES TRAUMATISES (URT),BP 3 34240 LAMALOU LES BAINS,,,,04 67 23 56 07,,3.084148,43.597224,"Lamalou-les-Bains, 34240 Lamalou-les-Bains"
277,277,INSERTION PROFESSIONNELLE,,ADULTE,,,CENTRE DE REEDUCATION ET DINSERTION PROFESSIONNELLE (CRIP),435 AVENUE GEORGES FRECHE CS 10010 34173 CASTELNAU LE LEZ,,,,04 67 33 18 00,,3.903767,43.626405,"435 Avenue Georges Frêche, 34170 Castelnau-le-Lez"
278,278,INSERTION PROFESSIONNELLE,,ADULTE,,,PREORIENTATION,"435, AVENUE GEORGES FRECHE CS 10010 34173 CASTELNAU LE LEZ",,,,04 67 33 18 00,,3.903767,43.626405,"435 Avenue Georges Frêche, 34170 Castelnau-le-Lez"
279,279,INSERTION PROFESSIONNELLE,,ADULTE,,,UEROS,"435, AVENUE GEORGES FRECHE CS 10010 34173 CASTELNAU LE LEZ",,,,04 67 33 18 00,,3.903767,43.626405,"435 Avenue Georges Frêche, 34170 Castelnau-le-Lez"
280,280,SERVICES DACCOMPAGNEMENT,,ADULTE,,,SAVS - SIMES (SERVICE DINTERPRETATION DE MEDIATION POUR SOURD),"866, AVENUE DU PROFESSEUR LOUIS RAVAS IMMEUBLE LE MAZET 34080 MONTPELLIER",,,,04 67 60 21 54,,3.829406,43.636682,"Avenue Professeur Jean-louis Viala, 34080 Montpellier"
281,281,SERVICES DACCOMPAGNEMENT,,ADULTE,,,SAVS AIRIS,"100, RUE LEJZER ZAMENHOF 34080 MONTPELLIER",,,,04 67 75 04 65,,3.825962,43.616098,"100 Rue Lejzer Zamenhof, 34080 Montpellier"
282,282,SERVICES DACCOMPAGNEMENT,,ADULTE,,,SAVS APF - LE CAP POLE EST,"7, RUE DE LANTISSARGUES 34070 MONTPELLIER",,,,04 67 10 42 82,,3.885583,43.588004,"7 Rue du Lantissargues, 34070 Montpellier"
283,283,SERVICES DACCOMPAGNEMENT,,ADULTE,,,SAVS APF - LE CAP POLE OUEST,CENTRE SAINT PIERRE 34290 MONTBLANC,,,,04 67 31 12 53,,3.372197,43.405799,"Domaine de Saint Pierre, 34290 Montblanc"
284,284,SERVICES DACCOMPAGNEMENT,,ADULTE,,,SAVS CENTRE HERAULT,"10, RUE LAENNEC  BP 100 34120 PEZENAS",,,,04 67 90 43 23,,3.422997,43.455944,"10 Rue Rene Laennec, 34120 Pézenas"
285,285,SERVICES DACCOMPAGNEMENT,,ADULTE,,,SAVS DE PLAISANCE,34610 SAINT GENIES DE VARENSAL,,,,04 67 23 33 23,,3.015713,43.683727,"Saint-Geniès-de-Varensal, 34610 Saint-Geniès-de-Varensal"
286,286,SERVICES DACCOMPAGNEMENT,,ADULTE,,,SAVS FRESCATIS,"19, LOTISSEMENT RIEUCROS 34330 LA SALVETAT SUR AGOUT",,,,04 67 97 87 93,,2.697448,43.602328,"19 Rue Rieucros, 34330 La Salvetat-sur-Agout"
287,287,SERVICES DACCOMPAGNEMENT,,ADULTE,,,SAVS LE CAROUX,"1, RUE DES FRERES 34330 LA SALVETAT SUR AGOUT",,,,04 67 97 87 90,,2.703127,43.600635,"1 Rue des Freres, 34330 La Salvetat-sur-Agout"
288,288,SERVICES DACCOMPAGNEMENT,,ADULTE,,,SAVS LIS AURETO,"1804, AVENUE DU PERE SOULAS 34090 MONTPELLIER",,,,04 67 02 25 62,,3.84971,43.625814,"1804 Avenue du Père Soulas, 34090 Montpellier"
289,289,SERVICES DACCOMPAGNEMENT,,ADULTE,,,SAVS LOU CAMIN,RUE PIERRE FLOURENS  PARC EUROMEDECINE II - BAT C 34090 MONTPELLIER,,,,04 67 04 00 30,,3.87818,43.617316,"Rue de Ferrare, 34090 Montpellier"
290,290,SERVICES DACCOMPAGNEMENT,,ADULTE,,,SAVS MA RESIDENCE,"16, AVENUE DE LA GARDIE 34510 FLORENSAC",,,,04 67 77 00 65,,3.473506,43.390776,"16 Avenue de la Gardie, 34510 Florensac"
291,291,SERVICES DACCOMPAGNEMENT,,ADULTE,,,SAVS TERRITOIRE DU LUNELLOIS,"450, AVENUE DES ABRIVADOS  CENTRE ATHENA - BT. B 34400 LUNEL",,,,04 67 83 65 42,,4.1282,43.669302,"450 Avenue des Abrivados, 34400 Lunel"
292,292,SERVICES DACCOMPAGNEMENT,,ADULTE,,,SAVS TONY LAINE,"1882, RUE DE MALBOSC  PARC EUROMEDECINE II 34080 MONTPELLIER",,,,04 67 58 69 32,,3.83349,43.625162,"Rue de Malbosc, 34080 Montpellier"
293,293,SERVICES DACCOMPAGNEMENT,,ADULTE,,,SAMSAH - SAPPA (SERVICE DADAPTATION POUR PERSONNES AVEUGLES GRAVEMENT MALVOYANTES) DE LA FAF-LR,"420, ALLEE HENRI II DE MONTMORENCY 34000 MONTPELLIER",,,,04 67 50 50 60,,3.888402,43.610155,"420 Allée Henri II de Montmorency, 34000 Montpellier"
294,294,SERVICES DACCOMPAGNEMENT,,ADULTE,,,SAMSAH APF,"7, RUE DE LANTISSARGUES 34070 MONTPELLIER",,,,04 67 10 42 82,,3.885583,43.588004,"7 Rue du Lantissargues, 34070 Montpellier"
295,295,SERVICES DACCOMPAGNEMENT,,ADULTE,,,SAMSAH APF - MONTBLANC,CENTRE SAINT PIERRE 34290 MONTBLANC,,,,04 67 31 12 53,,3.372197,43.405799,"Domaine de Saint Pierre, 34290 Montblanc"
296,296,SERVICES DACCOMPAGNEMENT,,ADULTE,,,SAMSAH AVH,"22, boulevard Yves Nat 34500 BEZIERS",,,,04 67 93 36 34,,3.230215,43.349005,"22 Boulevard Yves Nat, 34500 Béziers"
297,297,SERVICES DACCOMPAGNEMENT,,ADULTE,,,SAMSAH GIHP,1 CHEMIN DE BORIE - PARC DE BELLEGARDE 34170 CASTELNAU LE LEZ,,,,04 67 02 93 31,,,,
298,298,SERVICES DACCOMPAGNEMENT,,ADULTE,,,SAMSAH LES VENTS DU SUD,"95, RUE PIERRE FLOURENS  BAT.C 34090 MONTPELLIER",,,,04 67 04 33 80,,3.832109,43.637628,"95 Rue Pierre Flourens, 34000 Montpellier"
299,299,SERVICES DACCOMPAGNEMENT,,ADULTE,,,SAMSAH TONY LAINE,"1882, RUE DE MALBOSC  PARC EUROMEDECINE II 34080 MONTPELLIER",,,,04 67 58 69 32,,3.83349,43.625162,"Rue de Malbosc, 34080 Montpellier"
300,300,SERVICES DACCOMPAGNEMENT,,ADULTE,,,CLUB DACCUEIL GEM BEZIERS,"26, AVENUE JEAN MOULIN 34500 BEZIERS",,,,04 67 90 24 79,,3.227638,43.350089,"26 Avenue Jean Moulin, 34500 Béziers"
301,301,SERVICES DACCOMPAGNEMENT,,ADULTE,,,CLUB DACCUEIL GEM GAMBETTA,"12 BIS, BOULEVARD PASTEUR 34000 MONTPELLIER",,,,04 67 57 77 13,,3.874862,43.6154,"Boulevard Pasteur, 34000 Montpellier"
302,302,SERVICES DACCOMPAGNEMENT,,ADULTE,,,CLUB DACCUEIL GEM LESSEPS,"356, RUE FERDINAND DE LESSEPS 34000 MONTPELLIER",,,,04 67 58 83 57,,3.878392,43.593093,"356 Rue Ferdinand de Lesseps, 34070 Montpellier"
303,303,SERVICES DACCOMPAGNEMENT,,ADULTE,,,GEM JANUS 34,"1445, ROUTE DE MENDE 34090 MONTPELLIER",,,,04 67 04 87 68,,3.86816,43.63508,"1445 Route de Mende, 34090 Montpellier"
304,304,SERVICES DACCOMPAGNEMENT,,ADULTE,,,GEM LES BEAUX-ARTS DES T.C.,"134, RUE DE THEBES 34000 MONTPELLIER",,,,04 67 92 57 37,,3.888904,43.608748,"134 Rue de Thèbes, 34000 Montpellier"
305,305,SERVICES DACCOMPAGNEMENT,,ADULTE,,,GEM RABELAIS - CLUB SERVICES LOISIRS,"49, BOULEVARD RABELAIS 34000 MONTPELLIER",,,,04 67 99 65 04 / 06 16 73 40 78,,3.883964,43.601772,"49 Boulevard Rabelais, 34000 Montpellier"
306,306,CENTRES COMMUNAUX DACTION SOCIALE,,,,,BAILLARGUES (34670) : CCAS BAILLARGUES,25 PLACE DE THERMIDOR 34000 MONTPELLIER,"43,6019239","3,8989501",,04 67 87 81 76,,3.898473,43.601524,"Place Thermidor, 34000 Montpellier"
307,307,CENTRES COMMUNAUX DACTION SOCIALE,,,,,BESSAN (34550) : CCAS BESSAN,PLACE DE LHOTEL DE VILLE 34550 BESSAN,"43,3583044","3,4259519",,04 67 00 81 81,,3.42836,43.361148,"Place de la Promenade, 34550 Bessan"
308,308,CENTRES COMMUNAUX DACTION SOCIALE,,,,,BEZIERS (34500) : CCAS DE BEZIERS,14 RUE BOIELDIEU 34500 BEZIERS,"43,3429654","3,2176374",,04 67 49 84 60,,3.217499,43.342905,"14 Rue Boieldieu, 34500 Béziers"
309,309,CENTRES COMMUNAUX DACTION SOCIALE,,,,,CAPESTANG (34310) : CCAS DE CAPESTANG,Mairie 34310 CAPESTANG,"43,3282585","3,043313",,04 67 93 30 05,,3.045233,43.318087,"Capestang, 34310 Capestang"
310,310,CENTRES COMMUNAUX DACTION SOCIALE,,,,,CASTELNAU LE LEZ (34170) : CCAS DE CASTELNAU-LE-LEZ,2 RUE DE LA CROUZETTE 34170 CASTELNAU LE LEZ,"43,632678","3,8980111",,04 67 14 27 28,,3.898007,43.632666,"2 Rue de la Crouzette, 34170 Castelnau-le-Lez"
311,311,CENTRES COMMUNAUX DACTION SOCIALE,,,,,CLERMONT L HERAULT (34800) : CCAS CLERMONT LHERAULT,PLACE DE LA MAIRIE 34800 CLERMONT L HERAULT,"43,6274737","3,429669",,04 67 88 87 18,,3.429765,43.62752,"Rue de la Mairie, 34800 Clermont-l'Hérault"
312,312,CENTRES COMMUNAUX DACTION SOCIALE,,,,,FRONTIGNAN (34110) : CCAS DE FRONTIGNAN,12 AVENUE JEAN MOULIN 34110 FRONTIGNAN,"43,4475236","3,7497975",,04 67 18 50 03,,3.74972,43.447429,"12 Avenue Jean Moulin, 34110 Frontignan"
313,313,CENTRES COMMUNAUX DACTION SOCIALE,,,,,GIGNAC (34150) : CCAS GIGNAC,MAIRIE PLACE DE LANCIENNE GENDARMERIE 34150 GIGNAC,"43,6530197","3,5511947",,04 67 57 50 02,,,,
314,314,CENTRES COMMUNAUX DACTION SOCIALE,,,,,LAURENS (34480) : CCAS DE LAURENS,1 RUE DU CHÂTEAU 34480 LAURENS,"43,5239474","3,1967846",,04 67 90 28 02,,3.196881,43.523889,"1 Rue du Chateau, 34480 Laurens"
315,315,CENTRES COMMUNAUX DACTION SOCIALE,,,,,LE POUGET (34230) : CCAS LE POUGET,Mairie 34230 LE POUGET,"43,5909526","3,5254828",,04 67 96 71 09,,3.518426,43.600562,"Le Pouget, 34230 Le Pouget"
316,316,CENTRES COMMUNAUX DACTION SOCIALE,,,,,LODEVE (34700) : CCAS DE LODEVE,Mairie 34700 LODEVE,"43,7324703","3,3172596",,04 67 44 00 17,,3.303781,43.732736,"Lodève, 34700 Lodève"
317,317,CENTRES COMMUNAUX DACTION SOCIALE,,,,,MARAUSSAN (34370) : CCAS DE MARAUSSAN,CCAS DE MARAUSSAN 34370 MARAUSSAN,"43,3689555","3,1552606",,04 67 90 09 20,,3.161162,43.373046,"Chemin de la Maraussane, 34370 Maraussan"
318,318,CENTRES COMMUNAUX DACTION SOCIALE,,,,,MEZE (34140) : CCAS MEZE,MAIRIE PLACE MASSAL 34140 MEZE,"43,4255947","3,6070267",,04 67 43 60 67,,3.600346,43.425957,"Place Massal, 34140 Mèze"
319,319,CENTRES COMMUNAUX DACTION SOCIALE,,,,,MONTAGNAC (34530) : CCAS MONTAGNAC,6 PLACE EMILE COMBES 34530 MONTAGNAC,"43,4800635","3,4840008",,04 67 49 86 86,,3.48395,43.480044,"6 Place Emile Combes, 34530 Montagnac"
320,320,CENTRES COMMUNAUX DACTION SOCIALE,,,,,MONTPELLIER (34000) : CCAS MONTPELLIER,CCAS MONTPELLIER 125 PLACE DE THERMIDOR BP 9511 34000 MONTPELLIER,"43,6021369","3,8991452",,04 99 52 77 00,,3.899355,43.601954,"125 Place Thermidor, 34000 Montpellier"
321,321,CENTRES COMMUNAUX DACTION SOCIALE,,,,,MURVIEL LES BEZIERS (34490) : CCAS MURVIEL LES BEZIERS,CCAS MURVIEL LES BEZIERS MAIRIE PLACE GEORGES CLEMENCEAU 34490 MURVIEL LES BEZIERS,"43,4399282","3,1436333",,,,3.14371,43.439977,"Place Georges Clemenceau, 34490 Murviel-lès-Béziers"
322,322,CENTRES COMMUNAUX DACTION SOCIALE,,,,,NEZIGNAN L EVEQUE (34120) : CCAS NEZIGNAN LEVEQUE,MAIRIE AVENUE TOURBES 34120 NEZIGNAN L EVEQUE,"43,4221707","3,4063998",,,,3.407014,43.421419,"Avenue de Tourbes, 34120 Nézignan-l'Évêque"
323,323,CENTRES COMMUNAUX DACTION SOCIALE,,,,,PAULHAN (34230) : CCAS PAULHAN,CCAS PAULHAN MAIRIE 19 COUR NATIONAL 34230 PAULHAN,"43,5398143","3,4583468",,,,3.461136,43.54116,"19 Cours National, 34230 Paulhan"
324,324,CENTRES COMMUNAUX DACTION SOCIALE,,,,,PEZENAS (34120) : CCAS PEZENAS,CCAS PEZENAS 6 RUE MASSILLON 34120 PEZENAS,"43,4597291","3,4216633",,,,3.421826,43.459673,"6 Rue Massillon, 34120 Pézenas"
325,325,CENTRES COMMUNAUX DACTION SOCIALE,,,,,SAINT BAUZILLE DE LA SYLVE (34230) : CCAS ST BAUZILLE DE LA SYLVE,CCAS ST BAUZILLE DE LA SYLVE 34230 SAINT BAUZILLE DE LA SYLVE,"43,616729","3,548027",,,,3.543966,43.615988,"Le Sigala Bas, 34230 Saint-Bauzille-de-la-Sylve"
326,326,CENTRES COMMUNAUX DACTION SOCIALE,,,,,SAINT PARGOIRE (34230) : CCAS SAINT PARGOIRE,MAIRIE 34230 SAINT PARGOIRE,"43,528019","3,518761",,,,3.518964,43.528346,"Place de la Mairie, 34230 Saint-Pargoire"
327,327,CENTRES COMMUNAUX DACTION SOCIALE,,,,,SAINT THIBERY (34630) : CCAS SAINT THIBERY,CCAS SAINT THIBERY MAIRIE 34630 SAINT THIBERY,"43,3898738","3,4044187",,,,3.418668,43.396809,"Rue de la Mairie, 34630 Saint-Thibéry"
328,328,CENTRES COMMUNAUX DACTION SOCIALE,,,,,SERVIAN (34290) : CCAS SERVIAN,70 GRAND RUE 34290 SERVIAN,"43,4271109","3,294973",,,,3.303193,43.425867,"70 Grand Rue, 34290 Servian"
329,329,CENTRES COMMUNAUX DACTION SOCIALE,,,,,SETE (34200) : CCAS SETE,8 RUE GABRIEL PERI 34200 SETE,"43,4053353","3,6957346",,,,3.695707,43.405287,"8 Rue Gabriel Peri, 34200 Sète"
330,330,CENTRES COMMUNAUX DACTION SOCIALE,,,,,TEYRAN (34820) : CCAS TEYRAN,MAIRIE PLACE DE LEGLISE 34820 TEYRAN,"43,721696","3,92395",,,,3.927314,43.682618,"Place de l'Europe, 34820 Teyran"
331,331,CENTRES COMMUNAUX DACTION SOCIALE,,,,,THEZAN LES BEZIERS (34490) : CCAS THEZAN LES BEZIERS,CCAS THEZAN LES BEZIERS 34490 THEZAN LES BEZIERS,"43,421409","3,169755",,,,3.159283,43.399269,"Chemin de la Bedissiere, 34490 Thézan-lès-Béziers"
332,332,CENTRES COMMUNAUX DACTION SOCIALE,,,,,VENDRES (34350) : CCAS VENDRES,CCAS VENDRES 34350 VENDRES,"43,269435","3,225202",,,,3.259214,43.236351,"La Yole, 34350 Vendres"
333,333,CENTRES COMMUNAUX DACTION SOCIALE,,,,,VILLENEUVE LES BEZIERS (34420) : CCAS DE VILLENEUVE LES BEZIERS,1 RUE MARIANNE 34420 VILLENEUVE LES BEZIERS,"43,320774","3,284153",,,,3.281152,43.316451,"Rue de la Marianne, 34420 Villeneuve-lès-Béziers"
334,334,CENTRES COMMUNAUX DACTION SOCIALE,,,,,VILLENEUVE LES MAGUELONE (34750) : CCAS VILLENEUVE LES MAGUELONNE,CCAS VILLENEUVE LES MAGUELONNE BP 15 34750 VILLENEUVE LES MAGUELONE,"43,532977","3,862019",,,,3.861823,43.531844,"Impasse de la Rue Neuve, 34750 Villeneuve-lès-Maguelone"
335,335,CULTURE,,,,,MAISONS POUR TOUS ,,,,,,https://www.montpellier.fr/3791-maisons-pour-tous.htm,,,
336,336,ACTIVITÉS EN MILIEU ORDINAIRE,,,,,ACTIVITÉS  INCLUSION LOISIRS  ,,,,,,https://www.halte-pouce.fr/ressources/profitez-davantage-des-activites-en-milieu-ordinaire,,,
337,337,SECTEUR SOCIAL,,,,,ANTENNES DE LA SOLIDARITÉ,,,,,,https://www.halte-pouce.fr/ressources/les-antennes-de-la-solidarite-pres-de-chez-vous,,,
338,338,ASSOCIATIONS,FÉDÉRATION,,,,COMITÉ DE LIAISON,,,,,,https://clcph.fr/category/association/,,,
339,339,ASSOCIATIONS,DANSE,,,,MANQUE PAS DAIR,1 rue de Roussel - 34150 Puéchabon,"43,7144213","3,6172121",,06 37 08 97 67,https://www.halte-pouce.fr/ressources/lassociation-manque-pas-dair-accueille-la-difference,3.617263,43.714407,"1 Rue de Roussel, 34150 Puéchabon"
340,340,ASSOCIATIONS,NATURE,,,,CENTRE DE PLEINE NATURE,4 avenue du chemin neuf  34190SAINT-BAUZILLE-DE-PUTOIS,"43,9049666","3,7374796",,04 67 73 70 30,https://www.halte-pouce.fr/ressources/centre-de-pleine-nature-station-cevennes,3.737465,43.904321,"4 Avenue du Chemin Neuf, 34190 Saint-Bauzille-de-Putois"
341,341,ASSOCIATIONS,ESPACE JEUX,,,,SENSAS,,,,,06 18 78 37 40  ,https://www.halte-pouce.fr/ressources/sensas-un-lieu-unique-pour-mettre-vos-5-sens-a-lepreuve-en-famille-et-soutenir-halte-pouce,,,
342,342,ASSOCIATIONS,AUTISME ASPERGER,,,,CAFÉ ATYPIE,,,,,,https://www.halte-pouce.fr/ressources/un-cafe-asperger-un-mardi-sur-deux-a-montpellier,,,
343,343,ASSOCIATIONS,SURDITÉ,,,,SURDI 34,"57, rue Raymond-Dugrand 34000  MONTPELLIER","43,6051382","3,8995172",,07 87 63 49 69,https://www.surdi34.fr/,3.900144,43.603117,"Avenue Raymond Dugrand, 34000 Montpellier"
344,344,ASSOCIATIONS,NATATION,,,,SWIMMING COOL,,,,,06 09 08 06 87,https://www.halte-pouce.fr/ressources/Piscine-et-handicap-a-Montpellier,,,
345,345,ASSOCIATIONS,RANDONNÉES,,,,M.O.H.I.C.A.N.S,,,,,06 99 77 80 39 ,https://www.halte-pouce.fr/ressources/Association-Mohicans,,,
346,346,ASSOCIATIONS,LOISIRS ,,,,AU PAYS DES CARRIOLES,Mas Amadou - 34150 La Boissière,"43,635174","3,626126",,04 67 59 64 14,https://www.halte-pouce.fr/ressources/au-pays-des-carrioles-un-parc-de-loisirs-insolite-et-accessible-a-la-boissiere,3.626144,43.635362,"Mas Amadou, 34150 La Boissière"
347,347,ASSOCIATIONS,LOISIRS - RENCONTRE,,,,UN SOURIRE EN CHANTANT,,,,,06 09 38 13 50 ,https://www.halte-pouce.fr/ressources/lassociation-un-sourire-en-chantant,,,
348,348,ASSOCIATIONS,ATELIERS,,,,SAUDADE,7 rue pages Montpellier 34000,"43,6084729","3,8663853",,06 21 70 41 63,https://www.halte-pouce.fr/ressources/association-saudade-des-ateliers-ouverts-a-toutes-les-differences,3.866439,43.608519,"7 Rue Pagès, 34070 Montpellier"
349,349,ASSOCIATIONS,ATELIERS,,,,ATELIERS ADAPTÉS,Maison des jeunes et de la culture de Teyran,"43,682702","3,925559",,06 81 21 69 09,https://www.halte-pouce.fr/ressources/ateliers-adaptes-tous-handicaps-a-teyran,-0.668759,44.906982,"Rue de la Maison des Jeunes, 33320 Le Taillan-Médoc"
350,350,ASSOCIATIONS,SPORTS,,,,HANDISPORT,67 rue des Razeteurs 34070 Montpellier,"43,5956654","3,8842673",,04 67 67 38 99,https://www.halte-pouce.fr/ressources/montpellier-club-handisport-mch-34-tous-faits-pour-le-sport,3.884113,43.595533,"67 Rue des Razeteurs, 34070 Montpellier"
351,351,ASSOCIATIONS,ÂNES,,,,HANDI-ÂNE,"36, avenue J-B Dumas - 30100 ALES","44,1355499","4,0811653",,06 65 64 85 40,https://www.halte-pouce.fr/ressources/balades-adaptees-a-dos-danes-association-handiane,4.081109,44.135483,"36 Avenue Jean Baptiste Dumas, 30100 Alès"
352,352,ASSOCIATIONS,PARENTALITÉ,,,,PARENTALITÉ 34,260 rue du Puech Radier 34970 Lattes – Montpellier,"43,578146","3,8795703",,06 11 93 42 63,https://www.halte-pouce.fr/ressources/parentalite-34,3.87951,43.57816,"260 Rue du Puech Radier, 34970 Lattes"
353,353,ASSOCIATIONS,LOISIRS - RENCONTRES,,,,YARRIVAREM,"53 bis, rue Clément Mirabel - 34660 COURNONTERRAL","43,5578009","3,7215849",,,https://www.halte-pouce.fr/ressources/association-yarrivarem-34,3.723268,43.557826,"53 bis Rue Clement Mirabel, 34660 Cournonterral"
354,354,ASSOCIATIONS,DANSE,,,,MOZAÏK,,,,,06 11 59 38 86,https://www.halte-pouce.fr/ressources/association-mozaik-danse,,,
355,355,ASSOCIATIONS,DYS,,,,APEDYS,,,,,,https://www.halte-pouce.fr/ressources/association-apedys-herault-association-regionale-de-parents-denfants-et-dadultes-dyslexiques,,,
356,356,ASSOCIATIONS,AUTISME,,,,PIC AUTISME,366 alllée du Haut Lirou - 34270 LE TRIADOU,,,,06 29 79 10 37,https://www.halte-pouce.fr/ressources/lassociation-pic-autisme-trisomie-dans-lherault,3.848846,43.737467,"366 Allée du Haut Lirou, 34270 Le Triadou"
357,357,ASSOCIATIONS,LOISIRS - RANDONNÉES,,,,CARAVANE,19 rue Charles Sauvage - 34830 Jacou,,,asso-caravane@orange.fr,,https://www.halte-pouce.fr/ressources/association-caravane-34,3.911758,43.65595,"19 Rue Charles Sauvage, 34830 Jacou"
358,358,ASSOCIATIONS,AUTISME,,,,OZ,16 Bd Joliot Curie - 34200 Sète,,,associationoz34@gmail.com,07 83 67 97 81,https://www.halte-pouce.fr/ressources/L-association-OZ-a-Sete,3.671206,43.39585,"16 Boulevard Joliot Curie, 34200 Sète"
359,359,ASSOCIATIONS,ÂNES,,,,BEAU NEZ DÂNE,,,,contact@beaunezdane.com,06 03 35 10 02,https://www.halte-pouce.fr/ressources/association-beau-nez-dAne,,,
360,360,ASSOCIATIONS,ÂNES,,,,TITÂNE,"Aniane - Saint Guilhem le désert, sortie n ° 60 34 150 Gignac",,,ourcival.equitherapie@gmail.com,07 85 95 14 46,https://www.halte-pouce.fr/ressources/Equitherapie-a-gignac,3.553731,43.732809,"Avenue Saint Benoit d'Aniane, 34150 Saint-Guilhem-le-Désert"
361,361,ASSOCIATIONS,CIRQUE+1:1048576,,,,ZÉPÉTRA,153 rue Alphonse Beau De Rochas - 34 170 Castelnau le Lez,,,,04 86 11 11 25,https://www.halte-pouce.fr/ressources/des-cours-adaptes-de-cirque-avec-zepetra-a-castelnau-le-lez,3.928597,43.638532,"153 Rue Alphonse Beau de Rochas, 34170 Castelnau-le-Lez"
362,362,ASSOCIATIONS,MUSIQUE,,,,MUSIKA,15 rue du Mas de Lemasson  RDCH 34070 Montpellier.,,,, 06 99 04 49 49,https://www.halte-pouce.fr/ressources/handi-musique-sur-montpellier-avec-musika,3.868507,43.598503,"15 Rue du Mas de Lemasson, 34070 Montpellier"
363,363,ASSOCIATIONS,MUSIQUE,,,,MUSIQUE & HANDICAP,,,,musique.handicaps.mediterranee@gmail.com,07.69.05.27.87,https://www.halte-pouce.fr/ressources/association-musique-et-handicaps-mediterranee-a-montpellier,,,
364,364,ASSOCIATIONS,ÉQUITHÉRAPIE,,,,LES COLOMBIERS,Mas de Mazet - 34150 GIGNAC,,,,06 50 66 32 52,https://www.halte-pouce.fr/ressources/equitherapie-mediation-animale-a-gignac-34,3.582559,43.651874,"Mas de Mazet, 34150 Gignac"
365,365,ASSOCIATIONS,DYS,,,,DMF,,,,,,https://www.halte-pouce.fr/ressources/association-dyspraxique-mais-fantastique-34-dmf34,,,
366,366,ASSOCIATIONS,ÉQUITHÉRAPIE,,,,POIL DE PAROLE,,,,poildeparole.fd@gmail.com,06 07 03 17 97,https://www.halte-pouce.fr/ressources/POIL-DE-PAROLE-Mediation-animale,,,
367,367,ASSOCIATIONS,INSERTION JEUNES,,,,CAP A CITÉ,4 Avenue de lÉcole dAgriculture Gabriel Buchet - 34000 Montpellier,,,,06 10 90 64 47/  09 84 48 54 28,https://www.halte-pouce.fr/ressources/Association-Cap-A-Cites-a,3.861607,43.612163,"4 Avenue de l'Ecole d'Agriculture-gabriel Buchet, 34000 Montpellier"
368,368,ASSOCIATIONS,RANDONNÉES,,,,HANDICAP ÉVASION,"10, rue du Général Mathieu Dumas - 34000 Montpellier",,,handicapevasion3034@gmail.com,04 67 68 30 38,https://www.halte-pouce.fr/ressources/Handicap-evasion-La-randonnee-pour,3.870233,43.607896,"10 Rue Général Mathieu Dumas, 34000 Montpellier"
369,369,GÎITES ADAPTÉS,,,,,ÉVEIL & PARTAGE,3 rue des Coulmiers - 34620 Puisserguier,,,eveilpartage@sfr.fr,06 28 04 03 19,https://www.halte-pouce.fr/ressources/Eveil-et-partage-gites-de-vacances-pour-sejours-adaptes,3.036657,43.370009,"3 Rue Coulmiers, 34620 Puisserguier"
370,370,GÎITES ADAPTÉS,,,,,JFJV,285 rue Gilles Roberval 30915 NÎMES Cedex 2,,,,04 66 26 91 94,https://www.halte-pouce.fr/ressources/vacances-adaptees-avec-lassociation-je-fais-ce-que-je-veux-jfjv,4.333206,43.828399,"285 Rue Gilles Roberval, 30900 Nîmes"
371,371,GÎITES ADAPTÉS,,,,,REGAINS,,,,,,https://www.halte-pouce.fr/ressources/association-regains-sejours-we-pour-adulte-handicapes-mentaux,,,
372,372,SANTÉ,CONSULTATIONS,,,,HANDICONSULT 34,,,,,,https://www.halte-pouce.fr/ressources/acces-aux-soins-des-personnes-en-situation-de-handicap-handiconsult34,,,
373,373,SANTÉ,ÉQUIPE RELAIS HANDICAPS RARES,,,,ERHR,14 rue Saint Vincent de Paul - 34090 Montpellier,,,,04 67 02 91 86,https://www.halte-pouce.fr/ressources/Equipe-relais-handicaps-rares,3.875509,43.621278,"14 Rue Saint Vincent de Paul, 34090 Montpellier"
374,374,SANTÉ,RÉSEAU MALADIES RARES,,,,VADLR,"59, avenue de Fès (Bât C) 34080 Montpellier / Tramway ligne 1 - Malbosc",,,,04.67.57.05.59,https://www.halte-pouce.fr/ressources/RESEAU-MALADIES-RARES-MEDITERRANEE,3.829827,43.636163,"59 Avenue de Fès, 34080 Montpellier"
375,375,SANTÉ,CENTRE RESSOURCE AUTISME,,,,CRA,,,,,,http://www.autisme-ressources-lr.fr/,,,
376,376,SANTÉ,SEXUALITÉ,,,,APARSA,2 rue Pierre Boissier 34070 MONTPELLIER,,,,04 67 52 41 66,https://www.halte-pouce.fr/ressources/sexualite-handicap-association-aparsa,3.843453,43.606676,"2 Rue Pierre Boissier, 34070 Montpellier"
377,377,SANTÉ,MATÉRIELS ADAPTÉS,,,,LÉTAPE,615 Avenue de Montpellier 34970 LATTES,,,,04 67 22 47 40,https://www.halte-pouce.fr/ressources/letape-aides-techniques-et-perte-dautonomie,3.904146,43.568606,"615 Avenue de Montpellier, 34970 Lattes"
378,378,SANTÉ,AIDANTS,,,,LA PASQUIÈRE,7 Av. du Dr Pezet - 34090 Montpellier,,,,04 67 54 42 30,https://www.halte-pouce.fr/ressources/une-maison-daccueil-des-familles-de-malade-la-pasquiere,3.869505,43.629143,"7 Avenue du Docteur Pezet, 34090 Montpellier"
379,379,SANTÉ,AIDANTS,,,,CLOS DE LA FONTAINE,"65 Cours Libéral Bruant, 34080 Montpellier",,,,04 34 11 12 40,https://www.halte-pouce.fr/ressources/le-clos-de-la-fontaine-aide-aux-aidants,3.826358,43.61389,"65 Cour Libéral Bruant, 34080 Montpellier"
380,380,SANTÉ,CONSULTATION PSY - LSF,,,,GENEVIÈVE SANCHO,14 rue de la République 34070 Montpellier,,,,,https://www.halte-pouce.fr/ressources/psychologue-clinicienne-et-lsf-genevieve-sancho,3.878823,43.60546,"14 Rue de la République, 34000 Montpellier"
381,381,ACCUEILS ALTERNATIFS,ÉCOLE & SESSAD PARENTS-THÈSE,,,,,"ZAC Clément ADER   20, rue des Frères Lumière - 34830 JACOU",,,,04 67 45 63 02,https://www.halte-pouce.fr/ressources/lecole-et-sessad-parents-these-a-jacou-34-specialisee-dans-les-ted,3.903751,43.658055,"20 Rue des Frères Lumière, 34830 Jacou"
382,382,ACCUEILS ALTERNATIFS,AVENIR DES POSSIBLES,,,,,"73, rue Marx Dormoy - 34400 Lunel",,,,06.61.71.73.46,https://www.halte-pouce.fr/ressources/association-avenir-des-possibles-a-lunel-pour-les-autistes-par-les-autistes,4.133,43.676198,"73 Rue Marx Dormoy, 34400 Lunel"
383,383,ACCUEILS ALTERNATIFS,LES ATELIERS DE BENTENAC,,,,,Route des Cabanes - 34130 Mauguio,,,,04 67 29 52 45,https://www.halte-pouce.fr/ressources/Les-Ateliers-de-Bentenac,4.01968,43.593582,"Route des Cabanes, 34130 Mauguio"
384,384,ACCUEILS ALTERNATIFS,ÉCOLE AMÉTHYSTE,,,,,"371 Avenue de l’Evêché de Maguelone, 34250 Palavas-les-Flots",,,,04 67 07 76 27,https://www.halte-pouce.fr/ressources/lecole-amethyste-une-ecole-privee-atypique-a-palavas-les-flots,3.923591,43.524614,"371 Avenue de l'Eveche de Maguelone, 34250 Palavas-les-Flots"
385,385,ACCUEILS ALTERNATIFS,LES ENFANTS DHÉLÈNE,,,,,,,,,,https://www.halte-pouce.fr/actualites/message-du-cesu-appel-a-la-solidarite-des-particuliers-employeurs,,,
386,386,ACCUEILS ALTERNATIFS,COLOCAUTISME,,,,,,,,,06 28 29 40 75,https://www.halte-pouce.fr/ressources/L-association-Col-Oc-Autisme,,,
387,387,SANITAIRE,,ENFANT,,,CAMSP BÉZIERS,AVENUE DE MONSEIGNEUR COSTE 34500 BEZIERS,,,camsp.beziers@ugecam-lrmp.fr,,,3.251712,43.34269,"Avenue Monseigneur Coste, 34500 Béziers"
388,388,SANITAIRE,,ENFANT,,,CAMSP MTP CHU,HÔPITAL SAINT ELOI 80 AVENUE AUGUSTIN FLICHE 34295 MONTPELLIER,,,camps@chu-montpellier.fr,,,3.861329,43.629624,"80 Avenue Augustin Fliche, 34090 Montpellier"
389,389,SANITAIRE,,ENFANT,,,CAMSP SÈTE,62 BOULEVARD CAMILLE BLANC 34200 SETE,,,camspequinoxe.sete@ugecam-lrmp.fr,,,3.666941,43.407307,"62 Boulevard Camille Blanc, 34200 Sète"
390,390,SANITAIRE,,ENFANT,,,CMPP BÉZIERS,AVENUE DE MONSEIGNEUR COSTE 34500 BEZIERS,,,cmpp.beziers@ugecam-lrmp.fr,,,3.251712,43.34269,"Avenue Monseigneur Coste, 34500 Béziers"
391,391,SANITAIRE,,ENFANT,,,CMPP MARCEL FOULCAULT,RESIDENCE LE DIAMANT BT B 419 RUE LEON BLUM 34000 MONTPELLIER,,,cmpp.a1@adages.net,,,3.890873,43.609875,"Rue Léon Blum, 34000 Montpellier"
392,392,SANITAIRE,,ENFANT,,,CMPP MARCEL FOULCAULT,450 AVENUES DES ABRIVADOS 34400 LUNEL,,,,,,4.1282,43.669302,"450 Avenue des Abrivados, 34400 Lunel"
393,393,SANITAIRE,,ENFANT,,,CMPP PAYS CŒUR D'HERAULT,230 AVENUE DU MAS SALAT 34150 GIGNAC,,,,,,3.544416,43.657855,"Avenue du Mas Salat, 34150 Gignac"
394,394,SANITAIRE,,ENFANT,,,CMPP SETE,VILLA MALIBRAN 441 CHEMIN DES CARRIERES 34200 SETE,,,cmppsete@orange.fr,,,3.671162,43.39718,"441 Chemin des Carrieres, 34200 Sète"
395,395,ÉTABLISSEMENTS,,ENFANT,,,EEAP COSTE ROUSSE,43 AVENUE DES BARONNES 34730 PRADES LE LEZ,,,costerousse@adages.net,,,3.872655,43.693229,"43 Avenue des Baronnes, 34730 Prades-le-Lez"
396,396,ÉTABLISSEMENTS,,ENFANT,,,IEM ALEXANDRE JOLLIEN,8 PLACE GENERAL DE GAULLE 34240 LAMALOU LES BAINS,,,,,,3.07754,43.605773,"8 Place du General de Gaulle, 34240 Lamalou-les-Bains"
397,397,ÉTABLISSEMENTS,,ENFANT,,,IEM LA CIGALE,250 AVE VILLARD DE HONNECOURT 30900 NIMES,,,,,,4.327576,43.833107,"250 Avenue Villard de Honnecourt, 30900 Nîmes"
398,398,ÉTABLISSEMENTS,,ENFANT,,,IME LA CARDABELLE,21 AVENUE CASTELNAU 34090 MONTPELLIER,,,la-cardabelle@orange.fr,,,3.882597,43.621463,"21 Avenue de Castelnau, 34090 Montpellier"
399,399,ÉTABLISSEMENTS,,ENFANT,,,IME LA SALETTE,2 RUE PUECH DU FOUR 34600 BEDARIEUX,,,ime.ndlasallette@apeaiouestherault.fr,,,3.160379,43.613446,"2 Rue Puech du Four, 34600 Bédarieux"
400,400,ÉTABLISSEMENTS,,ENFANT,,,IME LA PINÈDE,AVENUE CYRIEN OLIVIER 34830 JACOU,,,ime@lapinede.org,,,3.908847,43.663701,"Avenue Cyprien Olivier, 34830 Jacou"
401,401,ÉTABLISSEMENTS,,ENFANT,,,IME PESCALUNES,111 RUE DES NEFLIERS 34400 LUNEL,,,imp-pescalunes@apei-grandmontpellier.org,,,4.12442,43.688296,"111 Rue des Nefliers, 34400 Lunel"
402,402,ÉTABLISSEMENTS,,ENFANT,,,IME FONTCAUDE,70 RUE DU TIPAZA 34080 MONTPELLIER,,,accueil.fontcaude@ugecam-lrmp.fr,,,3.816671,43.629068,"70 Rue de Tipasa, 34080 Montpellier"
403,403,ÉTABLISSEMENTS,,ENFANT,,,IME CHATEAU D'O,2539 AVENUE PÈRE SOULAS 34000 MONTPELLIER,,,ime-chateaudo@apei-grandmontpellier.org,,,3.842731,43.630295,"2539 Avenue du Père Soulas, 34090 Montpellier"
404,404,ÉTABLISSEMENTS,,ENFANT,,,IME LES MURIERS,1804 AVENUE PÈRE  SOULAS 34000 MONTPELLIER,,,ime-lesmuriers@apei-grandmontpellier.org,,,3.84971,43.625814,"1804 Avenue du Père Soulas, 34090 Montpellier"
405,405,ÉTABLISSEMENTS,,ENFANT,,,IME LES OLIVIERS,695 RUE BOUISSES 34070 MONTPELLIER,,,sms.lesoliviers@adages.net,,,3.833702,43.601975,"695 Rue des Bouisses, 34070 Montpellier"
406,406,ÉTABLISSEMENTS,,ENFANT,,,IME LES SAPINS MARVEJOLS,AVENUE PIERRE SEMARD 48100 MARVEJOLS,,,,,,3.288285,44.548267,"Avenue Pierre Sémard, 48100 Marvejols"
407,407,ÉTABLISSEMENTS,,ENFANT,,,IME SOL'N,18 AVENENUE DE LA GARE 34440 NISSAN LEZ ENSERUNE,,,maison.soln@croix-rouge.fr,,,3.125902,43.291159,"18 Avenue de la Gare, 34440 Nissan-lez-Enserune"
408,408,ÉTABLISSEMENTS,,ENFANT,,,IME L'ENSOLEILLADE,55 AVE DE MONTPELLIER BP 52 34725 SAINT ANDRE DE SANGONIS,,,contact.ime@ensolleillade.asso.fr,,,3.508205,43.6504,"55 Avenue de Montpellier, 34725 Saint-André-de-Sangonis"
409,409,ÉTABLISSEMENTS,,ENFANT,,,IME LES HIRONDELLES,11 AVENUE DU STADE 34440 SAUVIAN,,,ime.leshirondelles@apeaiouestherault.fr,,,3.254113,43.29258,"11 Avenue du Stade, 34410 Sauvian"
410,410,ÉTABLISSEMENTS,,ENFANT,,,IME LA CORNICHE,16 BIS BOULEVARD JOLIOT CURIE 34200 SETE,,,ies@ieslacorniche.fr,,,3.670316,43.395983,"16 bis Boulevard Joliot Curie, 34200 Sète"
411,411,ÉTABLISSEMENTS,,ENFANT,,,ITEP BOURNEVILLE,120 RUE DU MAS PRUNET 34070 MONTPELLIER,,,centre.bourneville@adages.net,,,3.833975,43.599346,"120 Rue du Mas de Prunet, 34070 Montpellier"
412,412,ÉTABLISSEMENTS,,ENFANT,,,ITEP  CAMPESTRE ,1120 ROUTE DE BEDARIEUX  34701 LODEVE,,,,,,3.286123,43.731518,"1120 Route de Bedarieux, 34700 Lodève"
413,413,ÉTABLISSEMENTS,,ENFANT,,,ITEP LANGUEDOC,38 RUE DU MAZET CS40028 34077 MONTPELLIER CEDEX 3,,,itep.languedoc@adages.net,,,3.828479,43.600973,"38 Rue du Mazet, 34070 Montpellier"
414,414,ÉTABLISSEMENTS,,ENFANT,,,ITEP LE MONT LOZERE,ZAC DE LA COURONDELLE 74 RUE MICHELINE OSTERMEYER 34500 BEZIERS,,,,,,3.225163,43.362358,"74 Rue Micheline Ostermeyer, 34500 Béziers"
415,415,ÉTABLISSEMENTS,,ENFANT,,,ITEP NAZARETH,13 RUE DE NAZARRETH BP 24105 34091 MONTPELLIER CEDEX 5,,,inazareth@armeedusalut.fr,,,3.881696,43.622161,"13 Rue de Nazareth, 34090 Montpellier"
416,416,ÉTABLISSEMENTS,,ENFANT,,,IME INSTITUT RAYMOND FAGES,CHEMIN RAYMOND FAGES 34300 AGDE,,,,,,3.483299,43.295653,"Chemin Raymond Fages, 34300 Agde"
417,417,ÉTABLISSEMENTS,,ENFANT,,,IME INSTITUT SAINT HILAIRE,12 AVENUE ALEXANDRE LAVZL 3450 FLORENSAC,,,,,,3.463445,43.385579,"12 Avenue Alexandre Laval, 34510 Florensac"
418,418,ÉTABLISSEMENTS,,ENFANT,,,SÉSAME AUTISME BITTÉROIS,BOULEVARD  CAUTAUSSEL  34440 NISSAN LEZ ENSERNE,,,maison.dubitterois@sesameautismelr.fr,,,3.12415,43.284669,"Boulevard de Cantaussel, 34440 Nissan-lez-Enserune"
419,419,ÉTABLISSEMENTS,,ENFANT,,,MAISON DE MANON,22 RUE DES ROMARINS 34499 JUVIGNAC,,,maison.manon@sesameautismelr.fr,,,3.812822,43.614548,"22 Rue du Romarin, 34990 Juvignac"
420,420,ÉTABLISSEMENTS,,ENFANT,,,LES JARDINS DE BENTENAC,ROUTE DES CABANES 34130 MAUGUIO,,,bentenac@bentenac.fr,,,4.01968,43.593582,"Route des Cabanes, 34130 Mauguio"
421,421,ÉTABLISSEMENTS,,ENFANT,,,CESDA,14 RUE SAINT VINCENT DE PAUL 34090 MONTPELLIER,,,secretariat@cesda34.org,,,3.875509,43.621278,"14 Rue Saint Vincent de Paul, 34090 Montpellier"
422,422,ÉTABLISSEMENTS,,ENFANT,,,CROP PAUL BOUVIER,"CROP, Route d'Alès, 30170 Saint-Hippolyte-du-Fort",,,contact@crop.asso.fr,,,3.862453,43.966404,"Route d'Ales, 30170 Saint-Hippolyte-du-Fort"
423,423,ÉTABLISSEMENTS,,ENFANT,,,COSTE COUSSE,AVENUE BARONNES 34730 PRADES LE LEZ,,,costerousse@adages.net,,,3.870439,43.69001,"Avenue des Baronnes, 34730 Prades-le-Lez"
424,424,SESSAD,,ENFANT,,,SESSAD BORÉAL (AUTISME),AVENUE MONSEIGNEUR COSTE 34500 BEZIERS,,,sessaboreal-iem.beziers@ugecam-lrmp.fr,,,3.251712,43.34269,"Avenue Monseigneur Coste, 34500 Béziers"
425,425,SESSAD,,ENFANT,,,SESSAD BOURDEVILLE,120 RUE DU MAS PRUNET 34070 MONTPELLIER,,,,,,3.833975,43.599346,"120 Rue du Mas de Prunet, 34070 Montpellier"
426,426,SESSAD,,ENFANT,,,SESSAD IR CAMPESTRE,1120 ROUTE DE BEDARIEUX 34701 LODEVE,,,,,,3.286123,43.731518,"1120 Route de Bedarieux, 34700 Lodève"
427,427,SESSAD,,ENFANT,,,SESSAD POUR DEFICIENTS VISUELS UAHV,420 ALLEE HENRI II DE MOMORENCY 34000 MOTPELLIER,,,,,,3.888402,43.610155,"420 Allée Henri II de Montmorency, 34000 Montpellier"
428,428,SESSAD,,ENFANT,,,SESSAD DE L'AGATOIS,CHEMIN RAYMOND FAGES34300 AGDE,,,,,,3.483299,43.295653,"Chemin Raymond Fages, 34300 Agde"
429,429,SESSAD,,ENFANT,,,SESSAD SOL'N,40 RUE DE LA MARGERIDE BAT A 34760 BOUJAN SUR LIBRON,,,sessad.soln34@croixrouge.fr,,,3.254753,43.366289,"40 Rue de la Margeride, 34760 Boujan-sur-Libron"
430,430,SESSAD,,ENFANT,,,PARENTS THÈSE,ZAC CLEMENT ADER 20 RUE DES FRERES LUMIERE 34830 JACOU,,,contact@parents-these.fr,,,3.903751,43.658055,"20 Rue des Frères Lumière, 34830 Jacou"
431,431,SESSAD,,ENFANT,,,SESSAD ENSOLEILLADE,4 QUAI HERCULE COT BP52 34800 CLERMONT L'HERAULT,,,contact.sessad@ensoleillade.asso.fr,,,3.434903,43.626174,"4 Quai Hercule Cot, 34800 Clermont-l'Hérault"
432,432,SESSAD,,ENFANT,,,SESSAD EOLE,AVENUE MONSEIGNEUR COSTE 34500 BEZIERS,,,,,,3.251712,43.34269,"Avenue Monseigneur Coste, 34500 Béziers"
433,433,SESSAD,,ENFANT,,,SESSAD DU CMEE FONCAUDE,70 RUE TIPAZA LA PAILLADE 34080 MONTPELLIER,,,,,,3.816671,43.629068,"70 Rue de Tipasa, 34080 Montpellier"
434,434,SESSAD,,ENFANT,,,SESSAD APEI DE THAU LES HIRONDELLES,RUE LIERLES 34110 FRONTIGNAN,,,sessad@apeidethau.fr,,,3.727621,43.427074,"Rue des Lierles, 34110 Frontignan"
435,435,SESSAD,,ENFANT,,,SESSAD LA PINÈDE,CHEMIN DE LA PINEDE 34830 JACOU,,,sessad@lapinede.org,,,3.908631,43.663621,"Chemin de la Pinede, 34830 Jacou"
436,436,SESSAD,,ENFANT,,,SESSAD LA CARDABELLE,21 AVENUE DE CASTELNAU 34000 MONTPELLIER,,,,,,3.874367,43.609822,"Rue de Castelnau, 34000 Montpellier"
437,437,SESSAD,,ENFANT,,,SESSAD LA CORNICHE PAYS DE THAU,16 BOULEVARD JOLIOT CURIE 34200 SETE,,,,,,3.671206,43.39585,"16 Boulevard Joliot Curie, 34200 Sète"
438,438,SESSAD,,ENFANT,,,SESSAD L'OMBRELLE,11 RUE DU ROMARIN 34990 JUVIGNAC,,,,,,3.812645,43.614581,"11 Rue du Romarin, 34990 Juvignac"
439,439,SESSAD,,ENFANT,,,SESSAD LES HIRONDELLES,54 RUE DES LIERLES CS 97001 34115 FRONTIGNAN,,,,,,3.727621,43.427074,"Rue des Lierles, 34110 Frontignan"
440,440,SESSAD,,ENFANT,,,SESSAD AUTISME LANGUEDOC ROUSSILLON,11 RUE DU ROMARIN 34990 JUVIGNAC,,,secretariat1@sesameautismelr.fr,,,3.812645,43.614581,"11 Rue du Romarin, 34990 Juvignac"
441,441,SESSAD,,ENFANT,,,SESSAD PESCALUNES,31 RUE DU 8 MAI 1945 34400 LUNEL,,,sessad-pescalunes@apeigrandmontpellier.org,,,4.128208,43.675626,"31 Rue du 8 Mai 1945, 34400 Lunel"
442,442,SESSAD,,ENFANT,,,SESSAD NOTRE DAME DE LA SALETTE,2 RUE PUECH DU FOUR BP 34 34600 BEDARIEUX,,,,,,3.160379,43.613446,"2 Rue Puech du Four, 34600 Bédarieux"
443,443,SESSAD,,ENFANT,,,SESSAD MARCEL FOUCAULT,RESIDENCE DIAMANT BT B 419 RUE LEON BLUM 34000 MONTPELLIER,,,,,,3.890873,43.609875,"Rue Léon Blum, 34000 Montpellier"
444,444,SESSAD,,ENFANT,,,SESSAD IME FONT TROUVE,111 RUE DES NEFLIERS 34400 LUNEL,,,,,,4.12442,43.688296,"111 Rue des Nefliers, 34400 Lunel"
445,445,SESSAD,,ENFANT,,,SESSAD ARIEDA,2446 AVENUE DU PÈRE SOULAS 34090 MONTPELLIER,,,contact@arieda.asso.fr,,,3.844029,43.629626,"2446 Avenue du Père Soulas, 34090 Montpellier"
446,446,MAS,,ADULTE,,,MAS ALEXANDRE JOLIEN,ROUTE DE SAINT GERVAIS COMBES 34200 LAMALOU LES BAINS,,,,,,,,
447,447,MAS,,ADULTE,,,MAS APAR - CENTRE  APIGHREM,4 RUE DES OURGOUILLOUS 34270 SAINT MATHIEU DE TREVIERS,,,,,,3.871408,43.766369,"4 Rue des Orgueillous, 34270 Saint-Mathieu-de-Tréviers"
448,448,MAS,,ADULTE,,,MAS CAMILLE CLAUDEL,RUE HECTOR BERLIOZ 34800 CLERMONT L'HERAULT,,,,,,3.421587,43.627322,"Rue Hector Berlioz, 34800 Clermont-l'Hérault"
449,449,MAS,,ADULTE,,,MAS CENTRE SAINT PIERRE,BP 15 34290 MONTBLANC,,,,,,3.364622,43.398616,"Montblanc, 34290 Montblanc"
450,450,MAS,,ADULTE,,,MAS DE MONTFLOURES,TRAVERSEE DE COLOMBIERS 34500  BEZIERS,,,,,,3.191872,43.331747,"Traverse de Colombiers, 34500 Béziers"
451,451,MAS,,ADULTE,,,MAS DU CENTRE PAUL COSTE FLORET,BP3 34240 LAMALOU LES BAINS,,,,,,3.084148,43.597224,"Lamalou-les-Bains, 34240 Lamalou-les-Bains"
452,452,MAS,,ADULTE,,,MAS FONT COLOMBE,509 RUE DU CHÂTEAU BON 34080 MONTPELLIER,,,,,,3.820086,43.618304,"Rue de Font Caude, 34080 Montpellier"
453,453,MAS,,ADULTE,,,MAS LA PARAGE,15 RUE DES AIGUES VIVES BP52 34725 SAINT ANDRE DE SANGONIS,,,,,,3.504845,43.640665,"15 Rue des Aigues Vives, 34725 Saint-André-de-Sangonis"
454,454,MAS,,ADULTE,,,MAS LES IV SEIGNEURS,1082 AVENUE DU PIC SAINT LOUP 34090 MONTPELLIER,,,,,,3.850784,43.638933,"1082 Avenue du Pic Saint Loup, 34090 Montpellier"
455,455,MAS,,ADULTE,,,MAS LES SOLEIL anciennement PROPARA,263  RUE DU CADUCEE PARC EUROMEDECINE 34090 MONTPELLIER,,,,,,3.832599,43.643574,"263 Rue du Caducée, 34090 Montpellier"
456,456,MAS,,ADULTE,,,MAS PAYS DE THAU,1 AVENUE DU PIN 34140 MEZE,,,,,,3.594939,43.421256,"1 Avenue des Pins, 34140 Mèze"
457,457,MAS,,ADULTE,,,MAS PERCE NEIGE,569 AVENUE GEORGES FRECHE 34170 CASTELNAU LE LEZ,,,,,,3.906579,43.626212,"569 Avenue Georges Frêche, 34170 Castelnau-le-Lez"
458,458,MAS,,ADULTE,,,MAS SAINT VITAL,34240 COMBES,,,,,,3.056759,43.604854,"Combes, 34240 Combes"
459,459,FAM,,ADULTE,,,FAM APARD- CENTRE APIGHREM,4 RUE DES OURGOUILLOUS Z.A. LES AVANTS 34271 SAINT MATHIEU DE TREVIERS,,,,,,3.866667,43.76587,"Rue des Avants, 34270 Saint-Mathieu-de-Tréviers"
460,460,FAM,,ADULTE,,,FAM ARCHIPEL DE MASSANE,1855 RUE DE SAINT PRIEST 34090 MONTPELLIER,,,,,,3.831055,43.638882,"1855 Rue Saint-priest, 34090 Montpellier"
461,461,FAM,,ADULTE,,,FAM CENTRE SAINT PIERRE,BP 15 34290 MONTBLANC,,,,,,3.364622,43.398616,"Montblanc, 34290 Montblanc"
462,462,FAM,,ADULTE,,,FAM DE MONTFLOURES,TRAVERSE DE COLOMBIERS 34500 BEZIERS,,,,,,3.191872,43.331747,"Traverse de Colombiers, 34500 Béziers"
463,463,FAM,,ADULTE,,,FAM DOMAINE DE LA BRUYERE,DEPARTEMENTALE 171 34400 SAINT CHRISTAOL,,,,,,4.063055,43.702583,"Chemin Departemental 171, 34400 Entre-Vignes"
464,464,FAM,,ADULTE,,,FAM DU MILLENAIRE,341 RUE HIPPOLYTE FIZEAU ZAC DU MILLENAIRE 34000 MONTPELLIER,,,,,,3.913084,43.614444,"341 Rue Hippolyte Fizeau, 34000 Montpellier"
465,465,FAM,,ADULTE,,,FAM FRESCSTIS,5 CHEMIN D'APPRAT BP35 34220 SAINT PONS DE THOMIERES,,,,,,2.758898,43.485926,"Chemin d'Artenac, 34220 Saint-Pons-de-Thomières"
466,466,FAM,,ADULTE,,,FAM ISABELLE MARIE,RUE DU PUIT DE L'AMOUR 34310 QUARANTE,,,,,,2.957729,43.345851,"Rue du Puits de l'Amour, 34310 Quarante"
467,467,FAM,,ADULTE,,,FAM LE GUILHEM,1804 AVENUE DU PÈRE SOULAS 34000 MONTPELLIER,,,,,,3.84971,43.625814,"1804 Avenue du Père Soulas, 34090 Montpellier"
468,468,FAM,,ADULTE,,,FAM LE HAMEAU DES HORIZONS,41 PLAN DES GUARRIGUES 34830 CLAPIERS,,,,,,3.891134,43.649822,"41 Plan des Garrigues, 34830 Clapiers"
469,469,FAM,,ADULTE,,,FAM LE COTEAU DE SESAME,1 ROUTE DE MARGON 34480 POUZOLLES,,,,,,3.286467,43.481496,"1 Route de Margon, 34480 Pouzolles"
470,470,FAM,,ADULTE,,,FAM LES FONTAINES D'O,71 RUE HENRI NOGUERES PARC EUROMEDECINE 34090 MONTPELLIER,,,,,,3.832726,43.637058,"71 Rue Henri Noguères, 34090 Montpellier"
471,471,FAM,,ADULTE,,,FAM LES IV SEIGNEURS,1082 AVENUE DU PIC SAINT LOUP 34090 MONTPELLIER,,,,,,3.850784,43.638933,"1082 Avenue du Pic Saint Loup, 34090 Montpellier"
472,472,FAM,,ADULTE,,,FAM MAISON PERCE NEIGE,569 AVENUE GEORGES FRECHE 34170 CASTELNAU LE LEZ,,,,,,3.906579,43.626212,"569 Avenue Georges Frêche, 34170 Castelnau-le-Lez"
473,473,FAM,,ADULTE,,,FAM ROBERT FALIU,PLAISANCE 34610 AINT ANDRE DE PARSEVAL,,,,,,3.004367,43.671623,"Lieu Dit Plaisance, 34610 Saint-Geniès-de-Varensal"
474,474,FAM,,ADULTE,,,FAM STRUCTURE HENRI WALLON,285 RUE ROBERT KOCH PARC EUROMEDECINE 34080 MONTPELLIER,,,,,,,,
475,475,FOC ET ATO,,ADULTE,,,FOYER DE VIE ARCHIPEL DE MASSANE,1855 RUE DE SAINT PRIEST PARC EUROMEDECINE 34090 MONTPELLIER,,,,,,3.831055,43.638882,"1855 Rue Saint-priest, 34090 Montpellier"
476,476,FOC ET ATO,,ADULTE,,,FOYER DE CANTAUSSEL ( INTERNAT),TRAVERSE DE COLOMBIERS 34500 BEZIERS,,,,,,3.191872,43.331747,"Traverse de Colombiers, 34500 Béziers"
477,477,FOC ET ATO,,ADULTE,,,FOYER DE VIE CANTAUSSEL MONTFLOURES,RUE DE CANTAUSSEL 34440 NISSAN LEZ ENSERUNE,,,,,,3.12415,43.284669,"Boulevard de Cantaussel, 34440 Nissan-lez-Enserune"
478,478,FOC ET ATO,,ADULTE,,,FOYER DE VIE CENTRE HERAULT,2 RUE DE L'EGALITE 34120 NEZIGNAN L'EVEQUE,,,,,,3.404986,43.421977,"Rue de l'Egalité, 34120 Nézignan-l'Évêque"
479,479,FOC ET ATO,,ADULTE,,,FOYER DE VIE DANIEL MAYER,CHEMIN DES ALICANTES 34400 LUNEL,,,,,,4.124088,43.664082,"Chemin des Alicantes, 34400 Lunel"
480,480,FOC ET ATO,,ADULTE,,,FOYER DE VIE ESPACE CAMILLE CLAUDEL,ZAC DE FONTENAY RUE EDOOOUARD BERLIOZ 34800 CLERMONT L'HERAULT,,,,,,3.470754,43.603592,"ZAC la Salamane, 34800 Clermont-l'Hérault"
481,481,FOC ET ATO,,ADULTE,,,FOYER DE VIE FRESCATIS,CHEMIN D'APPRAT BP35 34220 SAINT PONS DE THOMIERS,,,,,,2.758898,43.485926,"Chemin d'Artenac, 34220 Saint-Pons-de-Thomières"
482,482,FOC ET ATO,,ADULTE,,,FOYER DE VIE HENRI WALLON,285 RUE ROBERT KOCH PARC EUROMEDECINE II 34080 MONTPELLIER,,,,,,,,
483,483,FOC ET ATO,,ADULTE,,,FOYER DE VIE ISABELLE MARIE,RUE DU PUITS DE L'AMOUR 34310 QUARANTE,,,,,,2.957729,43.345851,"Rue du Puits de l'Amour, 34310 Quarante"
484,484,FOC ET ATO,,ADULTE,,,FOYER DE VIE JEAN PIAGET,13 RUE MARECHAL CLERC 34110 FRONTIGNAN LAPEYRADE,,,,,,,,
485,485,FOC ET ATO,,ADULTE,,,FOYER DE VIE L'HORIZON,7 AVENUE DE CASTELNAU 34090 MONTPELLIER,,,,,,3.880371,43.620052,"7 Avenue de Castelnau, 34090 Montpellier"
486,486,FOC ET ATO,,ADULTE,,,FOYER DE VIE LE PARC ( INTERNAT),227 RUE DU MAS DEVILLARET CS35032 34076 MONTPELLIER,,,,,,3.864538,43.591303,"227 Rue du Mas de Villaret, 34070 Montpellier"
487,487,FOC ET ATO,,ADULTE,,,FOYER DE VIE LES ARAMONS,63/175 RUE DU CADUCEE PARC EUROMEDECINE 34195 MONTPELLIER,,,,,,3.8335,43.643267,"175 Rue du Caducée, 34090 Montpellier"
488,488,FOC ET ATO,,ADULTE,,,FOYER DE VIE LES ECUREUILS,268 RUE DU CADUCEE PARC EUROMEDECINE 34195 MONTPELLIER,,,,,,3.835139,43.642663,"Rue du Caducée, 34090 Montpellier"
489,489,FOC ET ATO,,ADULTE,,,FOYER DE VIE LES TERRES BLANCHES ( EXTERNAT),1804 AVENUE DU PÈRE SOULAS 34095 MONTPELLIER,,,,,,3.84971,43.625814,"1804 Avenue du Père Soulas, 34090 Montpellier"
490,490,FOC ET ATO,,ADULTE,,,FOYER DE VIE MARQUEROSE ( INTERNAT),162 RUE DE MARQUEROSE 34000 MONTPELLIER,,,,,,3.872357,43.590481,"162 Rue de la Marquerose, 34070 Montpellier"
491,491,FOC ET ATO,,ADULTE,,,FOYER DE VIE THIERRY ALBOUY,10 RUE EVARISTE GALOIS BP33073 34514 BEZIERS,,,,,,3.248739,43.327917,"10 Rue Evariste Galois, 34500 Béziers"
492,492,AD,,ADULTE,,,ADJAPF - LE CAP POLE EST,7 RUE DE L'ANTISSARGUES 34070 MONTPELLIER,,,,,,3.885171,43.604928,"7 Rue de l'Aire, 34070 Montpellier"
493,493,AD,,ADULTE,,,ADJAPF - LE CAP POLE EST,CENTRE SAINT PIERRE 34290 MONTBLANC,,,,,,3.372197,43.405799,"Domaine de Saint Pierre, 34290 Montblanc"
494,494,AD,,ADULTE,,,ADJAPF DE L'ETANG DE THAU,AVENUE GEORGES GUYNEMER ILE DE THAU -LE CANNAS BP 318 34200 SETE,,,,,,3.660168,43.412519,"Avenue Georges Guynemer, 34200 Sète"
495,495,ESAT FOYER ET HEBERGEMENT,,ADULTE,,,FOYER ESAT CENTRE HERAULT,10 RUE LAENNEC BP110 34120 SETE,,,,,,3.422997,43.455944,"10 Rue Rene Laennec, 34120 Pézenas"
496,496,ESAT FOYER ET HEBERGEMENT,,ADULTE,,,FOYER ESAT DU PLATEAU DES LACS,19 LOTISSEMENT RIEUCROS 34330 LA SALVETAT SUR AGOUT,,,,,,2.697448,43.602328,"19 Rue Rieucros, 34330 La Salvetat-sur-Agout"
497,497,ESAT FOYER ET HEBERGEMENT,,ADULTE,,,FOYER ESAT LE ROC CASTEL,156 RUE DES ECOLES 34520 LE CAYLAR,,,,,,3.318764,43.862478,"156 Rue des Ecoles, 34520 Le Caylar"
498,498,ESAT FOYER ET HEBERGEMENT,,ADULTE,,,FOYER ESAT LES COMPAGNONS DE MAGUELONE,DOMAINE DE MAGUELONE 34250  PALAVAS LES FLOTS,,,,,,3.909685,43.519915,"Route de Maguelone, 34250 Palavas-les-Flots"
499,499,ESAT FOYER ET HEBERGEMENT,,ADULTE,,,FOYER ESAT LES HAUTES GUARRIGUES,230 ALLEE DE L'ESPLANADE 34380 SAINT MARTIN DE LONDRES,,,,,,3.727726,43.788032,"230 Impasse de l'Esplanade, 34380 Saint-Martin-de-Londres"
500,500,ESAT FOYER ET HEBERGEMENT,,ADULTE,,,FOYER ESAT LES LAVANDES,227 RUE DU MAS DE VILLARET CS 35032 34 076 MONTPELLIER,,,,,,3.864538,43.591303,"227 Rue du Mas de Villaret, 34070 Montpellier"
501,501,ESAT FOYER ET HEBERGEMENT,,ADULTE,,,FOYER ESAT PAYS DE THAU,CS 97001 34110 FRONTIGNAN,,,,,,3.749313,43.446357,"Frontignan, 34110 Frontignan"
502,502,ESAT FOYER ET HEBERGEMENT,,ADULTE,,,FOYER ESAT ROBERT BADINTER,CHEMIN DE ALICANTES 34400 LUNEL,,,,,,4.124088,43.664082,"Chemin des Alicantes, 34400 Lunel"
503,503,ESAT FOYER ET HEBERGEMENT,,ADULTE,,,FOYER ESAT ROBERT FALIU,PLAISANCE 34610 SAINT GENIES DE VARESAL,,,,,,3.004367,43.671623,"Lieu Dit Plaisance, 34610 Saint-Geniès-de-Varensal"
504,504,ESAT FOYER ET HEBERGEMENT,,ADULTE,,,FOYER ESAT SEVERINE,24 RUE ARGERNCE RESIDENCE ARGENCE 34500 BEZIERS,,,,,,3.219884,43.350755,"24 Rue Argence, 34500 Béziers"
505,505,ESAT FOYER ET HEBERGEMENT,,ADULTE,,,FOYER ESAT THIEERU ALBOUI,10 RUE EVARISTE GALOIS BP 3073 34514 BEZIERS,,,,,,3.248739,43.327917,"10 Rue Evariste Galois, 34500 Béziers"
506,506,ESAT FOYER ET HEBERGEMENT,,ADULTE,,,FOYER ESAT LES ECUREUILS,268 PARC DU CADUCEE PAR EUROMEDECINE 34195 MONTPELLIER CEDEX 5,,,,,,3.835139,43.642663,"Rue du Caducée, 34090 Montpellier"
507,507,ESAT FOYER ET HEBERGEMENT,,ADULTE,,,FOYER LOGEMENT HENRY WALLON,357 AVENUE DU PROFESSEUR JEAN LOUIS VIALA 34080 MONTPELLIER,,,,,,3.826735,43.63629,"357 Avenue Professeur Jean-louis Viala, 34080 Montpellier"
508,508,ESAT FOYER ET HEBERGEMENT,,ADULTE,,,FOYER LOGEMENT LE BOUQUET DES GUARRIGUES,CS 97001 34110 FRONTIGNAN,,,,,,3.749313,43.446357,"Frontignan, 34110 Frontignan"
509,509,ESAT FOYER ET HEBERGEMENT,,ADULTE,,,FOYER LOGEMENT LE COLIBRI,227 RUE DU MAS DE VILLARET CS 35032 34 076 MONTPELLIER,,,,,,3.864538,43.591303,"227 Rue du Mas de Villaret, 34070 Montpellier"
510,510,ESAT FOYER ET HEBERGEMENT,,ADULTE,,,FOYER LOGEMENT LES COMPAGNONS DE MAGUELONE,DOMAINE DE MAGUELONE 34250  PALAVAS LES FLOTS,,,,,,3.909685,43.519915,"Route de Maguelone, 34250 Palavas-les-Flots"
511,511,ESAT FOYER ET HEBERGEMENT,,ADULTE,,,FOYER LOGEMENT LES GRANDS ARBRES,CHEMIN DE CASSILLAC 34380 VIOLS LE FORT,,,,,,3.705962,43.742002,"Rue de Cassillac, 34380 Viols-le-Fort"
512,512,ESAT FOYER ET HEBERGEMENT,,ADULTE,,,FOYER LOGEMENT LES HAUTES GUARRIGUES,230 ALLEE DE L'ESPLANADE 34380 SAINT MARTIN DE LONDRES,,,,,,3.727726,43.788032,"230 Impasse de l'Esplanade, 34380 Saint-Martin-de-Londres"
513,513,ESAT FOYER ET HEBERGEMENT,,ADULTE,,,FOYER LOGEMENT MA RESIDENCE,18 AVENUE DE LA GARDIE 34510 FLORENSAC,,,,,,3.473506,43.390776,"18 Avenue de la Gardie, 34510 Florensac"
514,514,ESAT FOYER ET HEBERGEMENT,,ADULTE,,,FOYER LOGEMENT PLAISANCE,34610 SAINT GENIES DE VARENSAL,,,,,,3.015713,43.683727,"Saint-Geniès-de-Varensal, 34610 Saint-Geniès-de-Varensal"
515,515,ESAT,,ADULTE,,,SECTION ANNEXE ESAT ATELIERS KENNEDY,285 RUE DU MAS PRUNET 34070 MONTPELLIER,,,,,,3.831113,43.599833,"285 Rue du Mas de Prunet, 34070 Montpellier"
516,516,ESAT,,ADULTE,,,SECTION ANNEXE ESAT DE L'APF,8 RUE DE L'ANTISSARGUES 34070 MONTPELLIER,,,,,,3.885221,43.604855,"8 Rue de l'Aire, 34070 Montpellier"
517,517,ESAT,,ADULTE,,,SECTION ANNEXE ESAT L'ENVOL,369 RUE BLAIZE PASCAL BP 52  P.A. LA GARRIGUE 34172 CASTELNAU LE LEZ,,,,,,3.92007,43.642675,"369 Avenue Blaise Pascal, 34170 Castelnau-le-Lez"
518,518,ESAT,,ADULTE,,,SECTION ANNEXE ESAT LES HAUTES GARRIGUES,ZAE ROUTE DE FROUZET 34380 SAINT MARTIN DE LONDRES,,,,,,3.733133,43.794669,"Route de Frouzet, 34380 Saint-Martin-de-Londres"
519,519,ESAT,,ADULTE,,,SECTION ANNEXE ESAT VIAEUROPA,VIA EUROPA 3 AVENUE DE L'EUROPE 34350 VENDRES,,,,,,3.218983,43.300323,"3 Avenue de l'Europe, 34350 Vendres"
520,520,ESAT,,ADULTE,,,SECTION ANNEXE LES ATELIERS DE SAPORTA,DOMAINE DE SAPORTA 34970 LATTES,,,,,,3.880279,43.575081,"Chemin de Saporta, 34970 Lattes"
521,521,CRP PREORIENTATION,,ADULTE,,,CRIP ET PREORIENTATION,435 AVENUE GEORGES FRECHE CS 10010 34173 CASTELNAU LE LEZ,,,,,,3.903767,43.626405,"435 Avenue Georges Frêche, 34170 Castelnau-le-Lez"
522,522,CRP PREORIENTATION,,ADULTE,,,UEROS,435 AVENUE GEORGES FRECHE CS 10010 34173 CASTELNAU LE LEZ,,,,,,3.903767,43.626405,"435 Avenue Georges Frêche, 34170 Castelnau-le-Lez"
523,523,CRP PREORIENTATION,,ADULTE,,,URT,BP3 34240 LAMALOU LES BAINS,,,,,,3.084148,43.597224,"Lamalou-les-Bains, 34240 Lamalou-les-Bains"
524,524,SAVS,,ADULTE,,,SAVS-SIMES (Service D'interprétationde médiation pour Sourd),866 AVENUE DU PROFESSEUR RAVAS IMMEUBLE MAZET 34080 MONTPELLIER,,,,,,3.831959,43.622943,"Rue du Professeur Blayac, 34080 Montpellier"
525,525,SAVS,,ADULTE,,,SAVS AIRIS,100 RUE LEJZER ZAMENHOF 34080 MONTPELLIER,,,,,,3.825962,43.616098,"100 Rue Lejzer Zamenhof, 34080 Montpellier"
526,526,SAVS,,ADULTE,,,SAVS APF- LE CAP POLE EST,7 RUE DE LANTISSARGUES 34070 MONTPELLIER,,,,,,3.885583,43.588004,"7 Rue du Lantissargues, 34070 Montpellier"
527,527,SAVS,,ADULTE,,,SAVS APF- LE CAP POLE OUEST,CENTRE SAINT PIERRE 34,,,,,,3.875171,43.612073,"Rue Saint Pierre, 34000 Montpellier"
528,528,SAVS,,ADULTE,,,SAVS  CENTRE HERAULT,10 RUE LAENNEC BP 100 34120 PEZENAS,,,,,,3.422997,43.455944,"10 Rue Rene Laennec, 34120 Pézenas"
529,529,SAVS,,ADULTE,,,SAVS DE PLAISANCE,34610 SAINT GENIES DE VARENSAL,,,,,,3.015713,43.683727,"Saint-Geniès-de-Varensal, 34610 Saint-Geniès-de-Varensal"
530,530,SAVS,,ADULTE,,,SAVS FRESCATIS,10 LOTISSEMENT RIEUCROS 34330 LA ASLVETAT SUR AGOUT,,,,,,2.697921,43.602988,"10 Rue Rieucros, 34330 La Salvetat-sur-Agout"
531,531,SAVS,,ADULTE,,,SAVS LE CAROUX,1 RUE DES FRERES 34330 LA SALVETET SUR AGOUT,,,,,,2.703127,43.600635,"1 Rue des Freres, 34330 La Salvetat-sur-Agout"
532,532,SAVS,,ADULTE,,,SAVS LIS AURETO,1804 AVENUE DU PÈRE SOULAS 34090 MONTPELLIER,,,,,,3.84971,43.625814,"1804 Avenue du Père Soulas, 34090 Montpellier"
533,533,SAVS,,ADULTE,,,SAVS LOU CAMIN,RUE PIERRE FLOURENS EUROMEDECINE II BAT C 34090 MONTPELLIER,,,,,,3.832477,43.63777,"Rue Pierre Flourens, 34000 Montpellier"
534,534,SAVS,,ADULTE,,,SAVS MA RESIDENCE,16 AENUE DE LA GARDIE 34510 FLORRENSAC,,,,,,3.473506,43.390776,"16 Avenue de la Gardie, 34510 Florensac"
535,535,SAVS,,ADULTE,,,SAVS TERRITOIRE DU LUNELLOIS,450 AVENUE DES ABRIVADOS CENTRE ATHENAS BTB 34400 LUNEL,,,,,,4.1282,43.669302,"450 Avenue des Abrivados, 34400 Lunel"
536,536,SAVS,,ADULTE,,,SAVS TONY LAINE,1882 RUE DE MALBOSC CENTRE EUMEDECINE II 34080 MONTPELLIER,,,,,,3.83349,43.625162,"Rue de Malbosc, 34080 Montpellier"
537,537,SAMSAH,,ADULTE,,,SAMSAH SAPA DE LA FAF-LR,420 ALLEE HENRY DE MONTMORENCY II  34000 MONTPELLIER,,,,,,3.888402,43.610155,"420 Allée Henri II de Montmorency, 34000 Montpellier"
538,538,SAMSAH,,ADULTE,,,SAMSAH APF ,7 RUE DE LANTISSARGUES 34070 MONTPELLIER,,,,,,3.885583,43.588004,"7 Rue du Lantissargues, 34070 Montpellier"
539,539,SAMSAH,,ADULTE,,,SAMSAH APF MONTBLANC,CENTRE SAINT PIERRE 34290 MONTBLANC,,,,,,3.372197,43.405799,"Domaine de Saint Pierre, 34290 Montblanc"
540,540,SAMSAH,,ADULTE,,,SAMSAH AVH,22 BOULEVARD YVES NAT 34500 BEZIERS,,,,,,3.230215,43.349005,"22 Boulevard Yves Nat, 34500 Béziers"
541,541,SAMSAH,,ADULTE,,,SAMSAH GIHP,1 CHEMIN DE BORIE PARC DE BELLEGARDE 34170 CASTELNAU LE LEZ,,,,,,,,
542,542,SAMSAH,,ADULTE,,,SAMSAH LES VENTS DU SUD,95 RUE PIERRE FLOURENS BT C 34090 MONTPELLIER,,,,,,3.832109,43.637628,"95 Rue Pierre Flourens, 34000 Montpellier"
543,543,SAMSAH,,ADULTE,,,SAMSAH TONY LAINE,1882 RUE DE MALBOSC PARC EUROMEDECINE II 34080 MONTPELLIER,,,,,,3.83349,43.625162,"Rue de Malbosc, 34080 Montpellier"
544,544,GEM,,ADULTE,,,CLUB D'ACCEUIL GEM BEZIERS,26 AVENUE JEAN MOULIN 34500 BEZIERSS,,,,,,3.227638,43.350089,"26 Avenue Jean Moulin, 34500 Béziers"
545,545,GEM,,ADULTE,,,CLUB D'ACCEUIL GEM GAMBETTA,12 BIS BOULEVARD PASTEUR 34000 MONTPELLIER,,,,,,3.874862,43.6154,"Boulevard Pasteur, 34000 Montpellier"
546,546,GEM,,ADULTE,,,CLUB D'ACCEUIL GEM LESSEPS,356 RUE FERDINAND DE LESSEPS 34000 MONTPELLIER,,,,,,3.878392,43.593093,"356 Rue Ferdinand de Lesseps, 34070 Montpellier"
547,547,GEM,,ADULTE,,,GEM  JANUS 34,1445 ROUTE DE MENDE 34090 MONTPELLIERR,,,,,,3.86816,43.63508,"1445 Route de Mende, 34090 Montpellier"
548,548,GEM,,ADULTE,,,GEM  LES BEAUX ARTS DES T.C.,134 RUE DE THEBES 34000 MONTPELLIER,,,,,,3.888904,43.608748,"134 Rue de Thèbes, 34000 Montpellier"
549,549,GEM,,ADULTE,,,GEM RABELAIS - club services loisirs,49 BOULEVARD RABELAIS 34000 MONTPELLIER,,,,,,3.883964,43.601772,"49 Boulevard Rabelais, 34000 Montpellier"
550,550,EA,,ADULTE,,,ENTREPRISE ADAPTEE APF ENTREPRISE 34,ZAC PARC EUREKA 301 AVENUE DE WALHALLA 34000 MONTPELLIER,,,,,,3.915125,43.618239,"Avenue du Walhalla, 34000 Montpellier"
551,551,EA,,ADULTE,,,ENTREPRISE ADAPTEE D L'ETANG DE L'OR,650 RUE BLAISE PASCAL BP 52 P.A. LA GARRIGUE 34172 CASTELNAU LE LEZ,,,,,,3.919928,43.644509,"650 Avenue Blaise Pascal, 34170 Castelnau-le-Lez"
552,552,EA,,ADULTE,,,ENTREPRISE ADAPTEE DES HAUTES GARRIGUES,ZAE ROUTE DE FROUZET 34080 SAINT MARTIN DE LONDRES,,,,,,3.733133,43.794669,"Route de Frouzet, 34380 Saint-Martin-de-Londres"
553,553,EA,,ADULTE,,,ENTREPRISE ADAPTEE EAOS SERVICES,212 RUE DE L'ARTISANAT 34400 LUNEL,,,,,,4.117802,43.678934,"212 Rue de l'Artisanat, 34400 Lunel"
554,554,EA,,ADULTE,,,ENTREPRISE ADAPTEE GDEAS,625 RUE DE LA SALADELLE 34 130 SAINT AUNES,,,,,,3.982168,43.65096,"625 Avenue des Saladelles, 34130 Saint-Aunès"
555,555,EA,,ADULTE,,,ENTREPRISE ADAPTEE HANKOR PVC,ZAE LES TANNES BASSES 34800 CLERMONT L'HERAULT,,,,,,3.454104,43.618137,"Zone Artisanale Tannes Basses, 34800 Clermont-l'Hérault"
556,556,EA,,ADULTE,,,ENTEPRISE ADAPTEE L'ATELIER DU PAPIER SOLEIL,ZI DE LA LAUZE 33 RUE SAINT EXUPERY 34430 SAINT JEAN DE VEDAS,,,,,,3.841105,43.562684,"33 Rue Antoine de Saint Exupery, 34430 Saint-Jean-de-Védas"
557,557,EA,,ADULTE,,,ENTREPRISE ADAPTEE DES ATELIERS DE LA VALLEE DE  L'HERAULT,5 CHEMIN DES USINES 34510 FLORENSAC,,,,,,3.473991,43.387703,"5 Chemin des Usines, 34510 Florensac"
558,558,EA,,ADULTE,,,ENTREPRISE ADAPTEE LES ATELIERS DE SAPORTA,DOMAINE DE SAPORTA 34970 LATTES,,,,,,3.880279,43.575081,"Chemin de Saporta, 34970 Lattes"
559,559,EA,,ADULTE,,,ENTREPRISE ADAPTEE NODIXIA RECYCLING SERVICES,590 RUE DU ROUCANIER  ZAC DU ROUCANIER 34400 LUNEL,,,,,,4.133696,43.675825,"Rue Jean Jacques Rousseau, 34400 Lunel"
560,560,EA,,ADULTE,,,ENTREPRISE ADAPTEE PLANET' ECO RECYCLAGE,Z.I. DE LA LAUZE 33 RUE SAINT EXUPERY 34330 SAINT JEAN DE VEDAS,,,,,,3.841105,43.562684,"33 Rue Antoine de Saint Exupery, 34430 Saint-Jean-de-Védas"
561,561,EA,,ADULTE,,,ENTREPRISE ADAPTEE TALARON SERVICES,BT HELENE 222 RUE D'ODIN 34000 MONTPELLIER,,,,,,3.915738,43.615187,"222 Rue d'Odin, 34000 Montpellier"
562,562,EA,,ADULTE,,,ENTREPRISE ADAPTEE TRIADE AVENIR SUD,169 CHEMINS DES THERMES 34170 CASTELNAU LE LEZ,,,,,,3.924192,43.631205,"169 Chemin des Thermes, 34170 Castelnau-le-Lez"
563,563,EA,,ADULTE,,,ENTREPRISE ADAPTEE VIA EUROPA,ZAE VIA EUROPA 3 AVENUE DE L'EUROPE 34350 VENDRES,,,,,,3.218983,43.300323,"3 Avenue de l'Europe, 34350 Vendres"
564,564,Accueil de loisir,UFOLEP,ENFANT,3.0,11.0,UFOLEP Ovalie,école Olympe de Gouges 1375 rue bugarel 34070 MONTPELLIER,,,,04 67 67 41 63,http://www.cd.ufolep.org/herault/herault_a/cms/index_public.php?us_action=show_note&ui_id_site=1&ui_id_doc=1030300002,3.861541,43.595108,"Rue de Bugarel, 34070 Montpellier"
565,565,Accueil de loisir,UFOLEP,ENFANT,3.0,11.0,UFOLEP Grisettes,école Beethoven 280 rue du Mas Nouguier 34070 MONTPELLIER,,,,04 67 67 41 63,http://www.cd.ufolep.org/herault/herault_a/cms/index_public.php?us_action=show_note&ui_id_site=1&ui_id_doc=1030400002,3.85677,43.584369,"280 Rue du Mas Nouguier, 34070 Montpellier"
566,566,Accueil de loisir,UFOLEP,ENFANT,6.0,11.0,UFOLEP Voltaire,école Voltaire 157 rue Henri Sellier 34070 MONTPELLIER,,,,04 67 67 41 63,http://www.cd.ufolep.org/herault/herault_a/cms/index_public.php?us_action=show_note&ui_id_site=1&ui_id_doc=1030500001,3.863407,43.595438,"157 Rue Henri Sellier, 34070 Montpellier"
567,567,Accueil de loisir,UFOLEP,ENFANT,3.0,5.0,UFOLEP Kipling,école Kipling 311 avenue de Saint Clément 34070 MONTPELLIER,,,,04 67 67 41 63,http://www.cd.ufolep.org/herault/herault_a/cms/index_public.php?us_action=show_note&ui_id_site=1&ui_id_doc=1030200002,3.846239,43.61679,"311 Avenue Saint Clément, 34070 Montpellier"
568,568,Accueil de loisir,UFOLEP,ENFANT,3.0,5.0,UFOLEP Pagnol,école Pagnol 305 rue Georges Brassens 34070 MONTPELLIER,,,,04 67 67 41 63,http://www.cd.ufolep.org/herault/herault_a/cms/index_public.php?PHPSESSID=64ou3f613l5jikj9t389ilu0m5&us_action=show_note&ui_id_site=1&ui_id_doc=1030500001,3.86521,43.593976,"305 Rue Georges Brassens, 34070 Montpellier"
569,569,Accueil de loisir,UFOLEP,ENFANT,6.0,11.0,UFOLEP Baudelaire,école Baudelaire 311 avenue de Saint Clément 34070 MONTPELLIER,,,,04 67 67 41 63,http://www.cd.ufolep.org/herault/herault_a/cms/index_public.php?PHPSESSID=64ou3f613l5jikj9t389ilu0m5&us_action=show_note&ui_id_site=1&ui_id_doc=1030200002,3.846239,43.61679,"311 Avenue Saint Clément, 34070 Montpellier"
570,570,Accueil de loisir,UFOLEP,ENFANT,3.0,11.0,UFOLEP Richier,école Richier 99 rue Jean Prat 34070 MONTPELLIER,,,,04 67 67 41 64,http://www.cd.ufolep.org/herault/herault_a/cms/index_public.php?PHPSESSID=64ou3f613l5jikj9t389ilu0m5&us_action=show_note&ui_id_site=1&ui_id_doc=1030600001,3.852449,43.590693,"99 Avenue Jean Prat, 34070 Montpellier"
571,571,Accueil de loisir,MUC,ENFANT,3.0,14.0,MUC Vacances,écoles Chaplin / Pottier-Sibelius 120 rue de la Jalade 34090 MONTPELLIER,,,,04 99 58 35 36,http://www.muc-vacances.com/accueils-de-loisirs/,3.863863,43.626515,"120 Rue de la Jalade, 34090 Montpellier"
572,572,Accueil de loisir,MUC,ENFANT,3.0,5.0,MUC Vacances,école maternelle Bernhardt 175 rue Edouard Villalonga 34000 MONTPELLIER,,,,04 99 58 35 36,http://www.muc-vacances.com/alsh-baby-millenaire-3-5-ans-mercredis/,3.908261,43.611619,"175 Rue Edouard Villalonga, 34000 Montpellier"
573,573,Accueil de loisir,Relais des enfants,ENFANT,3.0,6.0,Le Petit Relais,école maternelle Francis Garnier 2 rue Général René 34000 MONTPELLIER,,,,04 67 66 21 30,https://www.relaisdesenfants.org/lieux-et-activites/lieux/petit-relais/?pages/Le-Petit-Relais,3.871735,43.607939,"2 Rue Général René, 34000 Montpellier"
574,574,Accueil de loisir,Relais des enfants,ENFANT,3.0,6.0,Relais des Petits,école maternelle Rousseau 21 rue d’Aigrefeuille  34000 MONTPELLIER,,,,04 67 66 21 30,https://www.relaisdesenfants.org/lieux-et-activites/lieux/relais-des-petits/,3.875942,43.612434,"21 Rue d'Aigrefeuille, 34000 Montpellier"
575,575,Accueil de loisir,Relais des enfants,ENFANT,6.0,12.0,Relais des enfants,1 rue Embouque d’Or  34000 MONTPELLIER,,,,04 67 66 21 30,https://www.relaisdesenfants.org/lieux-et-activites/lieux/relais-des-enfants/,3.878603,43.610562,"1 Rue Embouque d'Or, 34000 Montpellier"
576,576,Accueil de loisir,Vacances Evasion,ENFANT,3.0,5.0,VACANCES EVASION Goethe,école Goethe 3 rue des Coronilles  34000 MONTPELLIER,,,,04 99 13 71 10,https://www.vaceva.com/centre-alsh-goethe-langevin/,3.853304,43.611136,"3 Rue des Coronilles, 34070 Montpellier"
577,577,Accueil de loisir,Vacances Evasion,ENFANT,6.0,12.0,VACANCES EVASION Langevin,école Langevin 5 rue de Clémentville  34070 MONTPELLIER,,,,04 99 13 71 10,https://www.vaceva.com/centre-alsh-goethe-langevin/,3.854371,43.610934,"5 Rue de Clémentville, 34070 Montpellier"
578,578,Accueil de loisir,Vacances Evasion,ENFANT,3.0,12.0,VACANCES EVASION De Gaulle / Jaures,école Jean Jaures 10 chemin des Barques  34000 MONTPELLIER,,,,04 99 13 71 10,https://www.vaceva.com/alsh-anthonioz-de-gaulle-jaures/,3.894131,43.604577,"10 Chemin des Barques, 34000 Montpellier"
579,579,Accueil de loisir,Vacances Evasion,ENFANT,3.0,12.0,VACANCES EVASION Vendargues,école Andrée Cosso rue du 8 Mai 1945 34740 VENDARGUES,,,,06 40 42 18 62,https://www.vaceva.com/alsh-centre-de-vendargues/,,,
580,580,Accueil de loisir,Vacances Evasion,ENFANT,3.0,12.0,VACANCES EVASION Jacou,salle F.Dolto place des écoles 3480 JACOU,,,,04 99 13 71 10,https://www.vaceva.com/centre-de-loisirs-jacou-alsh/,3.91153,43.655207,"Place des Ecoles, 34830 Jacou"
581,581,Accueil de loisir,Vacances Evasion,ENFANT,3.0,12.0,VACANCES EVASION Florian / Simon,écoles Florian / Simon 49 et 45 rue de la Méditerranée  34000 MONTPELLIER,,,,04 99 13 71 10,https://www.vaceva.com/centre-alsh-florian-simon/,3.885781,43.604919,"45 Rue de la Méditerranée, 34070 Montpellier"
582,582,Accueil de loisir,Vacances Evasion,ENFANT,3.0,12.0,VACANCES EVASION Mozart / Morisot,écoles Mozart / Morisot 60 avenue d'Assas 34000 MONTPELLIER,,,,04 99 13 71 10,https://www.vaceva.com/centre-alsh-mozart-morisot/,3.862198,43.616449,"60 Avenue d'Assas, 34000 Montpellier"
583,583,Accueil de loisir,la Gerbe,ENFANT,6.0,12.0,LA GERBE,19 rue Chaptal  34000 MONTPELLIER,,,,04 99 74 24 33,https://www.lagerbe.com/2017/04/25/centre-de-loisirs-montpellier/,3.87032,43.605127,"19 Rue Chaptal, 34000 Montpellier"
584,584,Accueil de loisir,Les Francas 34,ENFANT,3.0,5.0,LES FRANCAS Renaud,école Renaud 123 rue de Salamanque 34080 MONTPELLIER,,,,06 51 87 47 99,,3.818578,43.623931,"123 Rue de Salamanque, 34080 Montpellier"
585,585,Accueil de loisir,Les Francas 34,ENFANT,6.0,12.0,LES FRANCAS Balard,école Balard 360 avenue de Barcelone  34080 MONTPELLIER,,,,06 51 87 47 99,,3.817587,43.623936,"360 Avenue de Barcelone, 34080 Montpellier"
586,586,Accueil de loisir,GFEN,ENFANT,6.0,12.0,GFEN Languedoc Louisville,école Louisville 431 avenue de Louisville 34080 MONTPELLIER,,,,09 50 07 12 44,,3.815525,43.625098,"431 Avenue de Louisville, 34080 Montpellier"
587,587,Accueil de loisir,GFEN,ENFANT,6.0,12.0,GFEN Languedoc Heidelberg,école Heidelberg 310 rue de Liège 34080 MONTPELLIER,,,,09 50 07 12 44,,3.813565,43.625139,"310 Rue de Liège, 34080 Montpellier"
588,588,Accueil de loisir,PEP34,ENFANT,3.0,12.0,PEP 34 Malbosc,école Yourcenar 71 rue Jean Joseph Laborde  34080 MONTPELLIER,,,,04 67 40 73 00,https://adpep34.com/classes-vacances-loisirs/a-montpellier-acm/,3.83082,43.634133,"71 Rue Jean-joseph Laborde, 34080 Montpellier"
589,589,Accueil de loisir,ACLE,ENFANT,3.0,12.0,ACLE Daubié / Brès,école Daubié / Brès 183 allée de l'aqueduc  34080 MONTPELLIER,,,,09 65 30 94 83,,3.842462,43.619674,"183 Allée de l'Aqueduc, 34080 Montpellier"
590,590,Accueil de loisir,Passe-muraille,ENFANT,3.0,12.0,PASSE-MURAILLE Vailhauques,,,,,06 78 12 96 89,,,,
591,591,Accueil de loisir,Passe-muraille,ENFANT,3.0,12.0,PASSE-MURAILLE Saint-Martin de Londres,,,,,06 70 49 33 37,,,,
592,592,Accueil de loisir,Loisirs de Lasalle,ENFANT,3.0,12.0,LOISIRS DE LA SALLE,école La Salle Rue Lunaret 34000 MONTPELLIER,,,,07 87 11 64 69,https://coloarboucalot.wixsite.com/arboucalot/contact,3.879014,43.615865,"Rue Lunaret, 34090 Montpellier"
593,593,Accueil de loisir,Les enfants d'Hélène,ENFANT,3.0,17.0,LES ENFANTS D HELENE,École Mitterrand 1330 rue Henri Lagattu 34080 MONTPELLIER,,,,04 99 74 72 80,http://lesenfantsdhelene.blogspot.com/p/inscriptions-informations-contact.html,3.83136,43.63006,"1330 Rue Henri Lagatu, 34080 Montpellier"
594,594,Accueil de loisir,Léo Lagrange,ENFANT,3.0,12.0,LEO LAGRANGE,6 rue Jules Ferry 34110 MIREVAL,,,,04 67 74 94 21,http://centreloisirsmir.canalblog.com/,3.799138,43.506357,"6 Avenue Jules Ferry, 34110 Mireval"
595,595,Accueil de loisir,Eveil en mouvement,ENFANT,3.0,12.0,EVEIL EN MOUVEMENT,écoles Térésa / Ferry 88 rue Antoine Laurent de Jussieu 34090 MONTPELLIER,,,,06 28 47 34 20,http://eveil-en-mouvement.com/,3.874595,43.636395,"88 Rue Antoine-laurent Jussieu, 34090 Montpellier"
596,596,Accueil de loisir,Loisirs-éducation Grand sud,ENFANT,3.0,5.0,LOISIRS EDUCATION ET CITOYENNETE Grand sud ,26 allée de l'espérance 34270 ST MATHIEU DE TREVIERS,,,,04 67 55 17 03,https://www.lecgs.org/fr/site/grand-pic-saint-loup-enfance/page/informations-pratiques.php,3.868958,43.773857,"Allee de l'Esperance, 34270 Saint-Mathieu-de-Tréviers"
597,597,Accueil de loisir,Mairie,ENFANT,3.0,12.0,AIGUELONGUE,écoles Camoens / Freud 2 rue des Tourterelles  34090 MONTPELLIER,,,,06 17 90 63 81,https://www.montpellier.fr/1110-les-centres-de-loisirs-municipaux.htm,3.879302,43.626243,"2 Rue des Tourterelles, 34090 Montpellier"
598,598,Accueil de loisir,Mairie,ENFANT,3.0,5.0,LES TOURS,écoles Copernic rue Pierre Nicolas  34080 MONTPELLIER,,,,06 17 90 60 33,https://www.montpellier.fr/1110-les-centres-de-loisirs-municipaux.htm,3.899075,43.594936,"Rue Nicolas Copernic, 34070 Montpellier"
599,599,Accueil de loisir,Mairie,ENFANT,6.0,12.0,LES TOURS,école Bloch 135 allée des Hauts de Massane 34080 MONTPELLIER,,,,06 17 90 60 33,https://www.montpellier.fr/1110-les-centres-de-loisirs-municipaux.htm,3.836362,43.617987,"Allée de la Massane, 34080 Montpellier"
600,600,Accueil de loisir,Mairie,ENFANT,3.0,5.0,OXFORD,école Van Gogh 242 rue d'Oxford 34080 MONTPELLIER,,,,06 17 90 60 97,https://www.montpellier.fr/1110-les-centres-de-loisirs-municipaux.htm,3.818894,43.627096,"242 Rue d'Oxford, 34080 Montpellier"
601,601,Accueil de loisir,Mairie,ENFANT,6.0,12.0,OXFORD,écoles Roosevelt 25 rue de Lausanne 34080 MONTPELLIER,,,,06 17 90 60 97,https://www.montpellier.fr/1110-les-centres-de-loisirs-municipaux.htm,3.819818,43.627318,"25 Rue de Lausanne, 34080 Montpellier"
602,602,Accueil de loisir,Mairie,ENFANT,6.0,12.0,MALET,école Malet 5 allée Pierre Carabasse 34080 MONTPELLIER,,,,06 17 90 64 41,https://www.montpellier.fr/1110-les-centres-de-loisirs-municipaux.htm,3.830926,43.612686,"5 Allée Pierre Carabasse, 34080 Montpellier"
603,603,Accueil de loisir,Mairie,ENFANT,3.0,5.0,CARPENTIER,école Carpantier 12 rue des Écoles  34080 MONTPELLIER,,,,06 17 90 71 27,https://www.montpellier.fr/1110-les-centres-de-loisirs-municipaux.htm,3.827583,43.613564,"12 Rue des Ecoles, 34080 Montpellier"
604,604,Accueil de loisir,Mairie,ENFANT,3.0,12.0,LA MARTELLE,écoles Spinoza / Deroin 88 et 110 rue Viollet le Duc 34070 MONTPELLIER,,,,06 17 90 70 19,https://www.montpellier.fr/1110-les-centres-de-loisirs-municipaux.htm,3.837255,43.60853,"110 Rue Viollet le Duc, 34070 Montpellier"
605,605,Accueil de loisir,Mairie,ENFANT,3.0,5.0,MICHELET,école Jules Michelet rue des Araucarias  34080 MONTPELLIER,,,,06 17 90 68 30,https://www.montpellier.fr/1110-les-centres-de-loisirs-municipaux.htm,3.836261,43.616011,"Rue des Araucarias, 34080 Montpellier"
606,606,Accueil de loisir,Mairie,ENFANT,6.0,12.0,VILLON,école Joseph Delteil rue des Araucarias  34080 MONTPELLIER,,,,06 17 90 67 99,https://www.montpellier.fr/1110-les-centres-de-loisirs-municipaux.htm,3.836261,43.616011,"Rue des Araucarias, 34080 Montpellier"
607,607,Accueil de loisir,Mairie,ENFANT,3.0,12.0,COMBES,école Victor Duruy 20 rue Edmond Lautard 34000 MONTPELLIER,,,,06 17 90 69 12,https://www.montpellier.fr/1110-les-centres-de-loisirs-municipaux.htm,3.841344,43.62484,"20 Rue Edmond Lautard, 34080 Montpellier"
608,608,Accueil de loisir,Mairie,ENFANT,6.0,12.0,VERNE,école Verne 127 rue Yehudi Menuhin  34000 MONTPELLIER,,,,06 17 90 65 34,https://www.montpellier.fr/1110-les-centres-de-loisirs-municipaux.htm,3.884044,43.617285,"127 Rue Yehudi Menuhin, 34000 Montpellier"
609,609,Accueil de loisir,Mairie,ENFANT,3.0,5.0,LA FONTAINE,école La Fontaine 27 quai des Tanneurs  34000 MONTPELLIER,,,,06 17 90 67 64,https://www.montpellier.fr/1110-les-centres-de-loisirs-municipaux.htm,3.874815,43.616216,"Quai des Tanneurs, 34090 Montpellier"
610,610,Accueil de loisir,Mairie,ENFANT,3.0,12.0,ROUX,école Roux 96 rue du Faubourg Figuerolles  34070 MONTPELLIER,,,,06 17 90 62 65,https://www.montpellier.fr/1110-les-centres-de-loisirs-municipaux.htm,3.862286,43.605879,"96 Rue du Faubourg Figuerolles, 34070 Montpellier"
611,611,Accueil de loisir,Mairie,ENFANT,3.0,12.0,LANTISSARGUES,école Simenon 215 boulevard Pédro de Luna  34070 MONTPELLIER,,,,06 17 44 58 78,https://www.montpellier.fr/1110-les-centres-de-loisirs-municipaux.htm,3.870135,43.594989,"215 Boulevard Pedro de Luna, 34070 Montpellier"
612,612,Accueil de loisir,Mairie,ENFANT,3.0,12.0,ESTANOVE,école Churchill Rue du Lavandin  34000 MONTPELLIER,,,,06 17 90 62 24,https://www.montpellier.fr/1110-les-centres-de-loisirs-municipaux.htm,3.850467,43.600734,"Rue du Lavandin, 34070 Montpellier"
613,613,Accueil de loisir,Mairie,ENFANT,6.0,12.0,SAVARY,école Savary 240 quai Flora Tristan  34070 MONTPELLIER,,,,06 17 90 64 84,https://www.montpellier.fr/1110-les-centres-de-loisirs-municipaux.htm,3.840157,43.596516,"240 Quai Flora Tristan, 34070 Montpellier"
614,614,Accueil de loisir,Mairie,ENFANT,3.0,5.0,BOUCHER,école Boucher 240 quai Flora Tristan  34070 MONTPELLIER,,,,06 17 90 64 84,https://www.montpellier.fr/1110-les-centres-de-loisirs-municipaux.htm,3.840157,43.596516,"240 Quai Flora Tristan, 34070 Montpellier"
615,615,Accueil de loisir,Mairie,ENFANT,3.0,12.0,LES AIGUERELLES,école Dickens / Anne Franck 686 avenue du Pont Trinquat 34000 MONTPELLIER,,,,06 17 90 69 63,https://www.montpellier.fr/1110-les-centres-de-loisirs-municipaux.htm,3.891841,43.597649,"686 Avenue du Pont Trinquat, 34070 Montpellier"
616,616,Accueil de loisir,Mairie,ENFANT,3.0,12.0,CITE MION,écoles Brel / Signoret Impasse des Marmousets 34000 MONTPELLIER,,,,06 17 90 61 09,https://www.montpellier.fr/1110-les-centres-de-loisirs-municipaux.htm,3.882086,43.598375,"Impasse des Marmousets, 34000 Montpellier"
617,617,Accueil de loisir,Mairie,ENFANT,3.0,12.0,MALRAUX,groupe scolaire Malraux Rue Joan Miro/ rue du mas rouge  34980 MONTPELLIER,,,,06 17 90 64 49,https://www.montpellier.fr/1110-les-centres-de-loisirs-municipaux.htm,3.900096,43.619125,"Rue André Malraux, 34000 Montpellier"
618,618,Accueil de loisir,Mairie,ENFANT,3.0,12.0,ASTERIX,domaine de Grammont Avenue Albert Einstein  34000 MONTPELLIER,,,,06 77 76 58 26,https://www.montpellier.fr/1110-les-centres-de-loisirs-municipaux.htm,3.899244,43.60596,"Avenue Albert Einstein, 34000 Montpellier"
619,619,Accueil de loisir,Mairie,ENFANT,3.0,12.0,JEAN MOULIN / BERGMAN,école Moulin 20 boulevard Mounié  34000 MONTPELLIER,,,,06 17 90 60 67,https://www.montpellier.fr/1110-les-centres-de-loisirs-municipaux.htm,3.890768,43.618865,"20 Boulevard Mounié, 34000 Montpellier"
620,620,Accueil de loisir,Mairie,ENFANT,3.0,12.0,ALSH JUVIGNAC,groupe scolaire Nelson Mandela 20 rue Neptune 34990 JUVIGNAC,,,,06 80 43 52 17,https://www.juvignac.fr/centre-de-loisirs-2/,3.807525,43.620632,"20 Rue Neptune, 34990 Juvignac"
621,621,Accueil de loisir,La Maison des Enfants,ENFANT,3.0,12.0,LA MAISON DES ENFANTS,1 place Charles de Gaulle 34170 CASTELNAU LE LEZ,,,,,http://www.lamaisondesenfants.fr/fr/ateliersdesvacances-fr/,3.896767,43.628703,"1 Place Charles de Gaulle, 34170 Castelnau-le-Lez"
622,622,Accueil de loisir,Mairie,ENFANT,3.0,12.0,LE TERRIER,205 chemin des mazes 34730 PRADES LE LEZ,,,,04 67 06 59 96,https://www.prades-le-lez.fr/Le-terrier/58/,3.866411,43.699045,"205 Chemin des Mazes, 34730 Prades-le-Lez"
623,623,Accueil de loisir,Mairie,ENFANT,3.0,11.0,L'OLIVIER,4 impasse du chateau 34980 MONTFERRIER,,,,04 67 59 54 99,https://ville-montferrier-sur-lez.fr/centre-de-loisirs-2/,3.861002,43.666682,"4 Impasse du Château, 34980 Montferrier-sur-Lez"
624,624,Accueil de loisir,Mairie,ENFANT,3.0,5.0,ALSH CLAPIERS,école Olympe de Gouge 51 Rue Jean Moulin 34830 CLAPIERS,,,,04 67 59 46 95,https://www.ville-clapiers.fr/Enfance-Jeunesse%20(ALP-ALSH-MENUS)/105/58,3.887618,43.655152,"Rue Jean Moulin, 34830 Clapiers"
625,625,Accueil de loisir,Mairie,ENFANT,6.0,12.0,ALSH CLAPIERS,Rue du bosc 34830 CLAPIERS,,,,06 86 68 95 66,https://www.ville-clapiers.fr/Enfance-Jeunesse%20(ALP-ALSH-MENUS)/105/58,3.88691,43.657574,"Rue du Bosc, 34830 Clapiers"
626,626,Accueil de loisir,Mairie,ENFANT,10.0,17.0,ALSH CLAPIERS,Adresse inconnue 34830 CLAPIERS,,,,06 86 68 95 66,https://www.ville-clapiers.fr/Enfance-Jeunesse%20(ALP-ALSH-MENUS)/105/58,3.884981,43.656088,"Rue du Pre, 34830 Clapiers"
627,627,Accueil de loisir,Mairie,ENFANT,3.0,12.0,ALSH LE CRES,21 avenue des Cevennes 34920 LE CRES,,,,04 67 41 95 49,https://www.ville-lecres.fr/index.php/Vacances-%26-mercredis?idpage=89&afficheMenuContextuel=true,3.942242,43.646735,"21 Avenue des Cevennes, 34920 Le Crès"
628,628,Accueil de loisir,Mairie,ENFANT,3.0,17.0,CHALBOS / JEAN MOULIN,213 allée Chalbos 34170 CASTELNAU LE LEZ,,,,04 67 14 27 92,https://www.castelnau-le-lez.fr/-%20Services%20p%C3%A9riscolaires%20(ALP)/10047/178,3.9155,43.637962,"Allee Francois Chalbos, 34170 Castelnau-le-Lez"
629,629,Accueil de loisir,Mairie,ENFANT,3.0,11.0,LA MAISON DES LOISIRS SAINT AUNES,place de l' escolette 34130 SAINT AUNES,,,,06 19 37 52 35,http://www.saint-aunes.fr/Centre-de-loisirs-espace-jeunes.html,3.965501,43.636822,"Rue de l'Escolette, 34130 Saint-Aunès"
630,630,Accueil de loisir,Mairie,ENFANT,3.0,12.0,FONDESPIERRE,domaine de Fondespierre Route de Fontmarie  34160 CASTRIES,,,,04 67 87 30 15,https://www.castries.fr/Accueil-Loisirs-3-12-ans-Fondespierre/106/,3.996862,43.689282,"Route de Fontmarie, 34160 Castries"
631,631,Accueil de loisir,Mairie,ENFANT,3.0,5.0,LES MOUSSAILLONS,2 avenue d'Occitanie Maison de la petite enfance F. Dolto 34680 ST GEORGES D'ORQUES,,,,04 67 40 57 12,https://www.ville-st-georges-dorques.fr/jeunesse/alsh/,3.781688,43.610187,"2 Rue de la Mairie, 34680 Saint-Georges-d'Orques"
632,632,Accueil de loisir,Mairie,ENFANT,6.0,12.0,CHIFOUMI,avenue des Jardins 34680 ST GEORGES D'ORQUES,,,,04 67 45 59 47,https://www.ville-st-georges-dorques.fr/jeunesse/alsh/,3.782807,43.609881,"Avenue des Jardins, 34680 Saint-Georges-d'Orques"
633,633,Accueil de loisir,Mairie,ENFANT,3.0,12.0,LES GALOPINS,"écoles Valène et Rompude, 70 rue Rompude 34980 ST GELY DU FESC",,,,04 67 66 64 88,https://www.ville-saintgelydufesc.fr/ALSH-Les-Galopins.html?lang=fr&retour=back,3.800528,43.694087,"70 Rue de la Rompude, 34980 Saint-Gély-du-Fesc"
634,634,Accueil de loisir,Mairie,ENFANT,6.0,12.0,ALSH ST CLEMENT DE RIVIERE,Centre Fernand Arnaud  34980 ST CLEMENT DE RIVIERE,,,,04 67 84 49 60,https://www.saint-clement-de-riviere.fr/p2115-informations-pratiques.html,3.853072,43.702018,"Le Travers, 34980 Saint-Clément-de-Rivière"
635,635,Accueil de loisir,Mairie,ENFANT,3.0,5.0,ALSH ST CLEMENT DE RIVIERE,Centre La Source 34980 ST CLEMENT DE RIVIERE,,,,04 67 54 08 92,https://www.saint-clement-de-riviere.fr/p2115-informations-pratiques.html,3.851822,43.682372,"Hameau des Sources, 34980 Saint-Clément-de-Rivière"
636,636,Accueil de loisir,Mairie,ENFANT,3.0,12.0,LES GARRIGUES,chemin de la combe 34430 ST JEAN DE VEDAS,,,,04 99 52 20 62,https://www.saintjeandevedas.fr/ville/accueil-de-loisirs-sans-hebergement-alsh,3.826146,43.566708,"Rue de la Combe, 34430 Saint-Jean-de-Védas"
637,637,Accueil de loisir,Mairie,ENFANT,3.0,12.0,LA CLEF DES CHAMPS,avenue du chateau 34880 LAVERUNE,,,,04 99 51 20 17,http://www.laverune.fr/index.php/ALAE?idpage=116&afficheMenuContextuel=true,3.802828,43.584412,"Avenue du Château, 34880 Lavérune"
638,638,Accueil de loisir,Mairie,ENFANT,3.0,17.0,ALSH municipal le mazet Saint Mathieu de treviers,"le mazet, centre commercial le terrieu 34270 ST MATHIEU DE TREVIERS",,,,04 67 55 20 28,http://www.ville-saint-mathieu-de-treviers.fr/ALSH-Centres-de-loisirs.html?retour=back,3.86276,43.769176,"Residence le Terrieu, 34270 Saint-Mathieu-de-Tréviers"
639,639,Accueil de loisir,Métropôle Montpellier 3M,ENFANT,4.0,12.0,ALSH l'Ecolothèque,"Mas de Grille, 1 rue Théophraste Renaudot 34430 ST JEAN DE VEDAS",,,,04 99 52 82 82,https://ecolotheque.montpellier3m.fr/accueil-de-loisirs,3.852923,43.573162,"1 Rue Theophraste Renaudot, 34430 Saint-Jean-de-Védas"
640,640,Accueil de loisir,CC Béziers Méditerranée,ENFANT,3.0,15.0,ALSH intercommunal Servian (maternel & élémentaire),Bois d'Amilhac 34290 SERVIAN,,,,04 67 76 02 76,http://villamont-beziers.fr/portfolio/centre-de-loisir/,3.301303,43.400169,"Domaine d'Amilhac, 34290 Servian"
641,641,Accueil de loisir,Mairie,ENFANT,,,ALSH associatif MJC Trencavel (élémentaire & Ados),13A boulevard Du Guesclin 34500 BEZIERS,,,,04 67 31 27 34,https://www.ville-beziers.fr/mes-enfants/4-11-ans/les-accueils-de-loisirs,3.223169,43.34444,"13 a Boulevard Bertrand du Guesclin, 34500 Béziers"
642,642,Accueil de loisir,Mairie,ENFANT,,,ALSH municipal Brassens (élémentaire),31 avenue Auguste Albertini 34500 BEZIERS,,,,04 67 62 87 00,https://www.ville-beziers.fr/mes-enfants/4-11-ans/les-accueils-de-loisirs,3.236179,43.349376,"31 Avenue Auguste Albertini, 34500 Béziers"
643,643,Accueil de loisir,Mairie,ENFANT,,,ALSH municipal Dolto (maternel),330 rue Claude Nougaro 34500 BEZIERS,,,,04 99 43 81 72,https://www.ville-beziers.fr/mes-enfants/4-11-ans/les-accueils-de-loisirs,3.25324,43.345237,"330 Rue Claude Nougaro, 34500 Béziers"
644,644,Accueil de loisir,Mairie,ENFANT,,,ALSH municipal Albert Camus (élémentaire),esplanade Rosa Parks 34500 BEZIERS,,,,04 67 32 62 00,https://www.ville-beziers.fr/mes-enfants/4-11-ans/les-accueils-de-loisirs,3.251226,43.333927,"Esplanade Rosa Parks, 34500 Béziers"
645,645,Accueil de loisir,Mairie,ENFANT,,,ALSH municipal Vaclav Havel (élémentaire),rue Jules Dalou 34500 BEZIERS,,,,04 67 36 73 57,https://www.ville-beziers.fr/mes-enfants/4-11-ans/les-accueils-de-loisirs,3.210085,43.347949,"Rue Jules Dalou, 34500 Béziers"
646,646,Accueil de loisir,Mairie,ENFANT,,,ALSH municipal Malbosc (marternel),"Quartier La Courondelle, 181 rue Ostermeyer 34500 BEZIERS",,,,04 99 43 81 72,https://www.ville-beziers.fr/mes-enfants/4-11-ans/les-accueils-de-loisirs,3.225246,43.363079,"181 Rue Micheline Ostermeyer, 34500 Béziers"
647,647,Accueil de loisir,Mairie,ENFANT,,,ALSH municipal Zinga Zanga (maternel & élémentaire),"Traverse de Colombiers, pradines le bas 34500 BEZIERS",,,,04 67 48 13 36,https://www.ville-beziers.fr/mes-enfants/4-11-ans/les-accueils-de-loisirs,3.191872,43.331747,"Traverse de Colombiers, 34500 Béziers"
648,648,Accueil de loisir,Mairie,ENFANT,,,ALSH municipal Martin Luther King (élémentaire),26 rue de l'Orb 34500 BEZIERS,,,,04 67 80 07 20,https://www.ville-beziers.fr/mes-enfants/4-11-ans/les-accueils-de-loisirs,3.210667,43.339239,"26 Rue de l'Orb, 34500 Béziers"
649,649,Accueil de loisir,Mairie,ENFANT,,,ALSH municipal Sauvian (maternel & élémentaire),50 rue caucadis 34410 Sauvian 34410 SAUVIAN,,,alsh@ville-sauvian.com,04 67 32 20 49,https://www.ville-sauvian.fr/enfance-et-jeunesse/alsh/,3.260028,43.295732,"Rue Caucadis, 34410 Sauvian"
650,650,Accueil de loisir,Mairie,ENFANT,,,ALSH associatif les Francas (maternel & élémentaire),rue des lilas 34420 VILLENEUVE LES BEZIERS,,,,04 67 39 39 59,http://www.villeneuve-les-beziers.fr/enfance-jeunesse/accueil-de-loisirs-sans-hebergement/,3.28446,43.315454,"Rue des Lilas, 34420 Villeneuve-lès-Béziers"
651,651,Accueil de loisir,Mairie,ENFANT,3.0,17.0,ALSH municipal Sussargues,"école, rue des carignans 34160 SUSSARGUES",,,,04 67 87 30 15,http://ville-sussargues.fr/category/a-tout-age/vie-extra-scolaire/lalsh/,4.000178,43.715849,"Rue des Carignans, 34160 Sussargues"
652,652,Accueil de loisir,CC pays de Lunel,ENFANT,3.0,5.0,ALSH municipal Lunel (maternelle),340 rue Mario Roustan 34400 LUNEL,,,,06 65 25 32 26,http://alsh.paysdelunel.fr/lunel,4.127806,43.67021,"Rue Mario Roustan, 34400 Lunel"
653,653,Accueil de loisir,CC pays de Lunel,ENFANT,6.0,11.0,ALSH municipal Lunel (élementaire),"le lavoir, 75 rue de l'école du Parc -  34400 LUNEL",,,,06 65 45 42 77,http://alsh.paysdelunel.fr/lunel,4.129819,43.676448,"75 Rue de l'Ecole du Parc, 34400 Lunel"
654,654,Accueil de loisir,CC pays de Lunel,ENFANT,3.0,11.0,ALSH  municipal Lunel viel,"école maternelle les thermes, 24 rue des thermes 34400 LUNEL-VIEL",,,,07 63 23 10 07,http://alsh.paysdelunel.fr/blog-lunel-viel-0,4.093481,43.676323,"24 Rue des Thermes, 34400 Lunel-Viel"
655,655,Accueil de loisir,Mairie,ENFANT,12.0,17.0,Accueil le monde des jeunes Vendemian,2 place delamairie 34230 VENDEMIAN,,,,04 67 88 76 51,https://www.vendemian.fr/-MDJ-Monde-des-Jeunes-11-18-ans-.html,3.561852,43.580951,"2 Place de la Mairie, 34230 Vendémian"
656,656,Accueil de loisir,Mairie,ENFANT,6.0,11.0,ALSH municipal le monde des enfants Vendemian,avenue du tambourin 34230 VENDEMIAN,,,,04 67 88 76 51,https://www.vendemian.fr/-Accueil-Loisirs-6-11-ans-42-.html,3.561621,43.580206,"Avenue du Tambourin, 34230 Vendémian"
657,657,Accueil de loisir,Mairie,ENFANT,3.0,17.0,MDJ Cazouls les beziers,20 chemin de l'enclos 34370 CAZOULS-LES-BEZIERS,,,,04 67 32 97 64,https://www.cazoulslesbeziers.com/enfance-et-jeunesse/service-enfance-jeunesse,3.099793,43.384562,"Chemin de l'Enclos, 34370 Cazouls-lès-Béziers"
658,658,Accueil de loisir,Mairie,ENFANT,3.0,17.0,MDJ Colombiers,rue des écoles 34440 COLOMBIERS,,,,04 67 32 00 43,http://jeunessecolombiers.blogspot.com/,3.141689,43.313318,"Rue des Ecoles, 34440 Colombiers"
659,659,Accueil de loisir,Mairie,ENFANT,12.0,17.0,Accueil de jeunes de Colombiers,rue des buissonnets 34710 LESPIGNAN,,,,04 67 37 14 95,http://www.lespignan.fr/-Enfance-Jeunesse-.html,3.170015,43.271868,"Rue des Buissonnets, 34710 Lespignan"
660,660,Accueil de loisir,Mairie,ENFANT,6.0,11.0,ALSH  municipal Lespignan la cardonilha,8 rue des jardins 34710 LESPIGNAN,,,,04 67 98 49 96,http://www.lespignan.fr/-Enfance-Jeunesse-.html,3.169915,43.273299,"8 Rue des Jardins, 34710 Lespignan"
661,661,Accueil de loisir,Mairie,ENFANT,3.0,12.0,ALSH municipal à Puisserguier Planète Lirou,rue font claire 34620 PUISSERGIER,,,,04 67 93 52 17,https://www.cc-sud-herault.fr/enfance-jeunesse-et-famille/enfance/,3.049875,43.365852,"Impasse Font Claire, 34620 Puisserguier"
662,662,Accueil de loisir,Mairie,ENFANT,3.0,14.0,ALSH municipal du libron Vias,Ecole Genevieve de Gaulle 34450 VIAS,,,,04 67 09 25 40,http://www.vias-mediterranee.fr/Annuaire-des-services-lieux-et-equipements/Centre-Aere-ALSH-du-Libron,,,
663,663,Accueil de loisir,Mairie,ENFANT,8.0,11.0,ALSH municipal Le Cyber Sète,4 rue Robespierre 34200 SETE,,,,04 67 53 60 10,https://www.sete.fr/vie-quotidienne/jeunesse-et-education/accueils-de-loisirs-sans-hebergement/,3.680677,43.407841,"4 Rue Robespierre, 34200 Sète"
664,664,Accueil de loisir,Mairie,ENFANT,6.0,7.0,ALSH  municipal Le Chateau Vert Sète,boulevard chevalier de Clerville 34200 SETE,,,,04 67 51 39 82,https://www.sete.fr/vie-quotidienne/jeunesse-et-education/accueils-de-loisirs-sans-hebergement/,3.685111,43.406553,"Boulevard Chevalier de Clerville, 34200 Sète"
665,665,Accueil de loisir,Mairie,ENFANT,3.0,5.0,ALSH municipal Le Vallon Sète,15 rue Robespierre 34200 SETE,,,,04 67 51 10 33,https://www.sete.fr/vie-quotidienne/jeunesse-et-education/accueils-de-loisirs-sans-hebergement/,3.680284,43.409011,"15 Rue Robespierre, 34200 Sète"
666,666,ACCUEIL DE LOISIRS SS HÉBERGEMENT HÉRAULT,,ENFANT,,,Association Halte Pouce,"21 Rue Jean Giroux, 34080 Montpellier ",43.6385499,3.827752,,04 67 40 31 12,,3.846716,43.623856,"21 Rue Jean Coulazou, 34080 Montpellier"
667,667,ACCUEIL DE LOISIRS SS HÉBERGEMENT HÉRAULT,,ENFANT,,,ALSH associatif UFOLEP Ovalie (maternel & élémentaire),"1375 rue de Bugarel, 34070 Montpellier",43.5909137,3.8459423999999998,,04 67 67 41 63,,3.861541,43.595108,"Rue de Bugarel, 34070 Montpellier"
668,668,ACCUEIL DE LOISIRS SS HÉBERGEMENT HÉRAULT,,ENFANT,,,ALSH associatif UFOLEP Grisettes (maternel & élémentaire),"280 rue du Mas Nouguier, 34070 Montpellier",43.5842791,3.8563229,,04 67 67 41 63,,3.85677,43.584369,"280 Rue du Mas Nouguier, 34070 Montpellier"
669,669,ACCUEIL DE LOISIRS SS HÉBERGEMENT HÉRAULT,,ENFANT,,,ALSH associatif UFOLEP Voltaire (élémentaire),"157 rue Henri Sellier, 34000 Montpellier",43.5951802,3.8632524,,04 67 67 41 63,,3.863407,43.595438,"157 Rue Henri Sellier, 34070 Montpellier"
670,670,ACCUEIL DE LOISIRS SS HÉBERGEMENT HÉRAULT,,ENFANT,,,ALSH associatif UFOLEP Kipling (maternel),"311 avenue de Saint Clément, 34000 Montpellier",43.6162952,3.8452347999999996,,04 67 67 41 63,,3.846239,43.61679,"311 Avenue Saint Clément, 34070 Montpellier"
671,671,ACCUEIL DE LOISIRS SS HÉBERGEMENT HÉRAULT,,ENFANT,,,ALSH associatif UFOLEP Pagnol (maternel),"305 rue Georges Brassens, 34000 Montpellier",43.5940222,3.8653888999999997,,04 67 67 41 63,,3.86521,43.593976,"305 Rue Georges Brassens, 34070 Montpellier"
672,672,ACCUEIL DE LOISIRS SS HÉBERGEMENT HÉRAULT,,ENFANT,,,ALSH associatif UFOLEP Baudelaire (élémentaire),"311 avenue de Saint Clément, 34000 Montpellier",43.616571,3.8459483,,04 67 67 41 63,,3.846239,43.61679,"311 Avenue Saint Clément, 34070 Montpellier"
673,673,ACCUEIL DE LOISIRS SS HÉBERGEMENT HÉRAULT,,ENFANT,,,ALSH associatif MUC Vacances (maternel et élémentaire),"120 rue de la Jalade, 34090 Montpellier",43.626631599999996,3.8644567000000003,,04 99 58 35 36,,3.863863,43.626515,"120 Rue de la Jalade, 34090 Montpellier"
674,674,ACCUEIL DE LOISIRS SS HÉBERGEMENT HÉRAULT,,ENFANT,,,ALSH associatif MUC Vacances,"175 rue Villalonga, 34000 Montpellier",43.611984299999996,3.9077739,,04 99 58 35 36,,3.908261,43.611619,"175 Rue Edouard Villalonga, 34000 Montpellier"
675,675,ACCUEIL DE LOISIRS SS HÉBERGEMENT HÉRAULT,,ENFANT,,,ALSH associatif le Relais des enfants (maternel),"15 rue Saint Sépulcre, 34000 Montpellier",43.6093354,3.8733869,,04 67 66 21 30,,3.873374,43.609312,"15 Rue du Saint Sépulcre, 34000 Montpellier"
676,676,ACCUEIL DE LOISIRS SS HÉBERGEMENT HÉRAULT,,ENFANT,,,ALSH associatif le Relais des enfants (maternel),"21 rue d’Aigrefeuille, 34062 Montpellier",43.612419200000005,3.8759052000000005,,04 67 66 21 30,,3.875942,43.612434,"21 Rue d'Aigrefeuille, 34000 Montpellier"
677,677,ACCUEIL DE LOISIRS SS HÉBERGEMENT HÉRAULT,,ENFANT,,,ALSH associatif le Relais des enfants (élémentaire),"1 rue Embouque d’Or, 34000 Montpellier",43.6108096,3.8788543,,04 67 66 21 30,,3.878603,43.610562,"1 Rue Embouque d'Or, 34000 Montpellier"
678,678,ACCUEIL DE LOISIRS SS HÉBERGEMENT HÉRAULT,,ENFANT,,,ALSH associatif Vacances évasion (maternel),"3 rue des Coronilles, 34000 Montpellier",43.6110296,3.8534272000000005,,04 99 13 71 10,,3.853304,43.611136,"3 Rue des Coronilles, 34070 Montpellier"
679,679,ACCUEIL DE LOISIRS SS HÉBERGEMENT HÉRAULT,,ENFANT,,,ALSH associatif Vacances évasion (élémentaire),"5 rue de Clémentville, 34000 Montpellier",43.6108174,3.8541292,,04 99 13 71 10,,3.854371,43.610934,"5 Rue de Clémentville, 34070 Montpellier"
680,680,ACCUEIL DE LOISIRS SS HÉBERGEMENT HÉRAULT,,ENFANT,,,ALSH associatif Vacances évasion (élémentaire),"10 chemin des Barques, 34000 Montpellier",43.60437460000001,3.8943939,,04 99 13 71 10,,3.894131,43.604577,"10 Chemin des Barques, 34000 Montpellier"
681,681,ACCUEIL DE LOISIRS SS HÉBERGEMENT HÉRAULT,,ENFANT,,,ALSH associatif Vacances évasion (maternel & élémentaire),"rue du 8 Mai 1945, 34740 Vendargues",43.655436,3.9758812000000003,,06 40 42 18 62,,3.976196,43.658631,"Avenue du 8 Mai 1945, 34740 Vendargues"
682,682,ACCUEIL DE LOISIRS SS HÉBERGEMENT HÉRAULT,,ENFANT,,,ALSH associatif Vacances évasion (maternel & élémentaire),"place des écoles, 34830 Jacou",43.6551585,3.9118299,,04 99 13 7 10,www.vaceva.com,3.91153,43.655207,"Place des Ecoles, 34830 Jacou"
683,683,ACCUEIL DE LOISIRS SS HÉBERGEMENT HÉRAULT,,ENFANT,,,ALSH associatif Vacances évasion (maternel),"49 rue de la Méditerranée, 34000 Montpellier",43.6047984,3.8864529,,04 99 13 71 10,,3.88645,43.604782,"49 Rue de la Méditerranée, 34070 Montpellier"
684,684,ACCUEIL DE LOISIRS SS HÉBERGEMENT HÉRAULT,,ENFANT,,,ALSH associatif Vacances évasion (élémentaire),"45 rue de la Méditerranée, 34000 Montpellier",43.604988299999995,3.8857432000000003,,04 99 13 71 10,,3.885781,43.604919,"45 Rue de la Méditerranée, 34070 Montpellier"
685,685,ACCUEIL DE LOISIRS SS HÉBERGEMENT HÉRAULT,,ENFANT,,,ALSH associatif Vacances évasion (maternel),"60 avenue d'Assas, 34000 Montpellier",43.6169515,3.861621,,04 99 13 71 10,,3.862198,43.616449,"60 Avenue d'Assas, 34000 Montpellier"
686,686,ACCUEIL DE LOISIRS SS HÉBERGEMENT HÉRAULT,,ENFANT,,,ALSH associatif Vacances évasion (élémentaire),"10 chemin des Barques, 34000 Montpellier",43.6043513,3.8941418,,04 99 13 71 10,,3.894131,43.604577,"10 Chemin des Barques, 34000 Montpellier"
687,687,ACCUEIL DE LOISIRS SS HÉBERGEMENT HÉRAULT,,ENFANT,,,ALSH associatif Vacances évasion (élémentaire),"60 avenue d'Assas, 34000 Montpellier",43.6165651,3.8620822999999995,,04 99 13 71 10,,3.862198,43.616449,"60 Avenue d'Assas, 34000 Montpellier"
688,688,ACCUEIL DE LOISIRS SS HÉBERGEMENT HÉRAULT,,ENFANT,,,ALSH associatif la Gerbe (élémentaire),"19 rue Chaptal, 34000 Montpellier",43.6060055,3.8695994,,04 99 74 24 30,,3.87032,43.605127,"19 Rue Chaptal, 34000 Montpellier"
689,689,ACCUEIL DE LOISIRS SS HÉBERGEMENT HÉRAULT,,ENFANT,,,ALSH associatif les Francas (maternel),"123 rue de Salamanque, 34000 Montpellier",43.623810799999994,3.8183917000000003,mderoche@francas34.fr,06 51 87 47 99,,3.818578,43.623931,"123 Rue de Salamanque, 34080 Montpellier"
690,690,ACCUEIL DE LOISIRS SS HÉBERGEMENT HÉRAULT,,ENFANT,,,ALSH municipal Sun Yat Sen (élémentaire),"843 rue de la Croix de Figuerolles, 34000 Montpellier",43.604394899999996,3.8439558,,06 51 87 47 99,,3.843694,43.604338,"843 Rue de la Croix de Figuerolles, 34070 Montpellier"
691,691,ACCUEIL DE LOISIRS SS HÉBERGEMENT HÉRAULT,,ENFANT,,,ALSH associatif les Francas (élémentaire),"360 avenue de Barcelone, 34000 Montpellier",43.623544700000004,3.8180502,mderoche@francas34.fr,06 51 87 47 99,,3.817587,43.623936,"360 Avenue de Barcelone, 34080 Montpellier"
692,692,ACCUEIL DE LOISIRS SS HÉBERGEMENT HÉRAULT,,ENFANT,,,ALSH municipal Maria Callas (maternel),"803  rue de la Croix de Figuerolles, 34000 Montpellier",43.6043417,3.8446538999999995,,06 51 87 47 99,,3.844265,43.604384,"803 Rue de la Croix de Figuerolles, 34070 Montpellier"
693,693,ACCUEIL DE LOISIRS SS HÉBERGEMENT HÉRAULT,,ENFANT,,,ALSH associatif les Francas (maternel & élémentaire),,43.626152000000005,3.6751419999999997,,06 24 82 89 40,,,,
694,694,ACCUEIL DE LOISIRS SS HÉBERGEMENT HÉRAULT,,ENFANT,,,ALSH associatif les Francas (maternel & élémentaire),,43.697624,3.673969,,,,,,
695,695,ACCUEIL DE LOISIRS SS HÉBERGEMENT HÉRAULT,,ENFANT,,,ALSH associatif GFEN Languedoc (élémentaire),"320 rue Le Grand Mail, 34000 Montpellier",43.625273,3.8154991999999996,,09 50 07 12 44,,3.890966,43.617997,"Rue des Cailles, 34000 Montpellier"
696,696,ACCUEIL DE LOISIRS SS HÉBERGEMENT HÉRAULT,,ENFANT,,,ALSH associatif GFEN Languedoc (élémentaire),"320 rue Le Grand Mail, 34000 Montpellier",43.6251385,3.8139937000000006,,09 50 07 12 44),,3.890966,43.617997,"Rue des Cailles, 34000 Montpellier"
697,697,ACCUEIL DE LOISIRS SS HÉBERGEMENT HÉRAULT,,ENFANT,,,ALSH associatif PEP 34 (maternel et élémentaire),"71 rue Jean Joseph Laborde, 34000 Montpellier",43.6341324,3.8309743999999997,,04 67 40 73 00,,3.83082,43.634133,"71 Rue Jean-joseph Laborde, 34080 Montpellier"
698,698,ACCUEIL DE LOISIRS SS HÉBERGEMENT HÉRAULT,,ENFANT,,,ALSH associatif ACLE (élémentaire),"183 allée de l'aqueduc, 34087 Montpellier",43.61961779999999,3.8423608,,09 65 30 94 83,,3.842462,43.619674,"183 Allée de l'Aqueduc, 34080 Montpellier"
699,699,ACCUEIL DE LOISIRS SS HÉBERGEMENT HÉRAULT,,ENFANT,,,ALSH associatif ACLE (maternel),"183 allée de l'aqueduc, 34087 Montpellier",43.6197421,3.842275,,09 65 30 94 83,,3.842462,43.619674,"183 Allée de l'Aqueduc, 34080 Montpellier"
700,700,ACCUEIL DE LOISIRS SS HÉBERGEMENT HÉRAULT,,ENFANT,,,ALSH associatif Passe-muraille,,43.6711861,3.7178519999999997,alshvailhauques@lepassemuraille.org,06 78 12 96 89,,,,
701,701,ACCUEIL DE LOISIRS SS HÉBERGEMENT HÉRAULT,,ENFANT,,,ALSH associatif Passe-muraille (maternel & élémentaire),,43.791551,3.732024,alshsaintmartindelondres@lepassemuraille.org,06 70 49 33 37,,,,
702,702,ACCUEIL DE LOISIRS SS HÉBERGEMENT HÉRAULT,,ENFANT,,,ALSH associatif Loisirs de La Salle (maternel & élémentaire),"Rue Lunaret, 34000 MONTPELLIER",43.6195802,3.8820108,,04 67 02 76 84,,3.879014,43.615865,"Rue Lunaret, 34090 Montpellier"
703,703,ACCUEIL DE LOISIRS SS HÉBERGEMENT HÉRAULT,,ENFANT,,,ALSH associatif Les Enfants d’Hélène (maternel et élémentaire),"1330 rue Henri Lagattu, 34000 Montpellier",43.629981799999996,3.8320799,,04 99 74 72 80,,3.83136,43.63006,"1330 Rue Henri Lagatu, 34080 Montpellier"
704,704,ACCUEIL DE LOISIRS SS HÉBERGEMENT HÉRAULT,,ENFANT,,,ALSH associatif Léo Lagrange,"6 rue Jules Ferry école primaire, 34110 MIREVAL",43.506566799999995,3.7995871,leolagrange.mireval@orange.fr,04 67 74 94 21,,3.799138,43.506357,"6 Avenue Jules Ferry, 34110 Mireval"
705,705,ACCUEIL DE LOISIRS SS HÉBERGEMENT HÉRAULT,,ENFANT,,,ALSH associatif Éveil en Mouvement (maternel et élémentaire),"Rue Antoine Laurent de Jussieu, 34000 Montpellier",43.6364508,3.8738226000000004,,06 34 45 61 72,,3.873792,43.636338,"Rue Antoine-laurent Jussieu, 34090 Montpellier"
706,706,ACCUEIL DE LOISIRS SS HÉBERGEMENT HÉRAULT,,ENFANT,,,ALSH associatif Loisirs-Education et Citoyenneté Grand sud (maternel),"allée de l'espérance, 34270 Saint-Mathieu-de-Tréviers",43.7740495,3.8682537000000004,lesloulousdupic@loisireduc.org,04 67 55 17 03,,3.868958,43.773857,"Allee de l'Esperance, 34270 Saint-Mathieu-de-Tréviers"
707,707,ACCUEIL DE LOISIRS SS HÉBERGEMENT HÉRAULT,,ENFANT,,,ALSH municipal Aiguelongue (maternel et élémentaire),"2 rue des , 34000 Montpellier",43.626080200000004,3.8793731,,06 17 90 63 81,,3.902844,43.615139,"2 Rue des Ibis, 34000 Montpellier"
708,708,ACCUEIL DE LOISIRS SS HÉBERGEMENT HÉRAULT,,ENFANT,,,ALSH municipal les Tours (maternel),"Rue Pierre Nicolas, 34000 Montpellier",43.639726,3.8126265,,06 17 90 60 33,,3.913866,43.615919,"Rue Nicolas Tesla, 34000 Montpellier"
709,709,ACCUEIL DE LOISIRS SS HÉBERGEMENT HÉRAULT,,ENFANT,,,ALSH municipal les Tours (élémentaire),"135 allée des Hauts de Massane, 34000 Montpellier",43.639943200000005,3.8201086,,06 17 90 60 33,,3.878261,43.608142,"Rue Massane, 34000 Montpellier"
710,710,ACCUEIL DE LOISIRS SS HÉBERGEMENT HÉRAULT,,ENFANT,,,ALSH municipal Oxford (maternel),,43.6273018,3.8190497000000003,,06 17 90 60 97,,,,
711,711,ACCUEIL DE LOISIRS SS HÉBERGEMENT HÉRAULT,,ENFANT,,,ALSH municipal Oxford (élémentaire),"25 rue de Lausanne, 34000 Montpellier",43.6273968,3.8195928,,06 17 90 60 97,,3.819818,43.627318,"25 Rue de Lausanne, 34080 Montpellier"
712,712,ACCUEIL DE LOISIRS SS HÉBERGEMENT HÉRAULT,,ENFANT,,,ALSH municipal Malet (élémentaire),"5 allée Pierre Carabasse, 34080 Montpellier",43.61267410000001,3.8318149,,06 17 90 64 41,,3.830926,43.612686,"5 Allée Pierre Carabasse, 34080 Montpellier"
713,713,ACCUEIL DE LOISIRS SS HÉBERGEMENT HÉRAULT,,ENFANT,,,ALSH municipal Carpantier (maternel),"12 rue des Écoles, 34000 Montpellier",43.61368529999999,3.8277248999999998,,06 17 90 71 27,,3.879088,43.61357,"12 Rue des Ecoles Laïques, 34000 Montpellier"
714,714,ACCUEIL DE LOISIRS SS HÉBERGEMENT HÉRAULT,,ENFANT,,,ALSH municipal la Martelle (maternel),"88 rue Viollet le Duc, 34000 Montpellier",43.6086738,3.8366795,,06 17 90 70 19,,3.836754,43.608655,"88 Rue Viollet le Duc, 34070 Montpellier"
715,715,ACCUEIL DE LOISIRS SS HÉBERGEMENT HÉRAULT,,ENFANT,,,ALSH municipal la Martelle (élémentaire),"110 rue Viollet le Duc, 34000 Montpellier",43.608437200000004,3.8378976000000002,,06 17 90 70 19,,3.837255,43.60853,"110 Rue Viollet le Duc, 34070 Montpellier"
716,716,ACCUEIL DE LOISIRS SS HÉBERGEMENT HÉRAULT,,ENFANT,,,ALSH municipal Michelet (maternel),"Rue des Araucarias, 34000 Montpellier",43.6156312,3.8385227,,06 17 90 68 30,,3.836261,43.616011,"Rue des Araucarias, 34080 Montpellier"
717,717,ACCUEIL DE LOISIRS SS HÉBERGEMENT HÉRAULT,,ENFANT,,,ALSH municipal Villon (élémentaire),"Rue des Araucarias, 34000 Montpellier",43.615629299999995,3.8385172999999995,,06 17 90 67 99,,3.836261,43.616011,"Rue des Araucarias, 34080 Montpellier"
718,718,ACCUEIL DE LOISIRS SS HÉBERGEMENT HÉRAULT,,ENFANT,,,ALSH municipal Combes (maternel),"20 rue Edmond Lautard, 34000 Montpellier",43.6228685,3.8406951,,06 17 90 69 12,,3.841344,43.62484,"20 Rue Edmond Lautard, 34080 Montpellier"
719,719,ACCUEIL DE LOISIRS SS HÉBERGEMENT HÉRAULT,,ENFANT,,,ALSH municipal Combes (élémentaire),"20 rue Edmond Lautard, 34000 Montpellier",43.623094,3.8404288,,06 17 90 69 12,,3.841344,43.62484,"20 Rue Edmond Lautard, 34080 Montpellier"
720,720,ACCUEIL DE LOISIRS SS HÉBERGEMENT HÉRAULT,,ENFANT,,,ALSH municipal Vernes (élémentaire),"127 rue Yehudi Menuhin, 34000 Montpellier",43.6173554,3.8839626000000003,,06 17 90 65 34,,3.884044,43.617285,"127 Rue Yehudi Menuhin, 34000 Montpellier"
721,721,ACCUEIL DE LOISIRS SS HÉBERGEMENT HÉRAULT,,ENFANT,,,ALSH municipal la Fontaine (maternel),"27 quai des Tanneurs, 34090 Montpellier",43.615585700000004,3.8781024,,06 17 90 67 64,,3.874815,43.616216,"Quai des Tanneurs, 34090 Montpellier"
722,722,ACCUEIL DE LOISIRS SS HÉBERGEMENT HÉRAULT,,ENFANT,,,ALSH municipal Roux (maternel & élémentaire),"96 rue du Faubourg Figuerolles, 34000 Montpellier",43.6059136,3.8623796,,06 17 90 62 65,,3.862286,43.605879,"96 Rue du Faubourg Figuerolles, 34070 Montpellier"
723,723,ACCUEIL DE LOISIRS SS HÉBERGEMENT HÉRAULT,,ENFANT,,,ALSH municipal Lantissargues (maternel & élémentaire),"215 boulevard Pédro de Luna, 34000 Montpellier",43.5948815,3.8708123,,06 17 44 58 78,,3.870135,43.594989,"215 Boulevard Pedro de Luna, 34070 Montpellier"
724,724,ACCUEIL DE LOISIRS SS HÉBERGEMENT HÉRAULT,,ENFANT,,,ALSH municipal Estanove (maternel & élémentaire),"Rue du Lavandin, 34000 Montpellier",43.599718599999996,3.8547426,,06 17 90 62 24,,3.850467,43.600734,"Rue du Lavandin, 34070 Montpellier"
725,725,ACCUEIL DE LOISIRS SS HÉBERGEMENT HÉRAULT,,ENFANT,,,ALSH municipal Savary (élémentaire),"240 quai Flora Tristan, 34070 Montpellier",43.5967226,3.8392168,,06 17 90 64 84,,3.840157,43.596516,"240 Quai Flora Tristan, 34070 Montpellier"
726,726,ACCUEIL DE LOISIRS SS HÉBERGEMENT HÉRAULT,,ENFANT,,,ALSH municipal Boucher (maternel),"240 quai Flora Tristan, 34070 Montpellier",43.5964545,3.8399142,,06 17 90 64 84,,3.840157,43.596516,"240 Quai Flora Tristan, 34070 Montpellier"
727,727,ACCUEIL DE LOISIRS SS HÉBERGEMENT HÉRAULT,,ENFANT,,,ALSH municipal les Aiguerelles (élémentaire),"686 avenue du Pont Trinquat, 34000 Montpellier",43.5977947,3.8918833,,06 17 90 69 63,,3.891841,43.597649,"686 Avenue du Pont Trinquat, 34070 Montpellier"
728,728,ACCUEIL DE LOISIRS SS HÉBERGEMENT HÉRAULT,,ENFANT,,,ALSH municipal les Aiguerelles (maternel),"686 avenue du Pont Trinquat, 34000 Montpellier",43.5977947,3.8918833,,06 17 90 69 63,,3.891841,43.597649,"686 Avenue du Pont Trinquat, 34070 Montpellier"
729,729,ACCUEIL DE LOISIRS SS HÉBERGEMENT HÉRAULT,,ENFANT,,,ALSH municipal Cité Mion (élémentaire),"Impasse des Marmousets, 34060 Montpellier",43.59820429999999,3.8818932999999998,,06 17 90 61 09,,3.882086,43.598375,"Impasse des Marmousets, 34000 Montpellier"
730,730,ACCUEIL DE LOISIRS SS HÉBERGEMENT HÉRAULT,,ENFANT,,,ALSH municipal Cité Mion (maternel),"Impasse des Marmousets, 34060 Montpellier",43.5985236,3.8821491000000004,,06 17 90 61 09,,3.882086,43.598375,"Impasse des Marmousets, 34000 Montpellier"
731,731,ACCUEIL DE LOISIRS SS HÉBERGEMENT HÉRAULT,,ENFANT,,,ALSH municipal Malraux (maternel & élémentaire),"Rue Joan Miro, 34000 Montpellier",43.6021215,3.9076084000000004,,04 67 20 35 53,,3.907443,43.602592,"Avenue Joan Miro, 34000 Montpellier"
732,732,ACCUEIL DE LOISIRS SS HÉBERGEMENT HÉRAULT,,ENFANT,,,ALSH municipal Astérix (maternel & élémentaire),"Avenue Albert Einstein, 34000 Montpellier",43.615215500000005,3.9309275,,06 77 76 58 26,,3.899244,43.60596,"Avenue Albert Einstein, 34000 Montpellier"
733,733,ACCUEIL DE LOISIRS SS HÉBERGEMENT HÉRAULT,,ENFANT,,,ALSH municipal Jean Moulin (élémentaire),,43.6187042,3.8913425000000004,rizlene.kebdani@ville-montpellier.fr,06 17 90 60 67,,,,
734,734,ACCUEIL DE LOISIRS SS HÉBERGEMENT HÉRAULT,,ENFANT,,,ALSH municipal Bergman (maternel),"20 boulevard Mounié, 34000 Montpellier",43.61905170000001,3.8909214999999997,,06 17 90 60 67,,3.890768,43.618865,"20 Boulevard Mounié, 34000 Montpellier"
735,735,ACCUEIL DE LOISIRS SS HÉBERGEMENT HÉRAULT,,ENFANT,,,ALSH municipal Juvignac,"20 rue Neptune, 34990 Juvignac",43.621117100000006,3.8070538000000003,,06 80 43 52 17,,3.807525,43.620632,"20 Rue Neptune, 34990 Juvignac"
736,736,ACCUEIL DE LOISIRS SS HÉBERGEMENT HÉRAULT,,ENFANT,,,ALSH municipal la maison des enfants,"2 rue des écoles, 34820 Teyran",43.683088899999994,3.9284476,,06 11 83 01 37,,3.928785,43.683129,"2 Rue des Ecoles, 34820 Teyran"
737,737,ACCUEIL DE LOISIRS SS HÉBERGEMENT HÉRAULT,,ENFANT,,,ALSH municipal Prades-le-lez,"205 chemin des mazes, 34730 Prades-le-Lez",43.700664200000006,3.8667802000000004,,04 67 06 59 96,,3.866411,43.699045,"205 Chemin des Mazes, 34730 Prades-le-Lez"
738,738,ACCUEIL DE LOISIRS SS HÉBERGEMENT HÉRAULT,,ENFANT,,,ALSH municipal Montferrier (maternel & élémentaire),"4 impasse du château, 34980 Montferrier-sur-Lez",43.666682,3.8610019999999996,esj.m@wanadoo.fr,04 67 59 54 99 ,,3.861002,43.666682,"4 Impasse du Château, 34980 Montferrier-sur-Lez"
739,739,ACCUEIL DE LOISIRS SS HÉBERGEMENT HÉRAULT,,ENFANT,,,ALSH municipal Clapiers (maternel),"151 Rue Jean Moulin, 34830 Clapiers",43.6551936,3.888072,,,,3.888072,43.655194,"151 Rue Jean Moulin, 34830 Clapiers"
740,740,ACCUEIL DE LOISIRS SS HÉBERGEMENT HÉRAULT,,ENFANT,,,ALSH municipal Clapiers (élémentaire),"Rue du bosc, 34830 Clapiers",43.658343200000004,3.8875469,,,,3.88691,43.657574,"Rue du Bosc, 34830 Clapiers"
741,741,ACCUEIL DE LOISIRS SS HÉBERGEMENT HÉRAULT,,ENFANT,,,ALSH municpal Le Crès (maternel & élémentaire),"28 avenue des Cevennes, 34920 LE CRES",43.6475406,3.9412095999999996,,04 67 41 95 49  ,,3.941432,43.647339,"28 Avenue des Cevennes, 34920 Le Crès"
742,742,ACCUEIL DE LOISIRS SS HÉBERGEMENT HÉRAULT,,ENFANT,,,ALSH municipal Castelnau-le-Lez (maternel & élémentaire),"213 Chemin des Mendrous, 34170 Castelnau-le-Lez",43.636702899999996,3.9147117,,04 67 14 27 92,,3.914987,43.63581,"213 Chemin des Mendrous, 34170 Castelnau-le-Lez"
743,743,ACCUEIL DE LOISIRS SS HÉBERGEMENT HÉRAULT,,ENFANT,,,ALSH municipal Saint Aunès,"Place de l' escolette, 34130 Saint-Aunès",43.636678499999995,3.9652053999999994,,,,3.965501,43.636822,"Rue de l'Escolette, 34130 Saint-Aunès"
744,744,ACCUEIL DE LOISIRS SS HÉBERGEMENT HÉRAULT,,ENFANT,,,ALSH intercommunal Castries (maternel & élmentaire),"Route de Fontmarie, 34160 CASTRIES",43.6945671,3.9936403,,04 67 87 30 15,,3.996862,43.689282,"Route de Fontmarie, 34160 Castries"
745,745,ACCUEIL DE LOISIRS SS HÉBERGEMENT HÉRAULT,,ENFANT,,,ALSH municipal Saint Georges d'orques (maternel),"2 avenue d'Occitanie, 34680 Saint-Georges-d'Orques",43.6084717,3.7875222,alsh.maternel@ville-st-georges-dorques.fr,04 67 40 57 12,,3.784165,43.607854,"2 Avenue d'Occitanie, 34680 Saint-Georges-d'Orques"
746,746,ACCUEIL DE LOISIRS SS HÉBERGEMENT HÉRAULT,,ENFANT,,,ALSH municipal Saint Georges d'orques (élémentaire),"avenue des Jardins, 34680 Saint-Georges-d'Orques",43.6088205,3.7830133000000004,clsh.primaire@ville-st-georges-dorques.fr,04 67 45 59 47,,3.782807,43.609881,"Avenue des Jardins, 34680 Saint-Georges-d'Orques"
747,747,ACCUEIL DE LOISIRS SS HÉBERGEMENT HÉRAULT,,ENFANT,,,ALSH municipal Saint Gély du Fesc (maternel & élémentaire),"70 rue Rompude, 34980 Saint-Gély-du-Fesc",43.6948565,3.8004523,mairie.alshlesgalopins@saintgelydufesc.com,04 67 66 64 88,,3.800528,43.694087,"70 Rue de la Rompude, 34980 Saint-Gély-du-Fesc"
748,748,ACCUEIL DE LOISIRS SS HÉBERGEMENT HÉRAULT,,ENFANT,,,ALSH municipal Saint Clément de rivière (élémentaire),,43.6858576,3.8490193,clsh@saint-clement-de-riviere.fr,04.67.84.49.60,,,,
749,749,ACCUEIL DE LOISIRS SS HÉBERGEMENT HÉRAULT,,ENFANT,,,ALSH municipal Saint Jean de védas (maternel & élémentaire),"rue de la combe, 34430 Saint-Jean-de-Védas",43.566998999999996,3.8249872000000003,,04 99 52 20 62,,3.826146,43.566708,"Rue de la Combe, 34430 Saint-Jean-de-Védas"
750,750,ACCUEIL DE LOISIRS SS HÉBERGEMENT HÉRAULT,,ENFANT,,,ALSH municipal Lavérune (maternel & élémentaire),"Avenue du château, 34880 Lavérune",43.5847556,3.8021772000000005,,04 99 51 20 17,,3.802828,43.584412,"Avenue du Château, 34880 Lavérune"
751,751,ACCUEIL DE LOISIRS SS HÉBERGEMENT HÉRAULT,,ENFANT,,,ALSH intercommunal de Mauguio (maternel & élémentaire),"chemin de Bentenac, 34130 Mauguio",43.6055575,4.0179168,maison.des.loisirs@paysdelor.fr,04 67 91 20 89,,4.012303,43.611056,"Chemin de Bentenac, 34130 Mauguio"
752,752,ACCUEIL DE LOISIRS SS HÉBERGEMENT HÉRAULT,,ENFANT,,,ALSH intercommunal Palavas les flots (maternel & élémentaire),"Rue de la Tramontane, 34250 Palavas-les-Flots",43.531469,3.9332550000000004,clsh.palavas@paysdelor.fr,04 67 20 18 35,,3.932737,43.531011,"Rue de la Tramontane, 34250 Palavas-les-Flots"
753,753,ACCUEIL DE LOISIRS SS HÉBERGEMENT HÉRAULT,,ENFANT,,,ALSH intercommunal de La Grande motte (maternel & élémentaire),"98 rue Saint-Louis, 34280 La Grande Motte",43.5594089,4.0995064,clsh.lgm@paysdelor.fr,04 67 56 08 10,,4.10112,43.564128,"98 Rue Saint Louis, 34280 La Grande-Motte"
754,754,ACCUEIL DE LOISIRS SS HÉBERGEMENT HÉRAULT,,ENFANT,,,ALSH intercommunal Valergues (maternel & élémentaire),"105 avenue Frédéric Mistral, 34130 Valergues",43.6672191,4.06252,clsh.valergues@paysdelor.fr,04 67 63 47 05,,4.06252,43.667219,"105 Avenue Frederic Mistral, 34130 Valergues"
755,755,ACCUEIL DE LOISIRS SS HÉBERGEMENT HÉRAULT,,ENFANT,,,ALSH municipal Baillargues (maternel & élémentaire),"10 rue de la Chicane, 34670 Baillargues",43.6592717,4.0121985,sportetjeunesse@ville-baillargues.fr,04 67 87 41 93 / 95,,4.012043,43.659548,"10 Rue de la Chicane, 34670 Baillargues"
756,756,ACCUEIL DE LOISIRS SS HÉBERGEMENT HÉRAULT,,ENFANT,,,ALSH municipal Lattes (maternel & élémentaire),"avenue de Fréjorgues, 34970 LATTES",43.569431099999996,3.9109347999999997,centre.loisirs@ville-lattes.fr,06 15 77 50 56,,3.911483,43.569524,"Avenue de Frejorgues, 34970 Lattes"
757,757,ACCUEIL DE LOISIRS SS HÉBERGEMENT HÉRAULT,,ENFANT,,,ALSH municipal Murviel-les-montpellier (maternel & élémentaire),"Rue Lucie et Raymond Aubrac, 34570 Murviel Les Montpellier",43.6045681,3.7353312000000005,,04 67 47 68 65,,3.734803,43.603737,"Rue de l'Ancien Four, 34570 Murviel-lès-Montpellier"
758,758,ACCUEIL DE LOISIRS SS HÉBERGEMENT HÉRAULT,,ENFANT,,,ALSH municipal Pérols (maternel & élémentaire),"Rue des flamants roses, 34470 Pérols",43.565839200000006,3.9527059999999996,,04 67 50 45 45,,3.952841,43.565106,"Rue des Flamants Roses, 34470 Pérols"
759,759,ACCUEIL DE LOISIRS SS HÉBERGEMENT HÉRAULT,,ENFANT,,,ALSH municipal Pignan (maternal & élémentaire),,43.582080100000006,3.7611531000000005,,06 71 32 15 90,,,,
760,760,ACCUEIL DE LOISIRS SS HÉBERGEMENT HÉRAULT,,ENFANT,,,ALSH municipal Fabrègues (maternel & élémentaire),"150 rue Georges-Pompidou, 34690
Fabrègues",43.5559572,3.7812038999999995,alsh@fabregues.fr,04 67 85 43 62,,3.781253,43.556095,"150 Rue Georges Pompidou, 34690 Fabrègues"
761,761,ACCUEIL DE LOISIRS SS HÉBERGEMENT HÉRAULT,,ENFANT,,,ALSH associatif APUM Fac de sciences (maternel & élémentaire),"Place Eugène-Bataillon Case courrier 098, 34095 Montpellier Cedex",43.6352557,3.8607745,cle-apum@umontpellier.fr,04 67 14 30 99,,3.86032,43.631747,"Place Eugène Bataillon, 34090 Montpellier"
762,762,ACCUEIL DE LOISIRS SS HÉBERGEMENT HÉRAULT,,ENFANT,,,ALSH municipal Villeneuve-les-maguelone,"2 place des Héros, 34750 Villeneuve-lès-Maguelone",43.5334869,3.8611367999999997,,04 67 69 75 70,,3.86128,43.533392,"2 Place des Héros, 34750 Villeneuve-lès-Maguelone"
763,763,ACCUEIL DE LOISIRS SS HÉBERGEMENT HÉRAULT,,ENFANT,,,ALSH municipal Grabels (maternel & élémentaire),"15 impasse du Picadou, 34790 Grabels",43.644850299999995,3.8019851000000005,,04 67 79 71 85,,3.801985,43.64485,"15 Impasse du Picadou, 34790 Grabels"
764,764,ACCUEIL DE LOISIRS SS HÉBERGEMENT HÉRAULT,,ENFANT,,,ALSH municipal Montarnaud (maternel & élémentaire),,43.650152,3.6928577000000007,,,,,,
765,765,ACCUEIL DE LOISIRS SS HÉBERGEMENT HÉRAULT,,ENFANT,,,ALSH municipal Cournonterral (maternel & élémentaire),,43.558067,3.719578,centreloisirs@ville-cournonterral.fr,,,,,
766,766,ACCUEIL DE LOISIRS SS HÉBERGEMENT HÉRAULT,,ENFANT,,,ALSH municipal Combaillaux (maternel & élémentaire),,43.677099,3.766372,,,,,,
767,767,ACCUEIL DE LOISIRS SS HÉBERGEMENT HÉRAULT,,ENFANT,,,ALSH municipal les Matelles (maternel & élémentaire),,43.7306886,3.8117928,alsh@mairiedesmatelles.fr,,,,,
768,768,ACCUEIL DE LOISIRS SS HÉBERGEMENT HÉRAULT,,ENFANT,,,ALSH municipal Saint Matthieu de treviers (maternel & élémentaire),,43.7628705,3.8695616999999998,,,,,,
769,769,ACCUEIL DE LOISIRS SS HÉBERGEMENT HÉRAULT,,ENFANT,,,Accueil l'Ecolothèque,"Mas de Grille, 1 rue Théophraste Renaudot, 34430 Saint-Jean-de-Védas",43.5727501,3.8524260000000004,,04 99 52 82 82,,3.852923,43.573162,"1 Rue Theophraste Renaudot, 34430 Saint-Jean-de-Védas"
770,770,ACCUEIL DE LOISIRS SS HÉBERGEMENT HÉRAULT,,ENFANT,,,Accueil les Ateliers d'Arthur,"12 rue Marcel de Serres, 34000 Montpellier",43.6127828,3.865104,,09 81 05 21 20,,3.865532,43.612754,"12 Rue Marcel de Serres, 34000 Montpellier"
771,771,ACCUEIL DE LOISIRS SS HÉBERGEMENT HÉRAULT,,ENFANT,,,Accueil MCSA 34,"Association Montpellier Culture Sport Adapté 2 Rue Ernest Castan, 34090 Montpellier",43.619015600000004,3.8811282,,04 67 79 23 40,,3.880545,43.61853,"2 Rue Ernest Castan, 34090 Montpellier"
772,772,ACCUEIL DE LOISIRS SS HÉBERGEMENT HÉRAULT,,ENFANT,,,Accueil Pause-goûter,"Village du Père Soulas Mas des Moulins, 2452 Avenue du Père Soulas, 34090 Montpellier",43.6296766,3.8445282,,04 67 41 98 21,,3.843772,43.62982,"2452 Avenue du Père Soulas, 34090 Montpellier"
773,773,ACCUEIL DE LOISIRS SS HÉBERGEMENT HÉRAULT,,ENFANT,,,ALSH associatif MJC Trencavel (élémentaire & Ados),"Maison des Jeunes et de la Culture Centre socioculturel Trencavel, 13A Bd Du Guesclin 34500 Béziers",43.34482070000001,3.2232491000000003,infos@mjc-beziers.org,04 67 31 27 34,www.mjc-beziers.org,3.223169,43.34444,"13 a Boulevard Bertrand du Guesclin, 34500 Béziers"
774,774,ACCUEIL DE LOISIRS SS HÉBERGEMENT HÉRAULT,,ENFANT,,,ALSH municipal Brassens (élémentaire),"31 avenue Auguste Albertini, , 34500 Béziers",43.3493755,3.2361793999999997,,04 67 62 87 00,,3.236179,43.349376,"31 Avenue Auguste Albertini, 34500 Béziers"
775,775,ACCUEIL DE LOISIRS SS HÉBERGEMENT HÉRAULT,,ENFANT,,,ALSH intercommunal Servian (maternel & élémentaire),"PCL VILLAMONT, Bois d’Amilhac, 34290 SERVIAN                     ",43.3957641,3.3021102999999994,,04 67 76 02 76,http://villamont-beziers.fr/portfolio/centre-de-loisir/,3.301303,43.400169,"Domaine d'Amilhac, 34290 Servian"
776,776,ACCUEIL DE LOISIRS SS HÉBERGEMENT HÉRAULT,,ENFANT,,,ALSH municipal Dolto (maternel),"ALSH Dolto, 330 rue Claude Nougaro, 34500 Béziers",43.3452082,3.2528232999999998,,04 99 43 81 72,,3.25324,43.345237,"330 Rue Claude Nougaro, 34500 Béziers"
777,777,ACCUEIL DE LOISIRS SS HÉBERGEMENT HÉRAULT,,ENFANT,,,ALSH municipal Albert Camus (élémentaire),"ALSH Albert Camus, Esplanade Rosa Parks, 34500 Béziers",43.3345614,3.2516232999999994,,04 67 32 62 00,,3.251226,43.333927,"Esplanade Rosa Parks, 34500 Béziers"
778,778,ACCUEIL DE LOISIRS SS HÉBERGEMENT HÉRAULT,,ENFANT,,,ALSH municipal Vaclav Havel (élémentaire),"ALSH Vaclav Havel, Rue Jules Dalou, 34500 Béziers",43.350751,3.2088330000000003,,04 67 36 73 57,,3.210085,43.347949,"Rue Jules Dalou, 34500 Béziers"
779,779,ACCUEIL DE LOISIRS SS HÉBERGEMENT HÉRAULT,,ENFANT,,,ALSH municipal Malbosc (marternel),"ALSH Malbosc,Quartier La Courondelle, 181 rue Ostermeyer, 34500 Béziers",43.363313500000004,3.2255525,,04 99 43 81 72,,3.225246,43.363079,"181 Rue Micheline Ostermeyer, 34500 Béziers"
780,780,ACCUEIL DE LOISIRS SS HÉBERGEMENT HÉRAULT,,ENFANT,,,ALSH municipal Zinga Zanga (maternel & élémentaire),"Centre Loisirs Zinga Zanga, Traverse de Colombiers, 34500 Béziers - Pradines le Bas",43.329228,3.190512,,04 67 48 13 36,,3.191872,43.331747,"Traverse de Colombiers, 34500 Béziers"
781,781,ACCUEIL DE LOISIRS SS HÉBERGEMENT HÉRAULT,,ENFANT,,,ALSH municipal Martin Luther King (élémentaire),"ALSH Martin Luther King, 26, rue de l’Orb, 34500 Béziers",43.338458200000005,3.2101064,,04 67 80 07 20,,3.210667,43.339239,"26 Rue de l'Orb, 34500 Béziers"
782,782,ACCUEIL DE LOISIRS SS HÉBERGEMENT HÉRAULT,,ENFANT,,,ALSH municipal Sauvian (maternel & élémentaire),"ALSH municipal Sauvian, rue caucadis, 34410 Sauvian",43.295778600000006,3.2600096,direction.alsh@ville-sauvian.com / alsh@ville-sauvian.com,04 67 32 20 49,,3.260028,43.295732,"Rue Caucadis, 34410 Sauvian"
783,783,ACCUEIL DE LOISIRS SS HÉBERGEMENT HÉRAULT,,ENFANT,,,ALSH associatif les Francas (maternel & élémentaire),"ALSH associatif les Francas, Rue des Lilas, 34420 VILLENEUVE LES BEZIERS                        ",43.31531629999999,3.2862556000000005,,04 67 39 39 59,,3.28446,43.315454,"Rue des Lilas, 34420 Villeneuve-lès-Béziers"
784,784,ACCUEIL DE LOISIRS SS HÉBERGEMENT HÉRAULT,,ENFANT,,,ALSH municipal Sérignan (maternel & élémentaire),"Ecole Ferdinand Buisson, Avenue de la Plage, 34410  Sérignan",43.2772086,3.2837376000000003,clm@ville-serignan.fr,04 67 32 32 13,,3.282648,43.279495,"Avenue de la Plage, 34410 Sérignan"
785,785,ACCUEIL DE LOISIRS SS HÉBERGEMENT HÉRAULT,,ENFANT,,,ALSH municipal Montady (maternel & élémentaire),,43.3307667,3.1202843,Centredeloisirs@montady.com,04 86 11 28 03,,,,
786,786,ACCUEIL DE LOISIRS SS HÉBERGEMENT HÉRAULT,,ENFANT,,,ALSH municipal Portiragnes,,43.277700200000005,3.3545756,clshmoniquesaluste@wanadoo.fr,04 67 90 81 01,www.clshmoniquesaluste.com,,,
787,787,ACCUEIL DE LOISIRS SS HÉBERGEMENT HÉRAULT,,ENFANT,,,ALSH municipal Bessan (maternel & élémentaire),"A.L.S.H de Montblanc, Route de Montblanc, 34550 Bessan",43.3702474,3.4103707,,04 67 77 57 32,,3.417118,43.363623,"Route de Montblanc, 34550 Bessan"
788,788,ACCUEIL DE LOISIRS SS HÉBERGEMENT HÉRAULT,,ENFANT,,,ALSH municipal Montblanc (maternel),"1 Résidence les Vignes, 34290 MONTBLANC",43.3962226,3.3635371,accueildeloisirs-montblanc34@orange.fr,04 67 37 93 56,,3.362594,43.396412,"1 Lotissement les Vignes, 34290 Montblanc"
789,789,ACCUEIL DE LOISIRS SS HÉBERGEMENT HÉRAULT,,ENFANT,,,ALSH municipal Montblanc (élémentaire),"AVENUE DE LA PAIX, 34290 MONTBLANC",43.393708200000006,3.3655411,accueildeloisirs-montblanc34@orange.fr,04 67 01 57 43,,3.3664,43.395204,"Avenue de la Paix, 34290 Montblanc"
790,790,ACCUEIL DE LOISIRS SS HÉBERGEMENT HÉRAULT,,ENFANT,,,ALSH municipal Pézenas (maternel & élémentaire,"2 rue Louis Audibert, 34120 Pézenas",43.4540925,3.4159900000000003,l.senesi@ville-pezenas.fr,04 67 90 74 05,,3.41789,43.454004,"2 Rue Louis Audibert, 34120 Pézenas"
791,791,ACCUEIL DE LOISIRS SS HÉBERGEMENT HÉRAULT,,ENFANT,,,ALSH municipal Valros (maternel & élémentaire),"ALSH « Les Faïsses », 12 Allée des Tilleuls 34290 VALROS",43.4174193,3.3655577000000005,alpalsh.valros@laposte.net,06 71 34 49 39,,3.364743,43.416784,"Allée des Tilleuls, 34290 Valros"
792,792,ACCUEIL DE LOISIRS SS HÉBERGEMENT HÉRAULT,,ENFANT,,,ALSH associatif les Francas (maternel & élémentaire),,43.771518,3.9078489999999997,loisirssaintecroix@francas34.fr,06 51 62 73 55,,,,
793,793,ACCUEIL DE LOISIRS SS HÉBERGEMENT HÉRAULT,,ENFANT,,,Accueil associatif UFCV salle attente PMI Béziers,,43.3376441,3.2556267999999995,languedoc-roussillon@ufcv.fr,,,,,
794,794,ACCUEIL DE LOISIRS SS HÉBERGEMENT HÉRAULT,,ENFANT,,,ALSH intercommunal Planète Lirou(maternel & élémentaire),"Maison des Enfants, Rue Font Claire, 34620 Puisserguier",43.367434,3.051838,,04 67 93 65 17,,,,
795,795,ACCUEIL DE LOISIRS SS HÉBERGEMENT HÉRAULT,,ENFANT,,,ALSH intercommunal Planète Orb (maternel & élémentaire),"Ecole Maternelle/Espace Léo Lagrange, 34360 CESSENON-SUR-ORB",43.450873200000004,3.0501278,,04 67 89 60 78,,7.158632,43.655189,"Rue Leo Lagrange, 06800 Cagnes-sur-Mer"
796,796,ACCUEIL DE LOISIRS SS HÉBERGEMENT HÉRAULT,,ENFANT,,,ALSH municipal Montagnac (maternel & élémentaire),"7 rue gendarme Lebaron, 34530 MONTAGNAC",43.4839644,3.4791502999999997,alsh.ferry@ville-montagnac.fr,04 67 25 02 24,,3.480482,43.482051,"7 Rue Aspirant Lebaron, 34530 Montagnac"
797,797,ACCUEIL DE LOISIRS SS HÉBERGEMENT HÉRAULT,,ENFANT,,,ALSH intercommunal la Clé des champs (maternel & élémentaire),"Avenue de Caux, 34320 ROUJAN",43.5046204,3.3133081,lacledeschamps.roujan@wanadoo.fr,04 67 24 82 31,,3.312709,43.503836,"Avenue de Caux, 34320 Roujan"
798,798,ACCUEIL DE LOISIRS SS HÉBERGEMENT HÉRAULT,,ENFANT,,,ALSH municipal Montagnac (maternel & élémentaire),,43.499911600000004,3.5975426,alsh@villeveyrac.fr,04 67 53 44 92,,,,
799,799,ACCUEIL DE LOISIRS SS HÉBERGEMENT HÉRAULT,,ENFANT,,,ALSH municipal Loupian (maternel & élémentaire),,43.449123799999995,3.6148102999999994,clae@loupian.fr,04 67 43 91 62,,,,
800,800,ACCUEIL DE LOISIRS SS HÉBERGEMENT HÉRAULT,,ENFANT,,,ALSH municipal Mèze (maternel),,43.421470299999996,3.5955472,alsh.maternel@ville-meze.fr,04 67 43 93 55,,,,
801,801,ACCUEIL DE LOISIRS SS HÉBERGEMENT HÉRAULT,,ENFANT,,,ALSH municipal Mèze (élémentaire),,43.441308299999996,3.5945258,alsh-sesquiers@ville-meze.fr,04 67 43 93 55,,,,
802,802,ACCUEIL DE LOISIRS SS HÉBERGEMENT HÉRAULT,,ENFANT,,,ALSH municipal Marseillan (maternel & élémentaire),"1 rue du Général de Gaulle, 34340 Marseillan",43.3170627,3.5462837,sabrina.ibanez@marseillan.com,06 67 65 37 71,,3.527895,43.356008,"1 Rue General de Gaulle, 34340 Marseillan"
803,803,ACCUEIL DE LOISIRS SS HÉBERGEMENT HÉRAULT,,ENFANT,,,ALSH municipal Florensac (maternel & élémentaire),"AVENUE JEAN JAURES, 34510 Florensac",43.3839211,3.4645667,,,,3.465561,43.383404,"Avenue Jean Jaures, 34510 Florensac"
804,804,ACCUEIL DE LOISIRS SS HÉBERGEMENT HÉRAULT,,ENFANT,,,ALSH intercommunal Fontès (maternel),,43.5390115,3.3794154,pole.fontes@cc-clermontais.fr,04 67 24 10 22,,,,
805,805,ACCUEIL DE LOISIRS SS HÉBERGEMENT HÉRAULT,,ENFANT,,,ALSH intercommunal Fontès (élémentaire),,43.5395635,3.3814184000000003,,,,,,
806,806,ACCUEIL DE LOISIRS SS HÉBERGEMENT HÉRAULT,,ENFANT,,,ALSH intercommunal Canet (maternel & élémentaire),,43.608585999999995,3.4886468999999996,pole.canet@cc-clermontais.fr,04 67 96 93 53,,,,
807,807,ACCUEIL DE LOISIRS SS HÉBERGEMENT HÉRAULT,,ENFANT,,,ALSH intercommunal Ceyras (maternel & élémentaire),,43.648404799999994,3.4538333,pole.ceyras@cc-clermontais.fr,04 67 88 67 04,,,,
808,808,ACCUEIL DE LOISIRS SS HÉBERGEMENT HÉRAULT,,ENFANT,,,ALSH intercommunal Clermont l'Hérault (maternel & élémentaire),,43.6330524,3.4301709000000002,pole.clermont@cc-clermontais.fr,04 67 96 23 05,,,,
809,809,ACCUEIL DE LOISIRS SS HÉBERGEMENT HÉRAULT,,ENFANT,,,ALSH intercommunal Nébian (maternel & élémentaire),,43.6045216,3.4349383,pole.nebian@cc-clermontais.fr,04 67 88 08 98,,,,
810,810,ACCUEIL DE LOISIRS SS HÉBERGEMENT HÉRAULT,,ENFANT,,,ALSH intercommunal Paulhan (maternel & élémentaire),,43.54300429999999,3.4605612,pole.paulhan@cc-clermontais.fr,04 67 25 05 23,,,,
811,811,ACCUEIL DE LOISIRS SS HÉBERGEMENT HÉRAULT,,ENFANT,,,ALSH municipal Gigean (élémentaire),"Rue des écoles laïques, 34770 Gigean",43.5002341,3.7131748,,04 67 46 64 61,,3.712154,43.500587,"Rue des Ecoles Laiques, 34770 Gigean"
812,812,ACCUEIL DE LOISIRS SS HÉBERGEMENT HÉRAULT,,ENFANT,,,ALSH municipal Gigean (maternel),"Rue de la Clau, 34770 Gigean",43.494122600000004,3.7060824,,06 67 53 77 19,,3.709868,43.497016,"Rue de la Clau, 34770 Gigean"
813,813,ACCUEIL DE LOISIRS SS HÉBERGEMENT HÉRAULT,,ENFANT,,,ALSH municipal Poussan (maternel  é élémentaire),"26 rue de la salle, 34560 POUSSAN",43.488103499999994,3.6668613,clsh@ville-poussan.fr,04 67 18 13 38,,3.667023,43.487754,"26 Rue de la Salle, 34560 Poussan"
814,814,ACCUEIL DE LOISIRS SS HÉBERGEMENT HÉRAULT,,ENFANT,,,ALSH municipal Gignac (élémentaire),"Centre Georges Frayssinhes, Rue Pierre Curie, 34150 Gignac",43.6535417,3.5465957,centredeloisirs@ville-gignac.com,04 67 57 63 31,,3.548718,43.652575,"Rue Pierre Curie, 34150 Gignac"
815,815,ACCUEIL DE LOISIRS SS HÉBERGEMENT HÉRAULT,,ENFANT,,,ALSH municipal Saint André de Sangonis (maternel & élémentaire),"7 Cours de la Liberté, 34725 Saint-André-de-Sangonis",43.650686799999995,3.5033461000000004,,04 67 60 31 67,,3.503755,43.651261,"7 Cours de la Liberté, 34725 Saint-André-de-Sangonis"
816,816,ACCUEIL DE LOISIRS SS HÉBERGEMENT HÉRAULT,,ENFANT,,,ALSH municipal Montpeyroux (maternel & élémentaire),,43.6983965,3.5011767999999996,enfance.jeunesse@montpeyroux34.com,06 14 39 69 44,,,,
817,817,ACCUEIL DE LOISIRS SS HÉBERGEMENT HÉRAULT,,ENFANT,,,ALSH municipal Saint Pargoire (maternel & élémentaire),"Espace Jean moulin, 34230 SAINT PARGOIRE",43.526555,3.5177605000000005,enfance-jeunesse@ville-saintpargoire.com,04 67 98 76 75,,3.519919,43.529888,"Espa Parc Cabanis, 34230 Saint-Pargoire"
818,818,ACCUEIL DE LOISIRS SS HÉBERGEMENT HÉRAULT,,ENFANT,,,ALSH associatif La Clau Besierenca (maternel & élémentaire),,43.3395751,3.2172194,clau.calandreta@gmail.com,04 67 28 18 53,,,,
819,819,ACCUEIL DE LOISIRS SS HÉBERGEMENT HÉRAULT,,ENFANT,,,Association Jouons en ludothèques,,43.5997216,3.8447079,,04 67 69 00 81,www.jouonsenludotheques.fr,,,
820,820,ACCUEIL DE LOISIRS SS HÉBERGEMENT HÉRAULT,,ENFANT,,,ALSH intercommunal Cessenon-sur-Orb (maternel & élémentaire),,43.4495675,3.0498402000000002,,,,,,
821,821,ACCUEIL DE LOISIRS SS HÉBERGEMENT HÉRAULT,,ENFANT,,,Mairie,,43.6530197,3.5511947,,,,,,
822,822,ACCUEIL DE LOISIRS SS HÉBERGEMENT HÉRAULT,,ENFANT,,,Fabregues,,43.5495789,3.7791279,,,,,,
823,823,ACCUEIL DE LOISIRS SS HÉBERGEMENT HÉRAULT,,ENFANT,,,MONTARNAUD,,43.64881679999999,3.6982044999999997,,,,,,
824,824,ACCUEIL DE LOISIRS SS HÉBERGEMENT HÉRAULT,,ENFANT,,,Cournonsec,,43.543483,3.6993669999999996,,,,,,
825,825,ACCUEIL DE LOISIRS SS HÉBERGEMENT HÉRAULT,,ENFANT,,,Lattes,,43.568028000000005,3.901911,,,,,,
826,826,ACCUEIL DE LOISIRS SS HÉBERGEMENT HÉRAULT,,ENFANT,,,Bouillon Cube / LA GRANGE,"Bouillon cube La Grange, 34380 Causse de la Selle",43.813824,3.660712,grange@bouilloncube.fr,04 67 71 35 42,www.bouilloncube.fr,3.649468,43.804126,"Le Village, 34380 Causse-de-la-Selle"
827,827,ACCUEIL DE LOISIRS SS HÉBERGEMENT HÉRAULT,,ENFANT,,,ALSH municipal Lauret,,43.8327149,3.8855452000000006,,09 60 12 94 77,,,,
828,828,ACCUEIL DE LOISIRS SS HÉBERGEMENT HÉRAULT,,ENFANT,,,ALSH municipal Claret,,43.861204,3.9044269999999996,,09 60 12 94 77,,,,
829,829,ACCUEIL DE LOISIRS SS HÉBERGEMENT HÉRAULT,,ENFANT,,,MDJ Claret,,43.8647323,3.8930898999999997,mdj@claret.fr,06 72 26 17 33,,,,
830,830,ACCUEIL DE LOISIRS SS HÉBERGEMENT HÉRAULT,,ENFANT,,,ALSH St Bauzille de Putois,,43.895697600000005,3.7391205999999997,accueildeloisirssaintbauzille@gmail.com,04 67 73 37 68,,,,
831,831,ACCUEIL DE LOISIRS SS HÉBERGEMENT HÉRAULT,,ENFANT,,,ALSH association le passe muraille,,43.7523698,3.7177653,,04 67 55 96 68,,,,
832,832,ACCUEIL DE LOISIRS SS HÉBERGEMENT HÉRAULT,,ENFANT,,,ALSH  La Giraf’à Bulles Bleues à Brissac,,43.877954200000005,3.7032491999999997,alsh.brissac@hotmail.fr,04 99 53 81 47,,,,
833,833,ACCUEIL DE LOISIRS SS HÉBERGEMENT HÉRAULT,,ENFANT,,,ALSH de Ganges,,43.936295799999996,3.7073996,,04 67 73 80 05,,,,
834,834,ACCUEIL DE LOISIRS SS HÉBERGEMENT HÉRAULT,,ENFANT,,,ALSH les santolines Viols le fort,,43.7424485,3.7040333,,06 87 94 43 74,,,,
835,835,ACCUEIL DE LOISIRS SS HÉBERGEMENT HÉRAULT,,ENFANT,,,ALSH municipal st jean de fos,,43.7000816,3.5536885999999996,alsh.saintjean34@hotmail.fr,04 67 29 99 72,,,,
836,836,ACCUEIL DE LOISIRS SS HÉBERGEMENT HÉRAULT,,ENFANT,,,ALSH muncipal st Drezéry,,43.733889000000005,3.981963,,04 67 86 90 87,,,,
837,837,ACCUEIL DE LOISIRS SS HÉBERGEMENT HÉRAULT,,ENFANT,,,ALSH municipal Sussargues,,43.7127355,4.0045918,,04 67 87 42 70,,,,
838,838,ACCUEIL DE LOISIRS SS HÉBERGEMENT HÉRAULT,,ENFANT,,,ALSH municipal Lunel (maternelle),,43.6704367,4.1260303,alsh.lunel@paysdelunel.fr,04 99 51 69 44,alsh.paysdelunel.fr,,,
839,839,ACCUEIL DE LOISIRS SS HÉBERGEMENT HÉRAULT,,ENFANT,,,ALSH municipal Lunel (élementaire),,43.6761474,4.1300876,alsh.lunel@paysdelunel.fr,04 99 51 69 44,alsh.paysdelunel.fr,,,
840,840,ACCUEIL DE LOISIRS SS HÉBERGEMENT HÉRAULT,,ENFANT,,,ALSH  municipal Lunel viel,,43.6763225,4.0934807,alsh.lunelviel@paysdelunel.fr,07 63 23 10 07,,,,
841,841,ACCUEIL DE LOISIRS SS HÉBERGEMENT HÉRAULT,,ENFANT,,,ALSH municipal Vendemian,,43.58103079999999,3.5617242,alsh-vendemian@hotmail.fr,04 67 88 76 51,,,,
842,842,ACCUEIL DE LOISIRS SS HÉBERGEMENT HÉRAULT,,ENFANT,,,MDJ Cazouls les beziers,,43.393318,3.0969365,maison-des-jeunes7@wanadoo.fr,04 67 93 58 28,,,,
843,843,ACCUEIL DE LOISIRS SS HÉBERGEMENT HÉRAULT,,ENFANT,,,MDJ Colombiers,,43.3129565,3.1413465,jeunessecolombiers@gmail.com,04 67 32 00 43,,,,
844,844,ACCUEIL DE LOISIRS SS HÉBERGEMENT HÉRAULT,,ENFANT,,,ALSH  municipal Lespignan (primaire),,43.273275700000006,3.1698557999999997,lacardonilha@lespignan.fr,04 67 98 49 96,,,,
845,845,ACCUEIL DE LOISIRS SS HÉBERGEMENT HÉRAULT,,ENFANT,,,ALSH municipal à Puisserguier Planète Lirou,,43.3674862,3.0516002999999996,centreloisirs@cc-sud-herault.fr,04 67 93 52 17,,,,
846,846,ACCUEIL DE LOISIRS SS HÉBERGEMENT HÉRAULT,,ENFANT,,,ALSH municipal du libron Vias,,43.2901713,3.4084874,alsh@ville-vias.fr,04 67 21 50 15,,,,
847,847,ACCUEIL DE LOISIRS SS HÉBERGEMENT HÉRAULT,,ENFANT,,,ALSH municipal Le Cyber Sète,,43.408747,3.6809358,,04 67 53 60 10,,,,
848,848,ACCUEIL DE LOISIRS SS HÉBERGEMENT HÉRAULT,,ENFANT,,,ALSH  municipal Le Chateau Vert Sète,,43.4074462,3.6806171,,04 67 51 39 82,,,,
849,849,ACCUEIL DE LOISIRS SS HÉBERGEMENT HÉRAULT,,ENFANT,,,ALSH municipal Le Vallon Sète,,43.4089861,3.6801784,,04 67 51 10 33,,,,
